{"type":"FeatureCollection","features":[{"type":"Feature","id":"29","geometry":{"type":"Point","coordinates":[119.9465611,25.98015]},"properties":{"code":"29","name":"莒光鄉西莒衛生掩埋場","county":"連江縣","township":"莒光鄉","status":"停用","ocean":"東海","distance_m":50,"address":"無","land_parcel":"莒光鄉田沃村田沃段25、1122、1124、1125、1126地號","manager":"連江縣環境資源局","countyCode":"09007"}},{"type":"Feature","id":"28","geometry":{"type":"Point","coordinates":[119.9619111,26.16363889]},"properties":{"code":"28","name":"南竿鄉垃圾衛生掩埋場","county":"連江縣","township":"南竿鄉","status":"停用","ocean":"東海","distance_m":20,"address":"無","land_parcel":"南竿鄉復興段2225、2226、2548、2548-2等13筆地號","manager":"連江縣環境資源局","countyCode":"09007"}},{"type":"Feature","id":"27","geometry":{"type":"Point","coordinates":[118.4473139,24.41696389]},"properties":{"code":"27","name":"金湖鎮新塘掩埋場","county":"金門縣","township":"金湖鎮","status":"復育","ocean":"臺灣海峽","distance_m":60,"address":"金湖鎮新塘100號","land_parcel":"金湖鎮料羅段152-1地號","manager":"金湖鎮公所","countyCode":"09020"}},{"type":"Feature","id":"26","geometry":{"type":"Point","coordinates":[118.3270194,24.38983889]},"properties":{"code":"26","name":"金城鎮赤山垃圾衛生掩埋場","county":"金門縣","township":"金城鎮","status":"復育","ocean":"臺灣海峽","distance_m":65,"address":"金門縣金城鎮小古崗100號","land_parcel":"金城鎮珠山段1404-1號","manager":"金城鎮公所","countyCode":"09020"}},{"type":"Feature","id":"25","geometry":{"type":"Point","coordinates":[119.6335806,23.59463889]},"properties":{"code":"25","name":"湖西鄉紅羅衛生掩埋場","county":"澎湖縣","township":"湖西鄉","status":"營運中","ocean":"臺灣海峽","distance_m":15,"address":"湖西鄉紅羅村12鄰129號","land_parcel":"湖西鄉紅羅罩段2380-1地號等16筆","manager":"湖西鄉公所","countyCode":"10016"}},{"type":"Feature","id":"24","geometry":{"type":"Point","coordinates":[119.6227583,23.5909]},"properties":{"code":"24","name":"湖西鄉東石段掩埋場(東石環保公園)","county":"澎湖縣","township":"湖西鄉","status":"復育","ocean":"臺灣海峽","distance_m":10,"address":"無","land_parcel":"湖西鄉東石新段1、2、9地號","manager":"湖西鄉公所","countyCode":"10016"}},{"type":"Feature","id":"23","geometry":{"type":"Point","coordinates":[119.5308806,23.37086944]},"properties":{"code":"23","name":"望安鄉將軍衛生掩埋場","county":"澎湖縣","township":"望安鄉","status":"營運中","ocean":"臺灣海峽","distance_m":50,"address":"無","land_parcel":"望安鄉將軍段859地號","manager":"望安鄉公所","countyCode":"10016"}},{"type":"Feature","id":"22","geometry":{"type":"Point","coordinates":[119.6649861,23.66156111]},"properties":{"code":"22","name":"白沙鄉鳥嶼垃圾掩埋場","county":"澎湖縣","township":"白沙鄉","status":"營運中","ocean":"臺灣海峽","distance_m":50,"address":"白沙鄉鳥嶼村46-1號","land_parcel":"白沙鄉鳥嶼段1-1地號","manager":"白沙鄉公所","countyCode":"10016"}},{"type":"Feature","id":"21","geometry":{"type":"Point","coordinates":[119.6059611,23.65798889]},"properties":{"code":"21","name":"白沙鄉岐頭衛生掩埋場","county":"澎湖縣","township":"白沙鄉","status":"營運中","ocean":"臺灣海峽","distance_m":50,"address":"白沙鄉岐頭村51-4號","land_parcel":"白沙鄉岐頭段1、11-1、11-2、11-10、11-12、11-13、11-14、11-17地號","manager":"白沙鄉公所","countyCode":"10016"}},{"type":"Feature","id":"20","geometry":{"type":"Point","coordinates":[119.6213194,23.74406944]},"properties":{"code":"20","name":"白沙鄉吉貝村垃圾衛生掩埋場","county":"澎湖縣","township":"白沙鄉","status":"營運中","ocean":"臺灣海峽","distance_m":50,"address":"白沙鄉吉貝村27-9號","land_parcel":"白沙鄉吉貝段 2-11地號","manager":"白沙鄉公所","countyCode":"10016"}},{"type":"Feature","id":"19","geometry":{"type":"Point","coordinates":[119.5662833,23.61933611]},"properties":{"code":"19","name":"白沙鄉大倉垃圾掩埋場","county":"澎湖縣","township":"白沙鄉","status":"營運中","ocean":"臺灣海峽","distance_m":50,"address":"白沙鄉大倉村22-1號","land_parcel":"白沙鄉大倉段126-0005地號","manager":"白沙鄉公所","countyCode":"10016"}},{"type":"Feature","id":"18","geometry":{"type":"Point","coordinates":[119.4170889,23.21646944]},"properties":{"code":"18","name":"七美鄉第一衛生掩埋場","county":"澎湖縣","township":"七美鄉","status":"復育","ocean":"臺灣海峽","distance_m":34,"address":"無","land_parcel":"七美鄉大嶼段原4806地號","manager":"七美鄉公所","countyCode":"10016"}},{"type":"Feature","id":"17","geometry":{"type":"Point","coordinates":[120.3535306,22.32511944]},"properties":{"code":"17","name":"琉球鄉天福垃圾復育場","county":"屏東縣","township":"琉球鄉","status":"復育","ocean":"臺灣海峽","distance_m":10,"address":"位於天福村，環島公路旁","land_parcel":"無","manager":"琉球鄉公所","countyCode":"10013"}},{"type":"Feature","id":"16","geometry":{"type":"Point","coordinates":[120.38195,22.34016944]},"properties":{"code":"16","name":"琉球鄉大福垃圾復育場","county":"屏東縣","township":"琉球鄉","status":"復育","ocean":"臺灣海峽","distance_m":10,"address":"位於大福村大福漁港之北側，環島公路旁","land_parcel":"無","manager":"琉球鄉公所","countyCode":"10013"}},{"type":"Feature","id":"15","geometry":{"type":"Point","coordinates":[120.718075,22.09370278]},"properties":{"code":"15","name":"車城鄉垃圾掩埋場","county":"屏東縣","township":"車城鄉","status":"復育","ocean":"臺灣海峽","distance_m":10,"address":"無","land_parcel":"屏東縣車城鄉海口段442地號","manager":"車城鄉公所","countyCode":"10013"}},{"type":"Feature","id":"14","geometry":{"type":"Point","coordinates":[120.4313861,24.1497]},"properties":{"code":"14","name":"線西鄉彰濱工業區臨時衛生掩埋場","county":"彰化縣","township":"線西鄉","status":"復育","ocean":"臺灣海峽","distance_m":10,"address":"無","land_parcel":"線西鄉西興段50，26地號","manager":"線西鄉公所","countyCode":"10007"}},{"type":"Feature","id":"13","geometry":{"type":"Point","coordinates":[120.3910972,24.08517778]},"properties":{"code":"13","name":"鹿港鎮彰濱衛生掩埋場","county":"彰化縣","township":"鹿港鎮","status":"復育","ocean":"臺灣海峽","distance_m":50,"address":"無","land_parcel":"鹿港鎮鹿工段0001地號","manager":"鹿港鎮公所","countyCode":"10007"}},{"type":"Feature","id":"12","geometry":{"type":"Point","coordinates":[120.4075389,24.06265]},"properties":{"code":"12","name":"鹿港鎮東石衛生掩埋場","county":"彰化縣","township":"鹿港鎮","status":"復育","ocean":"臺灣海峽","distance_m":50,"address":"無","land_parcel":"鹿港鎮東石段1124.1125.1126.1127地號","manager":"鹿港鎮公所","countyCode":"10007"}},{"type":"Feature","id":"11","geometry":{"type":"Point","coordinates":[120.3704694,24.03718056]},"properties":{"code":"11","name":"芳苑鄉福興地區區域性垃圾聯合衛生掩埋場（復育區）","county":"彰化縣","township":"芳苑鄉","status":"復育","ocean":"臺灣海峽","distance_m":15,"address":"無","land_parcel":"芳苑鄉漢寶園段1079地號","manager":"芳苑鄉公所","countyCode":"10007"}},{"type":"Feature","id":"10","geometry":{"type":"Point","coordinates":[120.3728306,24.03763056]},"properties":{"code":"10","name":"芳苑鄉福興地區區域性垃圾聯合衛生掩埋場","county":"彰化縣","township":"芳苑鄉","status":"營運中","ocean":"臺灣海峽","distance_m":15,"address":"無","land_parcel":"芳苑鄉漢寶園段1081號","manager":"芳苑鄉公所","countyCode":"10007"}},{"type":"Feature","id":"9","geometry":{"type":"Point","coordinates":[120.8319972,24.66716111]},"properties":{"code":"9","name":"後龍鎮衛生掩埋場","county":"苗栗縣","township":"後龍鎮","status":"營運中","ocean":"中港溪出海口","distance_m":50,"address":"無","land_parcel":"後龍鎮海寶里苦苓腳段5118-14、15、18等三筆","manager":"後龍鎮公所","countyCode":"10005"}},{"type":"Feature","id":"8","geometry":{"type":"Point","coordinates":[121.8413194,24.64656944]},"properties":{"code":"8","name":"五結鄉垃圾衛生掩埋場","county":"宜蘭縣","township":"五結鄉","status":"營運中","ocean":"太平洋","distance_m":75,"address":"無","land_parcel":"五結鄉利工段9地號","manager":"五結鄉公所","countyCode":"10002"}},{"type":"Feature","id":"7","geometry":{"type":"Point","coordinates":[120.3392111,22.52393056]},"properties":{"code":"7","name":"大林蒲垃圾衛生掩埋場","county":"高雄市","township":"小港區","status":"復育","ocean":"臺灣海峽","distance_m":30,"address":"無","land_parcel":"小港區南星段2-2、2-3、2-5、2-7~2-10號","manager":"臺灣港務公司","countyCode":"64000"}},{"type":"Feature","id":"6","geometry":{"type":"Point","coordinates":[120.2416,22.75025]},"properties":{"code":"6","name":"梓官區垃圾衛生掩埋場","county":"高雄市","township":"彌陀區","status":"封閉","ocean":"臺灣海峽","distance_m":40,"address":"無","land_parcel":"彌陀區南庄段1099、1101、1103、1104、1123地號","manager":"高雄市政府環境保護局","countyCode":"64000"}},{"type":"Feature","id":"5","geometry":{"type":"Point","coordinates":[120.17735,22.90783889]},"properties":{"code":"5","name":"茄萣區垃圾衛生掩埋場","county":"高雄市","township":"茄萣區","status":"復育","ocean":"臺灣海峽","distance_m":50,"address":"無","land_parcel":"茄萣區白雲段1156、1157、1168~1170、1222、1237~1240、1246、1246-2、1248地號","manager":"高雄市政府環境保護局","countyCode":"64000"}},{"type":"Feature","id":"4","geometry":{"type":"Point","coordinates":[120.0860306,23.12951944]},"properties":{"code":"4","name":"七股區龍山垃圾掩埋場","county":"臺南市","township":"七股區","status":"封閉","ocean":"臺灣海峽","distance_m":20,"address":"無","land_parcel":"七股區下山子寮段379-4地號","manager":"臺南市政府環境保護局","countyCode":"67000"}},{"type":"Feature","id":"3","geometry":{"type":"Point","coordinates":[121.1377,25.07466944]},"properties":{"code":"3","name":"觀音區保障垃圾衛生掩埋場","county":"桃園市","township":"觀音區","status":"營運中","ocean":"臺灣海峽\n（東海與南海間）","distance_m":30,"address":"無","land_parcel":"草漯段2529-0000、2530-0000等5筆地號","manager":"桃園市政府環境保護局","countyCode":"68000"}},{"type":"Feature","id":"2","geometry":{"type":"Point","coordinates":[121.1595694,25.07901111]},"properties":{"code":"2","name":"大園區北港垃圾掩埋場","county":"桃園市","township":"大園區","status":"封閉","ocean":"臺灣海峽\n（東海與南海間）","distance_m":30,"address":"無","land_parcel":"許厝港段1224-0000、1225-0000等20筆地號","manager":"桃園市政府環境保護局","countyCode":"68000"}},{"type":"Feature","id":"1","geometry":{"type":"Point","coordinates":[121.4313389,25.21148056]},"properties":{"code":"1","name":"淡水區簡易垃圾掩埋場","county":"新北市","township":"淡水區","status":"復育","ocean":"臺灣海峽","distance_m":10,"address":"淡水區下圭柔山 91之7號旁","land_parcel":"淡水區下圭柔山段570-1、570-2、571-1、571-2、571-3、494-2、494-3地號","manager":"新北市政府環境保護局","countyCode":"65000"}}]}