{"type":"FeatureCollection","features":[{"type":"Feature","id":"T5900246","geometry":{"type":"Point","coordinates":[120.498886,22.499281]},"properties":{"code":"T5900246","name":"屏東縣崁頂垃圾資源回收(焚化)廠","address":"屏東縣崁頂鄉中正路881號","telephone":"(08)8634474","countyCode":"10013"}},{"type":"Feature","id":"S1602755","geometry":{"type":"Point","coordinates":[120.269447,22.810099]},"properties":{"code":"S1602755","name":"高雄市岡山垃圾資源回收(焚化)廠","address":"高雄市岡山區本洲里本工五路9號","telephone":"(07)6241168","countyCode":"64000"}},{"type":"Feature","id":"S2202553","geometry":{"type":"Point","coordinates":[120.369102,22.701321]},"properties":{"code":"S2202553","name":"高雄市仁武垃圾資源回收(焚化)廠","address":"高雄市仁武區烏林村仁安二巷100號","telephone":"(07)3743855","countyCode":"64000"}},{"type":"Feature","id":"E5602998","geometry":{"type":"Point","coordinates":[120.375923,22.550163]},"properties":{"code":"E5602998","name":"高雄市政府環境保護局南區資源回收廠","address":"高雄市小港區北林路6號","telephone":"(07)8069750","countyCode":"64000"}},{"type":"Feature","id":"E5002890","geometry":{"type":"Point","coordinates":[120.331184,22.665615]},"properties":{"code":"E5002890","name":"高雄市政府環境保護局中區資源回收廠","address":"高雄市三民區鼎金一巷15號","telephone":"(07)3909400","countyCode":"64000"}},{"type":"Feature","id":"R1407702","geometry":{"type":"Point","coordinates":[120.282936,23.041187]},"properties":{"code":"R1407702","name":"臺南市永康垃圾資源回收(焚化)廠","address":"臺南市永康區王行東路168號","telephone":"(06)2319266","countyCode":"67000"}},{"type":"Feature","id":"D3202577","geometry":{"type":"Point","coordinates":[120.076202,23.046682]},"properties":{"code":"D3202577","name":"臺南市城西垃圾焚化廠","address":"臺南市安南區城西街三段1105巷121弄150號","telephone":"(06)2570313","countyCode":"67000"}},{"type":"Feature","id":"Q7504010","geometry":{"type":"Point","coordinates":[120.28035,23.447012]},"properties":{"code":"Q7504010","name":"嘉義縣鹿草垃圾焚化廠","address":"嘉義縣鹿草鄉豐稠村馬稠後農場60號","telephone":"(05)3621101","countyCode":"10010"}},{"type":"Feature","id":"I2604550","geometry":{"type":"Point","coordinates":[120.441551,23.443224]},"properties":{"code":"I2604550","name":"嘉義市垃圾焚化廠","address":"嘉義市西區湖內里湖子內路741號","telephone":"(05)2365669","countyCode":"10020"}},{"type":"Feature","id":"N3201030","geometry":{"type":"Point","coordinates":[120.461555,23.826223]},"properties":{"code":"N3201030","name":"彰化縣溪州垃圾焚化廠","address":"彰化縣溪州鄉水尾村彰水路一段臨1號","telephone":"(04)8899411","countyCode":"10007"}},{"type":"Feature","id":"L0056153","geometry":{"type":"Point","coordinates":[120.63105,24.070522]},"properties":{"code":"L0056153","name":"臺中市烏日資源回收廠","address":"臺中市烏日區東園村11鄰慶光路800號","telephone":"(04)23359155","countyCode":"66000"}},{"type":"Feature","id":"L9201289","geometry":{"type":"Point","coordinates":[120.698494,24.28717]},"properties":{"code":"L9201289","name":"臺中市后里資源回收廠","address":"臺中市后里區堤防路556號","telephone":"(04)25582595","countyCode":"66000"}},{"type":"Feature","id":"B2402442","geometry":{"type":"Point","coordinates":[120.600471,24.151863]},"properties":{"code":"B2402442","name":"臺中市文山垃圾焚化廠","address":"臺中市南屯區文山南巷500號","telephone":"(04)23861019","countyCode":"66000"}},{"type":"Feature","id":"K7107366","geometry":{"type":"Point","coordinates":[120.836105,24.674337]},"properties":{"code":"K7107366","name":"苗栗縣垃圾焚化廠","address":"苗栗縣竹南鎮保安林25之60號","telephone":"(037)484380","countyCode":"10005"}},{"type":"Feature","id":"O1708678","geometry":{"type":"Point","coordinates":[120.918411,24.834726]},"properties":{"code":"O1708678","name":"新竹市垃圾資源回收廠","address":"新竹市北區海濱路240號","telephone":"(03)5368920","countyCode":"10018"}},{"type":"Feature","id":"G3801239","geometry":{"type":"Point","coordinates":[121.834892,24.660824]},"properties":{"code":"G3801239","name":"宜蘭縣利澤垃圾資源回收(焚化)廠","address":"宜蘭縣五結鄉利工二路100號","telephone":"(03)9909228","countyCode":"10002"}},{"type":"Feature","id":"H4307715","geometry":{"type":"Point","coordinates":[121.249115,24.992184]},"properties":{"code":"H4307715","name":"桃園市垃圾焚化廠","address":"桃園市中壢區松江北路16號","telephone":"(03)4511111","countyCode":"68000"}},{"type":"Feature","id":"F2300972","geometry":{"type":"Point","coordinates":[121.368675,25.135759]},"properties":{"code":"F2300972","name":"新北市八里垃圾焚化廠","address":"新北市八里區下罟子65號","telephone":"(02)26195111","countyCode":"65000"}},{"type":"Feature","id":"F0703948","geometry":{"type":"Point","coordinates":[121.380646,24.96664]},"properties":{"code":"F0703948","name":"新北市樹林垃圾焚化廠","address":"新北市樹林區中山路三段212號","telephone":"(02)26808217","countyCode":"65000"}},{"type":"Feature","id":"F0501686","geometry":{"type":"Point","coordinates":[121.496719,24.95829]},"properties":{"code":"F0501686","name":"新北市新店垃圾焚化廠","address":"新北市新店區薏仁坑路自強巷1號","telephone":"(02)22142022","countyCode":"65000"}},{"type":"Feature","id":"A4200130","geometry":{"type":"Point","coordinates":[121.603439,25.062841]},"properties":{"code":"A4200130","name":"臺北市政府環境保護局內湖垃圾焚化廠","address":"臺北市內湖區安康路290號","telephone":"(02)27961833","countyCode":"63000"}},{"type":"Feature","id":"A4000283","geometry":{"type":"Point","coordinates":[121.58638,25.005156]},"properties":{"code":"A4000283","name":"臺北市政府環境保護局木柵垃圾焚化廠","address":"臺北市文山區木柵路五段53號","telephone":"(02)22300800","countyCode":"63000"}},{"type":"Feature","id":"A4400916","geometry":{"type":"Point","coordinates":[121.499214,25.107388]},"properties":{"code":"A4400916","name":"臺北市政府環境保護局北投垃圾焚化廠","address":"臺北市北投區洲美街271號","telephone":"(02)28360050","countyCode":"63000"}},{"type":"Feature","id":"C1600321","geometry":{"type":"Point","coordinates":[121.774971,25.123545]},"properties":{"code":"C1600321","name":"基隆市天外天垃圾資源回收(焚化)廠","address":"基隆市信義區東光里培德路223號","telephone":"(02)24658632","countyCode":"10017"}}]}