{"type":"FeatureCollection","features":[{"type":"Feature","id":"RIVWLSTA_e.1","geometry":{"type":"Point","coordinates":[121.62935597,25.22574799]},"properties":{"name":"新磺溪橋(即時)","code":"1010H006","STATUS":"現存","ADDR_C":" ","countyCode":"65000"}},{"type":"Feature","id":"RIVWLSTA_e.2","geometry":{"type":"Point","coordinates":[121.63850013,25.22972738]},"properties":{"name":"磺溪河口","code":"1010H007","STATUS":"現存","ADDR_C":"新北市金山區","countyCode":"65000"}},{"type":"Feature","id":"RIVWLSTA_e.3","geometry":{"type":"Point","coordinates":[121.29811961,24.65643474]},"properties":{"name":"玉峰(馬利哥灣)","code":"1140H001","STATUS":"現存","ADDR_C":"新竹縣尖石鄉玉峰村","countyCode":"10004"}},{"type":"Feature","id":"RIVWLSTA_e.4","geometry":{"type":"Point","coordinates":[121.38379732,24.67759574]},"properties":{"name":"稜角","code":"1140H002","STATUS":"現存","ADDR_C":"桃園市復興區華陵里","countyCode":"68000"}},{"type":"Feature","id":"RIVWLSTA_e.5","geometry":{"type":"Point","coordinates":[121.50492143,25.05176108]},"properties":{"name":"台北橋","code":"1140H029","STATUS":"現存","ADDR_C":"台北市大同區星耀里","countyCode":"65000"}},{"type":"Feature","id":"RIVWLSTA_e.6","geometry":{"type":"Point","coordinates":[121.52568901,25.07430306]},"properties":{"name":"中山橋","code":"1140H036","STATUS":"現存","ADDR_C":"台北市中山區中山北路三段","countyCode":"63000"}},{"type":"Feature","id":"RIVWLSTA_e.7","geometry":{"type":"Point","coordinates":[121.45645347,25.13458007]},"properties":{"name":"土地公鼻(即時)","code":"1140H039","STATUS":"現存","ADDR_C":"新北市淡水區竹圍里土地公鼻","countyCode":"65000"}},{"type":"Feature","id":"RIVWLSTA_e.8","geometry":{"type":"Point","coordinates":[121.28537711,24.61667809]},"properties":{"name":"秀巒","code":"1140H041","STATUS":"現存","ADDR_C":"新竹縣尖石鄉秀巒村","countyCode":"10004"}},{"type":"Feature","id":"RIVWLSTA_e.9","geometry":{"type":"Point","coordinates":[121.36432175,24.71436594]},"properties":{"name":"高義","code":"1140H043","STATUS":"現存","ADDR_C":"桃園市復興區高義里","countyCode":"68000"}},{"type":"Feature","id":"RIVWLSTA_e.10","geometry":{"type":"Point","coordinates":[121.37381293,24.93456169]},"properties":{"name":"三峽(2)","code":"1140H048","STATUS":"現存","ADDR_C":"新北市三峽區三峽橋","countyCode":"65000"}},{"type":"Feature","id":"RIVWLSTA_e.11","geometry":{"type":"Point","coordinates":[121.39485366,24.93575831]},"properties":{"name":"橫溪","code":"1140H049","STATUS":"現存","ADDR_C":"新北市三峽區溪北里","countyCode":"65000"}},{"type":"Feature","id":"RIVWLSTA_e.12","geometry":{"type":"Point","coordinates":[120.21582311,23.0191554]},"properties":{"name":"中正橋(即時)","code":"1140H052","STATUS":"現存","ADDR_C":"台北市古亭區上村里","countyCode":"67000"}},{"type":"Feature","id":"RIVWLSTA_e.13","geometry":{"type":"Point","coordinates":[121.51485134,25.07948433]},"properties":{"name":"洲美大橋","code":"1140H053","STATUS":"現存","ADDR_C":"台北市士林區洲美里","countyCode":"63000"}},{"type":"Feature","id":"RIVWLSTA_e.14","geometry":{"type":"Point","coordinates":[121.36234268,24.76802477]},"properties":{"name":"霞雲","code":"1140H054","STATUS":"現存","ADDR_C":"桃園市復興區羅浮里","countyCode":"68000"}},{"type":"Feature","id":"RIVWLSTA_e.15","geometry":{"type":"Point","coordinates":[121.69656604,25.07914899]},"properties":{"name":"五堵","code":"1140H058","STATUS":"現存","ADDR_C":"基隆市七堵區五堵北街","countyCode":"10017"}},{"type":"Feature","id":"RIVWLSTA_e.16","geometry":{"type":"Point","coordinates":[121.46132879,25.11080559]},"properties":{"name":"獅子頭(即時)","code":"1140H059","STATUS":"現存","ADDR_C":"新北市五股區集福里","countyCode":"63000"}},{"type":"Feature","id":"RIVWLSTA_e.17","geometry":{"type":"Point","coordinates":[121.52916512,24.98939592]},"properties":{"name":"秀朗","code":"1140H066","STATUS":"現存","ADDR_C":"新北市中和區秀朗橋","countyCode":"65000"}},{"type":"Feature","id":"RIVWLSTA_e.18","geometry":{"type":"Point","coordinates":[121.35338302,24.94475613]},"properties":{"name":"三鶯橋","code":"1140H067","STATUS":"現存","ADDR_C":"新北市鶯歌區南靖里","countyCode":"65000"}},{"type":"Feature","id":"RIVWLSTA_e.19","geometry":{"type":"Point","coordinates":[121.54656422,24.9149295]},"properties":{"name":"屈尺","code":"1140H068","STATUS":"現存","ADDR_C":"新北市新店區龜山橋","countyCode":"65000"}},{"type":"Feature","id":"RIVWLSTA_e.20","geometry":{"type":"Point","coordinates":[121.25302655,24.82295237]},"properties":{"name":"石門(後池)","code":"1140H076","STATUS":"現存","ADDR_C":"桃園市龍潭區大坪里","countyCode":"68000"}},{"type":"Feature","id":"RIVWLSTA_e.21","geometry":{"type":"Point","coordinates":[121.55436534,25.08416142]},"properties":{"name":"大直橋","code":"1140H077","STATUS":"現存","ADDR_C":"台北市中山區","countyCode":"63000"}},{"type":"Feature","id":"RIVWLSTA_e.22","geometry":{"type":"Point","coordinates":[121.55322141,24.97976715]},"properties":{"name":"寶橋","code":"1140H082","STATUS":"現存","ADDR_C":"台北市木柵區寶橋","countyCode":"63000"}},{"type":"Feature","id":"RIVWLSTA_e.23","geometry":{"type":"Point","coordinates":[121.4821863,25.04609276]},"properties":{"name":"入口堰(即時)","code":"1140H083","STATUS":"現存","ADDR_C":"新北市三重區重新路","countyCode":"65000"}},{"type":"Feature","id":"RIVWLSTA_e.24","geometry":{"type":"Point","coordinates":[121.46517086,25.06572197]},"properties":{"name":"疏洪道(即時)","code":"1140H084","STATUS":"現存","ADDR_C":"新北市新莊區台貿二村","countyCode":"65000"}},{"type":"Feature","id":"RIVWLSTA_e.25","geometry":{"type":"Point","coordinates":[121.41017902,25.18267098]},"properties":{"name":"河口","code":"1140H087","STATUS":"現存","ADDR_C":"新北市淡水區第二漁港內","countyCode":"65000"}},{"type":"Feature","id":"RIVWLSTA_e.26","geometry":{"type":"Point","coordinates":[121.54994864,24.89902395]},"properties":{"name":"上龜山橋","code":"1140H089","STATUS":"現存","ADDR_C":"新北市新店區新烏路上龜山橋","countyCode":"65000"}},{"type":"Feature","id":"RIVWLSTA_e.27","geometry":{"type":"Point","coordinates":[121.55128692,24.86211503]},"properties":{"name":"覽勝橋","code":"1140H095","STATUS":"現存","ADDR_C":"新北市烏來區攬勝橋","countyCode":"65000"}},{"type":"Feature","id":"RIVWLSTA_e.28","geometry":{"type":"Point","coordinates":[121.70044098,24.93619756]},"properties":{"name":"水源橋","code":"1140H096","STATUS":"現存","ADDR_C":"新北市坪林區水源橋","countyCode":"65000"}},{"type":"Feature","id":"RIVWLSTA_e.29","geometry":{"type":"Point","coordinates":[121.70525157,24.9323618]},"properties":{"name":"大林橋","code":"1140H097","STATUS":"現存","ADDR_C":"新北市坪林區大林橋","countyCode":"65000"}},{"type":"Feature","id":"RIVWLSTA_e.30","geometry":{"type":"Point","coordinates":[121.68911798,24.92824221]},"properties":{"name":"金瓜寮橋","code":"1140H098","STATUS":"現存","ADDR_C":"新北市坪林區金瓜寮溪橋","countyCode":"65000"}},{"type":"Feature","id":"RIVWLSTA_e.31","geometry":{"type":"Point","coordinates":[121.76920614,24.96168242]},"properties":{"name":"思源橋","code":"1140H099","STATUS":"現存","ADDR_C":"新北市坪林區思源橋","countyCode":"65000"}},{"type":"Feature","id":"RIVWLSTA_e.32","geometry":{"type":"Point","coordinates":[121.7127917,24.93586356]},"properties":{"name":"坪林拱橋站","code":"1140H101","STATUS":"現存","ADDR_C":"新北市坪林區坪林拱橋","countyCode":"65000"}},{"type":"Feature","id":"RIVWLSTA_e.33","geometry":{"type":"Point","coordinates":[121.7406586,24.94985816]},"properties":{"name":"虎寮潭橋站","code":"1140H102","STATUS":"現存","ADDR_C":"新北市坪林區虎寮潭橋","countyCode":"65000"}},{"type":"Feature","id":"RIVWLSTA_e.34","geometry":{"type":"Point","coordinates":[121.43052049,24.97935348]},"properties":{"name":"城林橋","code":"1140H105","STATUS":"現存","ADDR_C":"新北市土城區城林橋","countyCode":"65000"}},{"type":"Feature","id":"RIVWLSTA_e.35","geometry":{"type":"Point","coordinates":[121.34364608,24.95207977]},"properties":{"name":"建國橋","code":"1140H106","STATUS":"現存","ADDR_C":"新北市鶯歌區建國橋","countyCode":"65000"}},{"type":"Feature","id":"RIVWLSTA_e.36","geometry":{"type":"Point","coordinates":[121.52788002,24.97066516]},"properties":{"name":"安坑橋","code":"1140H107","STATUS":"現存","ADDR_C":"新北市新店區安坑橋","countyCode":"65000"}},{"type":"Feature","id":"RIVWLSTA_e.37","geometry":{"type":"Point","coordinates":[121.58432465,25.00182128]},"properties":{"name":"萬福橋","code":"1140H108","STATUS":"現存","ADDR_C":"台北市文山區萬福橋","countyCode":"63000"}},{"type":"Feature","id":"RIVWLSTA_e.38","geometry":{"type":"Point","coordinates":[121.54656422,24.9149295]},"properties":{"name":"屈尺堰","code":"1140H109","STATUS":"現存","ADDR_C":"新北市新店區","countyCode":"65000"}},{"type":"Feature","id":"RIVWLSTA_e.39","geometry":{"type":"Point","coordinates":[121.80453772,25.10675782]},"properties":{"name":"介壽橋(1)","code":"1140H110","STATUS":"現存","ADDR_C":"新北市瑞芳鎮東和里","countyCode":"65000"}},{"type":"Feature","id":"RIVWLSTA_e.40","geometry":{"type":"Point","coordinates":[121.45480561,25.03331787]},"properties":{"name":"新海大橋(即時)","code":"1140H111","STATUS":"現存","ADDR_C":"環河路新海橋下游測堤防","countyCode":"65000"}},{"type":"Feature","id":"RIVWLSTA_e.41","geometry":{"type":"Point","coordinates":[121.536583,24.961567]},"properties":{"name":"碧潭橋(即時)","code":"1140H112","STATUS":"現存","ADDR_C":"環河路碧潭橋上右岸下游","countyCode":"65000"}},{"type":"Feature","id":"RIVWLSTA_e.42","geometry":{"type":"Point","coordinates":[121.6691987,25.079529]},"properties":{"name":"長安橋(即時)","code":"1140H113","STATUS":"現存","ADDR_C":"五堵抽水站旁","countyCode":"65000"}},{"type":"Feature","id":"RIVWLSTA_e.43","geometry":{"type":"Point","coordinates":[121.63378,25.063267]},"properties":{"name":"社后橋(即時)","code":"1140H115","STATUS":"現存","ADDR_C":"NULL","countyCode":"65000"}},{"type":"Feature","id":"RIVWLSTA_e.44","geometry":{"type":"Point","coordinates":[121.612081,25.062967]},"properties":{"name":"南湖大橋(即時)","code":"1140H116","STATUS":"現存","ADDR_C":"三重路南湖大橋下游段","countyCode":"63000"}},{"type":"Feature","id":"RIVWLSTA_e.45","geometry":{"type":"Point","coordinates":[121.515383,25.089466]},"properties":{"name":"百齡橋(即時)","code":"1140H117","STATUS":"現存","ADDR_C":"大南路389號的堤防","countyCode":"63000"}},{"type":"Feature","id":"RIVWLSTA_e.46","geometry":{"type":"Point","coordinates":[121.39436,24.96616]},"properties":{"name":"柑園橋(即時)","code":"1140H118","STATUS":"現存","ADDR_C":"佳園路二段柑園橋橋上下游測","countyCode":"65000"}},{"type":"Feature","id":"RIVWLSTA_e.47","geometry":{"type":"Point","coordinates":[121.612781,25.000867]},"properties":{"name":"深坑中正橋(即時)","code":"1140H119","STATUS":"現存","ADDR_C":"深坑中正橋上游側","countyCode":"65000"}},{"type":"Feature","id":"RIVWLSTA_e.48","geometry":{"type":"Point","coordinates":[121.65538,25.068267]},"properties":{"name":"江北橋(即時)","code":"1140H120","STATUS":"現存","ADDR_C":"NULL","countyCode":"65000"}},{"type":"Feature","id":"RIVWLSTA_e.49","geometry":{"type":"Point","coordinates":[121.827807,25.107177]},"properties":{"name":"員山子","code":"1140H123","STATUS":"現存","ADDR_C":"瑞芳區瑞侯公路員山子分洪口","countyCode":"65000"}},{"type":"Feature","id":"RIVWLSTA_e.50","geometry":{"type":"Point","coordinates":[121.831786,25.091759]},"properties":{"name":"甕仔潭橋(即時)","code":"1140H124","STATUS":"現存","ADDR_C":"柴寮路甕仔潭橋左岸","countyCode":"65000"}},{"type":"Feature","id":"RIVWLSTA_e.51","geometry":{"type":"Point","coordinates":[121.53815659,24.9145084]},"properties":{"name":"廣興","code":"1140H125","STATUS":"現存","ADDR_C":"新北市新店區廣興里廣興護岸","countyCode":"65000"}},{"type":"Feature","id":"RIVWLSTA_e.52","geometry":{"type":"Point","coordinates":[121.54023558,24.88459031]},"properties":{"name":"加九寮景觀大橋","code":"1140H126","STATUS":"現存","ADDR_C":"新北市烏來區","countyCode":"65000"}},{"type":"Feature","id":"RIVWLSTA_e.53","geometry":{"type":"Point","coordinates":[121.416062,24.926309]},"properties":{"name":"橫溪海山橋","code":"1140H127","STATUS":"現存","ADDR_C":"新北市三峽區成福路6巷30號","countyCode":"65000"}},{"type":"Feature","id":"RIVWLSTA_e.54","geometry":{"type":"Point","coordinates":[121.41026602,24.96019898]},"properties":{"name":"柑城橋(即時)","code":"1140H130","STATUS":"現存","ADDR_C":" ","countyCode":"65000"}},{"type":"Feature","id":"RIVWLSTA_e.55","geometry":{"type":"Point","coordinates":[121.50337298,24.78069895]},"properties":{"name":"福山一號橋站","code":"1140H131","STATUS":"現存","ADDR_C":"新北市烏來區福山一號橋","countyCode":"65000"}},{"type":"Feature","id":"RIVWLSTA_e.56","geometry":{"type":"Point","coordinates":[121.55175495,24.86440702]},"properties":{"name":"烏來橋站","code":"1140H136","STATUS":"現存","ADDR_C":"新北市新店區烏來橋","countyCode":"65000"}},{"type":"Feature","id":"RIVWLSTA_e.57","geometry":{"type":"Point","coordinates":[121.66942137,25.09381845]},"properties":{"name":"友諒橋_基","code":"1140H137","STATUS":"現存","ADDR_C":"基隆市七堵區","countyCode":"10017"}},{"type":"Feature","id":"RIVWLSTA_e.58","geometry":{"type":"Point","coordinates":[121.72467019,25.11839322]},"properties":{"name":"得勝橋_基","code":"1140H138","STATUS":"現存","ADDR_C":"基隆市安樂區","countyCode":"10017"}},{"type":"Feature","id":"RIVWLSTA_e.59","geometry":{"type":"Point","coordinates":[121.73589336,25.10123121]},"properties":{"name":"水源橋_基","code":"1140H139","STATUS":"現存","ADDR_C":"基隆市暖暖區","countyCode":"10017"}},{"type":"Feature","id":"RIVWLSTA_e.60","geometry":{"type":"Point","coordinates":[121.69991371,25.14885312]},"properties":{"name":"大武崙工業區路口_基","code":"1140H140","STATUS":"現存","ADDR_C":"基隆市安樂區","countyCode":"10017"}},{"type":"Feature","id":"RIVWLSTA_e.61","geometry":{"type":"Point","coordinates":[121.45132555,25.10545664]},"properties":{"name":"觀音坑溪排水_新","code":"1140H142","STATUS":"現存","ADDR_C":"新北市五股區","countyCode":"65000"}},{"type":"Feature","id":"RIVWLSTA_e.62","geometry":{"type":"Point","coordinates":[121.45935617,25.1378285]},"properties":{"name":"竹圍捷運站_新","code":"1140H143","STATUS":"現存","ADDR_C":"新北市淡水區","countyCode":"65000"}},{"type":"Feature","id":"RIVWLSTA_e.63","geometry":{"type":"Point","coordinates":[121.45258356,25.17176831]},"properties":{"name":"庄子內溝排水_新","code":"1140H144","STATUS":"現存","ADDR_C":"新北市淡水區","countyCode":"65000"}},{"type":"Feature","id":"RIVWLSTA_e.64","geometry":{"type":"Point","coordinates":[121.3287793,25.01577768]},"properties":{"name":"鶯桃路_新","code":"1140H145","STATUS":"現存","ADDR_C":"新北市鶯歌區","countyCode":"68000"}},{"type":"Feature","id":"RIVWLSTA_e.65","geometry":{"type":"Point","coordinates":[121.44967393,25.10368249]},"properties":{"name":"集成橋_新","code":"1140H146","STATUS":"現存","ADDR_C":"新北市五股區","countyCode":"65000"}},{"type":"Feature","id":"RIVWLSTA_e.66","geometry":{"type":"Point","coordinates":[121.43367463,25.08818014]},"properties":{"name":"民義路_新","code":"1140H148","STATUS":"現存","ADDR_C":"新北市五股區","countyCode":"65000"}},{"type":"Feature","id":"RIVWLSTA_e.67","geometry":{"type":"Point","coordinates":[121.36087652,24.92215006]},"properties":{"name":"三峽區福德坑溪福德橋","code":"1140H149","STATUS":"現存","ADDR_C":"新北市三峽區","countyCode":"65000"}},{"type":"Feature","id":"RIVWLSTA_e.68","geometry":{"type":"Point","coordinates":[121.45630376,24.98104106]},"properties":{"name":"溝柑林三號橋_新","code":"1140H150","STATUS":"現存","ADDR_C":"新北市土城區","countyCode":"65000"}},{"type":"Feature","id":"RIVWLSTA_e.69","geometry":{"type":"Point","coordinates":[121.68758996,25.17456911]},"properties":{"name":"瑪鋉溪四十九號橋_新","code":"1140H151","STATUS":"現存","ADDR_C":"新北市萬里區","countyCode":"65000"}},{"type":"Feature","id":"RIVWLSTA_e.70","geometry":{"type":"Point","coordinates":[121.44102474,25.09139957]},"properties":{"name":"御史路1巷_新","code":"1140H152","STATUS":"現存","ADDR_C":"新北市五股區","countyCode":"65000"}},{"type":"Feature","id":"RIVWLSTA_e.71","geometry":{"type":"Point","coordinates":[121.79871104,25.11953875]},"properties":{"name":"瑞基","code":"1140H153","STATUS":"現存","ADDR_C":"新北市瑞芳區","countyCode":"65000"}},{"type":"Feature","id":"RIVWLSTA_e.72","geometry":{"type":"Point","coordinates":[121.78571662,25.12584054]},"properties":{"name":"孝深社區","code":"1140H154","STATUS":"現存","ADDR_C":"基隆市信義區","countyCode":"10017"}},{"type":"Feature","id":"RIVWLSTA_e.73","geometry":{"type":"Point","coordinates":[121.5391682,24.95204898]},"properties":{"name":"灣潭","code":"1140H155","STATUS":"現存","ADDR_C":"新北市新店區","countyCode":"65000"}},{"type":"Feature","id":"RIVWLSTA_e.74","geometry":{"type":"Point","coordinates":[121.58110024,25.05312127]},"properties":{"name":"成美長壽橋","code":"1140H156","STATUS":"現存","ADDR_C":"台北市南港區","countyCode":"63000"}},{"type":"Feature","id":"RIVWLSTA_e.75","geometry":{"type":"Point","coordinates":[121.35419841,24.95069006]},"properties":{"name":"南靖橋","code":"1140H157","STATUS":"現存","ADDR_C":"新北市鶯歌區","countyCode":"65000"}},{"type":"Feature","id":"RIVWLSTA_e.76","geometry":{"type":"Point","coordinates":[121.28529979,24.88811966]},"properties":{"name":"武嶺橋","code":"1140H158","STATUS":"現存","ADDR_C":"桃園市大溪區","countyCode":"68000"}},{"type":"Feature","id":"RIVWLSTA_e.77","geometry":{"type":"Point","coordinates":[121.65169138,25.00755432]},"properties":{"name":"舊雙溪橋","code":"1140H159","STATUS":"現存","ADDR_C":"新北市石碇區","countyCode":"65000"}},{"type":"Feature","id":"RIVWLSTA_e.78","geometry":{"type":"Point","coordinates":[121.65190614,25.00037919]},"properties":{"name":"外按橋","code":"1140H160","STATUS":"現存","ADDR_C":"新北市石碇區","countyCode":"65000"}},{"type":"Feature","id":"RIVWLSTA_e.79","geometry":{"type":"Point","coordinates":[121.54747867,24.87390308]},"properties":{"name":"桂山壩","code":"1140H161","STATUS":"現存","ADDR_C":"新北市烏來區","countyCode":"65000"}},{"type":"Feature","id":"RIVWLSTA_e.80","geometry":{"type":"Point","coordinates":[121.60379637,25.21777259]},"properties":{"name":"三和橋","code":"1140H162","STATUS":"現存","ADDR_C":"新北市金山區","countyCode":"65000"}},{"type":"Feature","id":"RIVWLSTA_e.81","geometry":{"type":"Point","coordinates":[121.47802869,25.04125845]},"properties":{"name":"重翠橋","code":"1140H163","STATUS":"現存","ADDR_C":"新北市板橋區","countyCode":"65000"}},{"type":"Feature","id":"RIVWLSTA_e.82","geometry":{"type":"Point","coordinates":[121.41939723,25.02012673]},"properties":{"name":"富裕橋","code":"1140H164","STATUS":"現存","ADDR_C":"新北市新莊區","countyCode":"65000"}},{"type":"Feature","id":"RIVWLSTA_e.83","geometry":{"type":"Point","coordinates":[121.42334114,25.02700253]},"properties":{"name":"民權橋","code":"1140H165","STATUS":"現存","ADDR_C":"新北市新莊區","countyCode":"65000"}},{"type":"Feature","id":"RIVWLSTA_e.84","geometry":{"type":"Point","coordinates":[121.38845321,25.01209506]},"properties":{"name":"龍校街","code":"1140H166","STATUS":"現存","ADDR_C":"桃園市龜山區","countyCode":"68000"}},{"type":"Feature","id":"RIVWLSTA_e.85","geometry":{"type":"Point","coordinates":[121.70955744,25.14197412]},"properties":{"name":"大武崙溪_基","code":"1140H167","STATUS":"現存","ADDR_C":"基隆市仁愛區","countyCode":"10017"}},{"type":"Feature","id":"RIVWLSTA_e.86","geometry":{"type":"Point","coordinates":[121.68654071,25.11184275]},"properties":{"name":"瑪陵坑溪_基","code":"1140H168","STATUS":"現存","ADDR_C":"基隆市仁愛區","countyCode":"10017"}},{"type":"Feature","id":"RIVWLSTA_e.87","geometry":{"type":"Point","coordinates":[121.71278276,25.10901473]},"properties":{"name":"石厝坑溪_基","code":"1140H169","STATUS":"現存","ADDR_C":"基隆市仁愛區","countyCode":"10017"}},{"type":"Feature","id":"RIVWLSTA_e.88","geometry":{"type":"Point","coordinates":[121.83057469,25.10615287]},"properties":{"name":"MS1","code":"1140H170","STATUS":"現存","ADDR_C":"新北市瑞芳區","countyCode":"65000"}},{"type":"Feature","id":"RIVWLSTA_e.89","geometry":{"type":"Point","coordinates":[121.83057081,25.10557892]},"properties":{"name":"MS2","code":"1140H171","STATUS":"現存","ADDR_C":"新北市瑞芳區","countyCode":"65000"}},{"type":"Feature","id":"RIVWLSTA_e.90","geometry":{"type":"Point","coordinates":[121.83056693,25.10500496]},"properties":{"name":"MS3","code":"1140H172","STATUS":"現存","ADDR_C":"新北市瑞芳區","countyCode":"65000"}},{"type":"Feature","id":"RIVWLSTA_e.91","geometry":{"type":"Point","coordinates":[121.52112484,25.07820925]},"properties":{"name":"承德橋_北","code":"1140H173","STATUS":"現存","ADDR_C":" ","countyCode":"63000"}},{"type":"Feature","id":"RIVWLSTA_e.92","geometry":{"type":"Point","coordinates":[121.57258491,25.07149331]},"properties":{"name":"陽光橋_北","code":"1140H174","STATUS":"現存","ADDR_C":" ","countyCode":"63000"}},{"type":"Feature","id":"RIVWLSTA_e.93","geometry":{"type":"Point","coordinates":[121.50130906,25.13599108]},"properties":{"name":"薇閣_北","code":"1140H175","STATUS":"現存","ADDR_C":" ","countyCode":"63000"}},{"type":"Feature","id":"RIVWLSTA_e.94","geometry":{"type":"Point","coordinates":[121.49630719,25.01060462]},"properties":{"name":"永和橋_北","code":"1140H176","STATUS":"現存","ADDR_C":" ","countyCode":"63000"}},{"type":"Feature","id":"RIVWLSTA_e.95","geometry":{"type":"Point","coordinates":[121.55408615,25.10706622]},"properties":{"name":"婆婆橋_北","code":"1140H177","STATUS":"現存","ADDR_C":" ","countyCode":"63000"}},{"type":"Feature","id":"RIVWLSTA_e.96","geometry":{"type":"Point","coordinates":[121.61620908,25.05477895]},"properties":{"name":"南深橋_北","code":"1140H178","STATUS":"現存","ADDR_C":" ","countyCode":"63000"}},{"type":"Feature","id":"RIVWLSTA_e.97","geometry":{"type":"Point","coordinates":[121.52528716,25.11945994]},"properties":{"name":"磺溪橋_北","code":"1140H179","STATUS":"現存","ADDR_C":" ","countyCode":"63000"}},{"type":"Feature","id":"RIVWLSTA_e.98","geometry":{"type":"Point","coordinates":[121.50201653,25.1387434]},"properties":{"name":"中和橋_北","code":"1140H180","STATUS":"現存","ADDR_C":" ","countyCode":"63000"}},{"type":"Feature","id":"RIVWLSTA_e.99","geometry":{"type":"Point","coordinates":[121.54298291,25.1001932]},"properties":{"name":"望星橋_北","code":"1140H181","STATUS":"現存","ADDR_C":" ","countyCode":"63000"}},{"type":"Feature","id":"RIVWLSTA_e.100","geometry":{"type":"Point","coordinates":[121.024047,24.94109319]},"properties":{"name":"后興橋","code":"1270H001","STATUS":"現存","ADDR_C":"桃園市新屋區後庄里","countyCode":"68000"}},{"type":"Feature","id":"RIVWLSTA_e.101","geometry":{"type":"Point","coordinates":[121.04508637,24.90776522]},"properties":{"name":"德盛橋","code":"1280H001","STATUS":"現存","ADDR_C":"新竹縣湖口鄉廣盛村","countyCode":"10004"}},{"type":"Feature","id":"RIVWLSTA_e.102","geometry":{"type":"Point","coordinates":[121.06562999,24.82582187]},"properties":{"name":"新埔(2)","code":"1290H002","STATUS":"現存","ADDR_C":"新竹縣新埔鎮文山里新埔橋","countyCode":"10004"}},{"type":"Feature","id":"RIVWLSTA_e.103","geometry":{"type":"Point","coordinates":[121.17139943,24.78873906]},"properties":{"name":"關西","code":"1290H004","STATUS":"現存","ADDR_C":"新竹縣關西鎮南山里","countyCode":"10004"}},{"type":"Feature","id":"RIVWLSTA_e.104","geometry":{"type":"Point","coordinates":[121.0974209,24.83259801]},"properties":{"name":"三聖橋","code":"1290H006","STATUS":"現存","ADDR_C":"新竹縣新埔鎮四座里三聖橋","countyCode":"10004"}},{"type":"Feature","id":"RIVWLSTA_e.105","geometry":{"type":"Point","coordinates":[121.0042722,24.85219]},"properties":{"name":"鳳山溪橋","code":"1290H007","STATUS":"現存","ADDR_C":"新竹縣竹北市","countyCode":"10004"}},{"type":"Feature","id":"RIVWLSTA_e.106","geometry":{"type":"Point","coordinates":[121.18259168,24.70266951]},"properties":{"name":"內灣","code":"1300H013","STATUS":"現存","ADDR_C":"新竹縣橫山鄉內灣村","countyCode":"10004"}},{"type":"Feature","id":"RIVWLSTA_e.107","geometry":{"type":"Point","coordinates":[121.1139772,24.66893132]},"properties":{"name":"上坪","code":"1300H014","STATUS":"現存","ADDR_C":"新竹縣橫山鄉昌惠大橋","countyCode":"10004"}},{"type":"Feature","id":"RIVWLSTA_e.108","geometry":{"type":"Point","coordinates":[121.09358586,24.74766778]},"properties":{"name":"竹林大橋","code":"1300H016","STATUS":"現存","ADDR_C":"新竹縣芎林鄉石潭村","countyCode":"10004"}},{"type":"Feature","id":"RIVWLSTA_e.109","geometry":{"type":"Point","coordinates":[121.01934075,24.80788408]},"properties":{"name":"經國橋","code":"1300H017","STATUS":"現存","ADDR_C":"新竹縣竹北市東平里","countyCode":"10004"}},{"type":"Feature","id":"RIVWLSTA_e.110","geometry":{"type":"Point","coordinates":[121.09358586,24.74766778]},"properties":{"name":"竹林大橋(左岸)","code":"1300H018","STATUS":"現存","ADDR_C":"新竹縣芎林鄉石潭村","countyCode":"10004"}},{"type":"Feature","id":"RIVWLSTA_e.111","geometry":{"type":"Point","coordinates":[121.03290591,24.76960706]},"properties":{"name":"復興橋","code":"1300H019","STATUS":"現存","ADDR_C":"新竹縣竹東鎮柯湖里","countyCode":"10004"}},{"type":"Feature","id":"RIVWLSTA_e.112","geometry":{"type":"Point","coordinates":[121.12411236,24.64443317]},"properties":{"name":"五峰大橋","code":"1300H020","STATUS":"現存","ADDR_C":"新竹縣五峰鄉五峰大橋","countyCode":"10004"}},{"type":"Feature","id":"RIVWLSTA_e.113","geometry":{"type":"Point","coordinates":[120.94940801,24.84094301]},"properties":{"name":"舊港橋","code":"1300H021","STATUS":"現存","ADDR_C":"新竹縣竹北市舊港橋","countyCode":"10004"}},{"type":"Feature","id":"RIVWLSTA_e.114","geometry":{"type":"Point","coordinates":[120.93724914,24.84589915]},"properties":{"name":"竹港大橋","code":"1300H022","STATUS":"現存","ADDR_C":"新竹市北區南寮里竹港大橋","countyCode":"10018"}},{"type":"Feature","id":"RIVWLSTA_e.115","geometry":{"type":"Point","coordinates":[121.05823915,24.78602319]},"properties":{"name":"中正大橋","code":"1300H023","STATUS":"現存","ADDR_C":"新竹縣竹東鎮中正大橋","countyCode":"10004"}},{"type":"Feature","id":"RIVWLSTA_e.116","geometry":{"type":"Point","coordinates":[121.02107886,24.8018214]},"properties":{"name":"柯子湖溪匯流站","code":"1300H024","STATUS":"現存","ADDR_C":"新竹市東區千里路","countyCode":"10018"}},{"type":"Feature","id":"RIVWLSTA_e.117","geometry":{"type":"Point","coordinates":[120.93724914,24.84589915]},"properties":{"name":"測試-竹港大橋(右岸)-NB","code":"1300H22A","STATUS":"現存","ADDR_C":"新竹市北區南寮里竹港大橋","countyCode":"10018"}},{"type":"Feature","id":"RIVWLSTA_e.118","geometry":{"type":"Point","coordinates":[120.96136712,24.79334815]},"properties":{"name":"印順橋","code":"1310H001","STATUS":"現存","ADDR_C":"新竹市東區振興里印順橋","countyCode":"10018"}},{"type":"Feature","id":"RIVWLSTA_e.119","geometry":{"type":"Point","coordinates":[120.92728009,24.80316493]},"properties":{"name":"香雅橋","code":"1310H002","STATUS":"現存","ADDR_C":"新竹市香山區香雅橋","countyCode":"10018"}},{"type":"Feature","id":"RIVWLSTA_e.120","geometry":{"type":"Point","coordinates":[120.91946206,24.72963694]},"properties":{"name":"福德橋","code":"1320H001","STATUS":"現存","ADDR_C":"新竹市香山區中隘里","countyCode":"10018"}},{"type":"Feature","id":"RIVWLSTA_e.121","geometry":{"type":"Point","coordinates":[120.96520744,24.73164798]},"properties":{"name":"新豐橋","code":"1320H002","STATUS":"現存","ADDR_C":"新竹縣寶山鄉新城村新湖路","countyCode":"10004"}},{"type":"Feature","id":"RIVWLSTA_e.122","geometry":{"type":"Point","coordinates":[120.94916219,24.67583622]},"properties":{"name":"平安橋","code":"1340H008","STATUS":"現存","ADDR_C":"苗栗縣三灣鄉內灣村","countyCode":"10005"}},{"type":"Feature","id":"RIVWLSTA_e.123","geometry":{"type":"Point","coordinates":[121.00582251,24.61766271]},"properties":{"name":"永興橋","code":"1340H009","STATUS":"現存","ADDR_C":"苗栗縣南庄鄉田美村","countyCode":"10005"}},{"type":"Feature","id":"RIVWLSTA_e.124","geometry":{"type":"Point","coordinates":[120.88267325,24.66686296]},"properties":{"name":"尖山大橋","code":"1340H010","STATUS":"現存","ADDR_C":"苗栗縣頭份鎮蘆竹里尖山大橋","countyCode":"10005"}},{"type":"Feature","id":"RIVWLSTA_e.125","geometry":{"type":"Point","coordinates":[120.90779887,24.68058886]},"properties":{"name":"東興橋","code":"1340H011","STATUS":"現存","ADDR_C":"苗栗縣頭份鎮和平里東興路","countyCode":"10005"}},{"type":"Feature","id":"RIVWLSTA_e.126","geometry":{"type":"Point","coordinates":[121.01807541,24.59753551]},"properties":{"name":"東江橋","code":"1340H012","STATUS":"現存","ADDR_C":"苗栗縣南庄鄉東河村","countyCode":"10005"}},{"type":"Feature","id":"RIVWLSTA_e.127","geometry":{"type":"Point","coordinates":[120.99029719,24.58065418]},"properties":{"name":"福南橋","code":"1340H013","STATUS":"現存","ADDR_C":"苗栗縣南庄鄉福南橋","countyCode":"10005"}},{"type":"Feature","id":"RIVWLSTA_e.128","geometry":{"type":"Point","coordinates":[120.86785119,24.65607391]},"properties":{"name":"南港溪橋","code":"1340H014","STATUS":"現存","ADDR_C":"苗栗縣造橋鄉南港溪橋","countyCode":"10005"}},{"type":"Feature","id":"RIVWLSTA_e.129","geometry":{"type":"Point","coordinates":[120.98179378,24.67093541]},"properties":{"name":"銅富大橋","code":"1340H015","STATUS":"現存","ADDR_C":"新竹縣峨眉鄉湖光村銅富大橋","countyCode":"10005"}},{"type":"Feature","id":"RIVWLSTA_e.130","geometry":{"type":"Point","coordinates":[120.8351241,24.66964819]},"properties":{"name":"玄寶大橋","code":"1340H016","STATUS":"現存","ADDR_C":"苗栗縣竹南鎮港墘里玄寶大橋","countyCode":"10005"}},{"type":"Feature","id":"RIVWLSTA_e.131","geometry":{"type":"Point","coordinates":[120.86193134,24.46218982]},"properties":{"name":"打鹿坑","code":"1350H001","STATUS":"現存","ADDR_C":"苗栗縣公館鄉福德村","countyCode":"10005"}},{"type":"Feature","id":"RIVWLSTA_e.132","geometry":{"type":"Point","coordinates":[120.82550584,24.59488816]},"properties":{"name":"北勢大橋左岸","code":"1350H012","STATUS":"現存","ADDR_C":"苗栗縣後龍鎮豐富里","countyCode":"10005"}},{"type":"Feature","id":"RIVWLSTA_e.133","geometry":{"type":"Point","coordinates":[120.79480949,24.49391374]},"properties":{"name":"中平","code":"1350H016","STATUS":"現存","ADDR_C":"苗栗縣銅鑼鄉中平村","countyCode":"10005"}},{"type":"Feature","id":"RIVWLSTA_e.134","geometry":{"type":"Point","coordinates":[120.86538844,24.42825857]},"properties":{"name":"恭敬橋","code":"1350H017","STATUS":"現存","ADDR_C":"苗粟縣大湖鄉明湖村","countyCode":"10005"}},{"type":"Feature","id":"RIVWLSTA_e.135","geometry":{"type":"Point","coordinates":[120.87886538,24.42844179]},"properties":{"name":"社寮角橋","code":"1350H018","STATUS":"現存","ADDR_C":"苗栗縣大湖鄉靜湖村社寮角橋","countyCode":"10005"}},{"type":"Feature","id":"RIVWLSTA_e.136","geometry":{"type":"Point","coordinates":[120.83872826,24.56135922]},"properties":{"name":"玉清大橋","code":"1350H019","STATUS":"現存","ADDR_C":"苗栗縣苗栗市玉華里","countyCode":"10005"}},{"type":"Feature","id":"RIVWLSTA_e.137","geometry":{"type":"Point","coordinates":[120.87347267,24.45208489]},"properties":{"name":"彼岸橋","code":"1350H020","STATUS":"現存","ADDR_C":"苗栗縣大湖鄉富興村","countyCode":"10005"}},{"type":"Feature","id":"RIVWLSTA_e.138","geometry":{"type":"Point","coordinates":[120.91370973,24.45991708]},"properties":{"name":"錦卦大橋","code":"1350H021","STATUS":"現存","ADDR_C":"苗栗縣泰安鄉錦水村","countyCode":"10005"}},{"type":"Feature","id":"RIVWLSTA_e.139","geometry":{"type":"Point","coordinates":[120.86273104,24.42066004]},"properties":{"name":"環湖橋","code":"1350H022","STATUS":"現存","ADDR_C":"苗栗縣大湖鄉南湖里環湖橋","countyCode":"10005"}},{"type":"Feature","id":"RIVWLSTA_e.140","geometry":{"type":"Point","coordinates":[120.86663169,24.41166967]},"properties":{"name":"大窩橋","code":"1350H023","STATUS":"現存","ADDR_C":"苗栗縣大湖鄉南湖里大窩橋","countyCode":"10005"}},{"type":"Feature","id":"RIVWLSTA_e.141","geometry":{"type":"Point","coordinates":[120.86843758,24.39886892]},"properties":{"name":"順義橋","code":"1350H024","STATUS":"現存","ADDR_C":"苗栗縣大湖鄉順義橋","countyCode":"10005"}},{"type":"Feature","id":"RIVWLSTA_e.142","geometry":{"type":"Point","coordinates":[120.78398846,24.60861718]},"properties":{"name":"後龍溪橋","code":"1350H025","STATUS":"現存","ADDR_C":"苗栗縣後龍鎮後龍溪橋","countyCode":"10005"}},{"type":"Feature","id":"RIVWLSTA_e.143","geometry":{"type":"Point","coordinates":[120.88120379,24.58560874]},"properties":{"name":"老田寮橋","code":"1350H026","STATUS":"現存","ADDR_C":"苗栗縣頭屋鄉尖豐公路老田寮橋","countyCode":"10005"}},{"type":"Feature","id":"RIVWLSTA_e.144","geometry":{"type":"Point","coordinates":[120.81518216,24.45419834]},"properties":{"name":"泰隆橋","code":"1350H027","STATUS":"現存","ADDR_C":"苗栗縣銅鑼鄉泰隆橋","countyCode":"10005"}},{"type":"Feature","id":"RIVWLSTA_e.145","geometry":{"type":"Point","coordinates":[120.88583755,24.4667426]},"properties":{"name":"弘文橋","code":"1350H028","STATUS":"現存","ADDR_C":"苗栗縣獅潭鄉弘文橋","countyCode":"10005"}},{"type":"Feature","id":"RIVWLSTA_e.146","geometry":{"type":"Point","coordinates":[120.85323439,24.46274449]},"properties":{"name":"出礦坑橋","code":"1350H029","STATUS":"現存","ADDR_C":"苗栗縣公館鄉出礦坑橋","countyCode":"10005"}},{"type":"Feature","id":"RIVWLSTA_e.147","geometry":{"type":"Point","coordinates":[120.91912114,24.58824448]},"properties":{"name":"明德四號橋","code":"1350H030","STATUS":"現存","ADDR_C":"苗栗縣頭屋鄉","countyCode":"10005"}},{"type":"Feature","id":"RIVWLSTA_e.148","geometry":{"type":"Point","coordinates":[120.76420363,24.61599778]},"properties":{"name":"觀海大橋","code":"1350H031","STATUS":"現存","ADDR_C":"苗栗縣後龍鎮觀海大橋","countyCode":"10005"}},{"type":"Feature","id":"RIVWLSTA_e.149","geometry":{"type":"Point","coordinates":[120.91063445,24.29429506]},"properties":{"name":"雙崎","code":"1400H008","STATUS":"現存","ADDR_C":"台中市和平區東崎路二段","countyCode":"10005"}},{"type":"Feature","id":"RIVWLSTA_e.150","geometry":{"type":"Point","coordinates":[120.73786868,24.34237015]},"properties":{"name":"義里","code":"1400H009","STATUS":"現存","ADDR_C":"台中市后里區三豐路","countyCode":"66000"}},{"type":"Feature","id":"RIVWLSTA_e.151","geometry":{"type":"Point","coordinates":[120.9341789,24.33491953]},"properties":{"name":"雪山坑","code":"1400H012","STATUS":"現存","ADDR_C":"台中縣和平鄉東崎路一段桃山巷73之6號","countyCode":"66000"}},{"type":"Feature","id":"RIVWLSTA_e.152","geometry":{"type":"Point","coordinates":[120.94693616,24.35776651]},"properties":{"name":"象鼻(3)","code":"1400H015","STATUS":"現存","ADDR_C":"苗栗縣泰安鄉象鼻村","countyCode":"10005"}},{"type":"Feature","id":"RIVWLSTA_e.153","geometry":{"type":"Point","coordinates":[120.64478127,24.37054775]},"properties":{"name":"大安溪橋","code":"1400H018","STATUS":"現存","ADDR_C":"台中市大甲區經國路","countyCode":"66000"}},{"type":"Feature","id":"RIVWLSTA_e.154","geometry":{"type":"Point","coordinates":[120.8581041,24.34746007]},"properties":{"name":"景山","code":"1400H019","STATUS":"現存","ADDR_C":"苗栗縣三義鄉鯉魚潭村","countyCode":"10005"}},{"type":"Feature","id":"RIVWLSTA_e.155","geometry":{"type":"Point","coordinates":[120.81819007,24.30843445]},"properties":{"name":"卓蘭","code":"1400H020","STATUS":"現存","ADDR_C":"台中市東勢區東蘭路","countyCode":"10005"}},{"type":"Feature","id":"RIVWLSTA_e.156","geometry":{"type":"Point","coordinates":[120.60483495,24.3154722]},"properties":{"name":"大甲溪橋","code":"1420H049","STATUS":"現存","ADDR_C":"台中市清水區中山路","countyCode":"66000"}},{"type":"Feature","id":"RIVWLSTA_e.157","geometry":{"type":"Point","coordinates":[120.93887598,24.17122533]},"properties":{"name":"馬鞍後池","code":"1420H052","STATUS":"現存","ADDR_C":"台中市東勢區","countyCode":"66000"}},{"type":"Feature","id":"RIVWLSTA_e.158","geometry":{"type":"Point","coordinates":[120.86115812,24.1606819]},"properties":{"name":"天福大橋","code":"1420H053","STATUS":"現存","ADDR_C":"台中市新社區天福大橋","countyCode":"66000"}},{"type":"Feature","id":"RIVWLSTA_e.159","geometry":{"type":"Point","coordinates":[121.01206755,24.20390983]},"properties":{"name":"谷關大橋","code":"1420H054","STATUS":"現存","ADDR_C":"台中市和平區東關路一段溫泉巷","countyCode":"66000"}},{"type":"Feature","id":"RIVWLSTA_e.160","geometry":{"type":"Point","coordinates":[120.82006785,24.2609647]},"properties":{"name":"東勢大橋","code":"1420H055","STATUS":"現存","ADDR_C":"台中市東勢區豐勢路","countyCode":"66000"}},{"type":"Feature","id":"RIVWLSTA_e.161","geometry":{"type":"Point","coordinates":[120.72241541,24.28014841]},"properties":{"name":"后豐大橋","code":"1420H056","STATUS":"現存","ADDR_C":"台中市后里區三豐路","countyCode":"66000"}},{"type":"Feature","id":"RIVWLSTA_e.162","geometry":{"type":"Point","coordinates":[120.97459735,24.17497986]},"properties":{"name":"松鶴橋","code":"1420H057","STATUS":"現存","ADDR_C":"台中市和平區東關路一段","countyCode":"66000"}},{"type":"Feature","id":"RIVWLSTA_e.163","geometry":{"type":"Point","coordinates":[120.83709943,24.17182409]},"properties":{"name":"龍安橋","code":"1420H058","STATUS":"現存","ADDR_C":"台中市東勢區龍安橋","countyCode":"66000"}},{"type":"Feature","id":"RIVWLSTA_e.164","geometry":{"type":"Point","coordinates":[120.58188552,24.10561493]},"properties":{"name":"大肚橋","code":"1430H025","STATUS":"現存","ADDR_C":"台中市烏日區中山路三段","countyCode":"10007"}},{"type":"Feature","id":"RIVWLSTA_e.165","geometry":{"type":"Point","coordinates":[120.64329222,24.09203678]},"properties":{"name":"溪南橋","code":"1430H028","STATUS":"現存","ADDR_C":"台中市烏日區溪南路一段","countyCode":"66000"}},{"type":"Feature","id":"RIVWLSTA_e.166","geometry":{"type":"Point","coordinates":[120.63736221,24.01372615]},"properties":{"name":"利民橋","code":"1430H029","STATUS":"現存","ADDR_C":"彰化縣芬園鄉芬草路２段","countyCode":"10007"}},{"type":"Feature","id":"RIVWLSTA_e.167","geometry":{"type":"Point","coordinates":[120.69561586,24.00888851]},"properties":{"name":"烏溪橋","code":"1430H030","STATUS":"現存","ADDR_C":"南投縣草屯鎮中正路","countyCode":"66000"}},{"type":"Feature","id":"RIVWLSTA_e.168","geometry":{"type":"Point","coordinates":[120.91240248,24.05865582]},"properties":{"name":"南北通橋","code":"1430H032","STATUS":"現存","ADDR_C":"南投縣國姓鄉北圳巷","countyCode":"10008"}},{"type":"Feature","id":"RIVWLSTA_e.169","geometry":{"type":"Point","coordinates":[120.91257942,23.9834323]},"properties":{"name":"觀音橋","code":"1430H037","STATUS":"現存","ADDR_C":"南投縣埔里鎮觀音路","countyCode":"10008"}},{"type":"Feature","id":"RIVWLSTA_e.170","geometry":{"type":"Point","coordinates":[120.67445407,23.94212481]},"properties":{"name":"南崗大橋","code":"1430H038","STATUS":"現存","ADDR_C":"南投縣南投市中華路","countyCode":"10008"}},{"type":"Feature","id":"RIVWLSTA_e.171","geometry":{"type":"Point","coordinates":[120.61496937,24.10635071]},"properties":{"name":"集泉橋","code":"1430H040","STATUS":"現存","ADDR_C":"台中市烏日區中山路三段","countyCode":"66000"}},{"type":"Feature","id":"RIVWLSTA_e.172","geometry":{"type":"Point","coordinates":[120.71651814,23.97839601]},"properties":{"name":"隘寮橋","code":"1430H044","STATUS":"現存","ADDR_C":"南投縣草屯鎮中正路","countyCode":"10008"}},{"type":"Feature","id":"RIVWLSTA_e.173","geometry":{"type":"Point","coordinates":[120.68400162,23.98828798]},"properties":{"name":"成功橋","code":"1430H045","STATUS":"現存","ADDR_C":"南投縣草屯鎮成功一段","countyCode":"10008"}},{"type":"Feature","id":"RIVWLSTA_e.174","geometry":{"type":"Point","coordinates":[120.63788307,24.20630037]},"properties":{"name":"農路橋","code":"1430H046","STATUS":"現存","ADDR_C":"台中市大雅區永和路","countyCode":"66000"}},{"type":"Feature","id":"RIVWLSTA_e.175","geometry":{"type":"Point","coordinates":[120.69998238,24.13516736]},"properties":{"name":"育英橋","code":"1430H047","STATUS":"現存","ADDR_C":"台中市東區東英一街","countyCode":"66000"}},{"type":"Feature","id":"RIVWLSTA_e.176","geometry":{"type":"Point","coordinates":[120.77952329,23.98378403]},"properties":{"name":"雙冬橋","code":"1430H048","STATUS":"現存","ADDR_C":"南投縣草屯鎮平峰路","countyCode":"10008"}},{"type":"Feature","id":"RIVWLSTA_e.177","geometry":{"type":"Point","coordinates":[120.73660344,24.13269768]},"properties":{"name":"一江橋","code":"1430H051","STATUS":"現存","ADDR_C":"台中市太平區東平路12號50m處","countyCode":"66000"}},{"type":"Feature","id":"RIVWLSTA_e.178","geometry":{"type":"Point","coordinates":[120.7179943,24.21817226]},"properties":{"name":"嘉新橋","code":"1430H052","STATUS":"現存","ADDR_C":"台中市潭子 區仁愛路1段167號邊","countyCode":"66000"}},{"type":"Feature","id":"RIVWLSTA_e.179","geometry":{"type":"Point","coordinates":[120.68891268,24.09356684]},"properties":{"name":"大里橋","code":"1430H053","STATUS":"現存","ADDR_C":"台中市大里區元堤路2段12號前50m處","countyCode":"66000"}},{"type":"Feature","id":"RIVWLSTA_e.180","geometry":{"type":"Point","coordinates":[120.69294787,24.05861478]},"properties":{"name":"福新橋","code":"1430H054","STATUS":"現存","ADDR_C":"台中市霧峰區四德路191巷12號前300m處","countyCode":"66000"}},{"type":"Feature","id":"RIVWLSTA_e.181","geometry":{"type":"Point","coordinates":[120.72391205,24.08555996]},"properties":{"name":"銀聯一橋","code":"1430H055","STATUS":"現存","ADDR_C":"台中市大里區健東路125號前50m處","countyCode":"66000"}},{"type":"Feature","id":"RIVWLSTA_e.182","geometry":{"type":"Point","coordinates":[120.71577384,24.13525356]},"properties":{"name":"溪洲橋","code":"1430H056","STATUS":"現存","ADDR_C":"台中市太平區新平路二段","countyCode":"66000"}},{"type":"Feature","id":"RIVWLSTA_e.183","geometry":{"type":"Point","coordinates":[120.64400867,24.10971817]},"properties":{"name":"精忠橋","code":"1430H057","STATUS":"現存","ADDR_C":"台中市烏日區中山路一段","countyCode":"66000"}},{"type":"Feature","id":"RIVWLSTA_e.184","geometry":{"type":"Point","coordinates":[120.63217029,24.18016468]},"properties":{"name":"福墩橋","code":"1430H058","STATUS":"現存","ADDR_C":"台中市西屯區福科路","countyCode":"66000"}},{"type":"Feature","id":"RIVWLSTA_e.185","geometry":{"type":"Point","coordinates":[120.62555528,24.09909025]},"properties":{"name":"斜張橋","code":"1430H060","STATUS":"現存","ADDR_C":"台中市烏日區斜張橋","countyCode":"66000"}},{"type":"Feature","id":"RIVWLSTA_e.186","geometry":{"type":"Point","coordinates":[120.63165597,24.10508403]},"properties":{"name":"烏日橋","code":"1430H061","STATUS":"現存","ADDR_C":"台中市烏日區烏日橋","countyCode":"66000"}},{"type":"Feature","id":"RIVWLSTA_e.187","geometry":{"type":"Point","coordinates":[120.94647227,23.96688893]},"properties":{"name":"愛蘭橋","code":"1430H066","STATUS":"現存","ADDR_C":"南港溪及桃米坑匯流處","countyCode":"10008"}},{"type":"Feature","id":"RIVWLSTA_e.188","geometry":{"type":"Point","coordinates":[120.75572221,23.98366671]},"properties":{"name":"炎峰橋","code":"1430H067","STATUS":"現存","ADDR_C":"鳥嘴潭上游2公里處","countyCode":"10008"}},{"type":"Feature","id":"RIVWLSTA_e.189","geometry":{"type":"Point","coordinates":[120.72050003,23.89210002]},"properties":{"name":"千義橋","code":"1430H068","STATUS":"現存","ADDR_C":"南投縣南投市市區上游三公里處","countyCode":"10008"}},{"type":"Feature","id":"RIVWLSTA_e.190","geometry":{"type":"Point","coordinates":[120.85104519,23.69486797]},"properties":{"name":"內茅埔","code":"1510H049","STATUS":"現存","ADDR_C":"南投縣信義鄉愛國大橋","countyCode":"10008"}},{"type":"Feature","id":"RIVWLSTA_e.191","geometry":{"type":"Point","coordinates":[120.71111162,23.77662638]},"properties":{"name":"延平橋","code":"1510H050","STATUS":"現存","ADDR_C":"南投縣竹山鎮延平里","countyCode":"10008"}},{"type":"Feature","id":"RIVWLSTA_e.192","geometry":{"type":"Point","coordinates":[120.63603676,23.7854638]},"properties":{"name":"彰雲橋","code":"1510H057","STATUS":"現存","ADDR_C":"雲林縣林內鄉林北村","countyCode":"10009"}},{"type":"Feature","id":"RIVWLSTA_e.193","geometry":{"type":"Point","coordinates":[120.39866111,23.83756668]},"properties":{"name":"自強大橋","code":"1510H058","STATUS":"現存","ADDR_C":"彰化縣竹塘鄉內新村","countyCode":"10007"}},{"type":"Feature","id":"RIVWLSTA_e.194","geometry":{"type":"Point","coordinates":[120.8437254,23.80866455]},"properties":{"name":"玉峰橋","code":"1510H063","STATUS":"現存","ADDR_C":"南投縣水里鄉玉峰村","countyCode":"10008"}},{"type":"Feature","id":"RIVWLSTA_e.195","geometry":{"type":"Point","coordinates":[120.85055867,23.81386796]},"properties":{"name":"水里","code":"1510H064","STATUS":"現存","ADDR_C":"南投縣水里鄉水里村","countyCode":"10008"}},{"type":"Feature","id":"RIVWLSTA_e.196","geometry":{"type":"Point","coordinates":[120.46963459,23.80849296]},"properties":{"name":"溪州大橋","code":"1510H071","STATUS":"現存","ADDR_C":"彰化縣溪州鄉水尾村","countyCode":"10009"}},{"type":"Feature","id":"RIVWLSTA_e.197","geometry":{"type":"Point","coordinates":[120.91414173,23.79323198]},"properties":{"name":"寶石橋","code":"1510H075","STATUS":"現存","ADDR_C":"南投縣水里鄉民和村","countyCode":"10008"}},{"type":"Feature","id":"RIVWLSTA_e.198","geometry":{"type":"Point","coordinates":[120.28968339,23.8320588]},"properties":{"name":"西濱大橋","code":"1510H076","STATUS":"現存","ADDR_C":"彰化縣大城鄉","countyCode":"10007"}},{"type":"Feature","id":"RIVWLSTA_e.199","geometry":{"type":"Point","coordinates":[120.66243425,23.67360696]},"properties":{"name":"龍門橋","code":"1510H079","STATUS":"現存","ADDR_C":"南投縣竹山鎮鯉南里","countyCode":"10008"}},{"type":"Feature","id":"RIVWLSTA_e.200","geometry":{"type":"Point","coordinates":[121.18717418,24.02257585]},"properties":{"name":"廬山吊橋","code":"1510H080","STATUS":"現存","ADDR_C":"南投縣仁愛鄉榮華巷","countyCode":"10008"}},{"type":"Feature","id":"RIVWLSTA_e.201","geometry":{"type":"Point","coordinates":[120.78144574,23.7936997]},"properties":{"name":"永豐橋","code":"1510H081","STATUS":"現存","ADDR_C":"南投縣鹿谷鄉","countyCode":"10008"}},{"type":"Feature","id":"RIVWLSTA_e.202","geometry":{"type":"Point","coordinates":[120.89051238,23.59304062]},"properties":{"name":"和社橋","code":"1510H082","STATUS":"現存","ADDR_C":"南投縣信義鄉東埔道路","countyCode":"10008"}},{"type":"Feature","id":"RIVWLSTA_e.203","geometry":{"type":"Point","coordinates":[120.65687674,23.75931672]},"properties":{"name":"南雲大橋","code":"1510H083","STATUS":"現存","ADDR_C":"南投縣竹山鎮南雲大橋","countyCode":"10008"}},{"type":"Feature","id":"RIVWLSTA_e.204","geometry":{"type":"Point","coordinates":[120.70653575,23.81647483]},"properties":{"name":"名竹大橋","code":"1510H084","STATUS":"現存","ADDR_C":"南投縣竹山鎮名竹大橋","countyCode":"10008"}},{"type":"Feature","id":"RIVWLSTA_e.205","geometry":{"type":"Point","coordinates":[120.65640384,23.59961359]},"properties":{"name":"清水溪橋","code":"1510H085","STATUS":"現存","ADDR_C":"雲林縣古坑鄉清水溪","countyCode":"10009"}},{"type":"Feature","id":"RIVWLSTA_e.206","geometry":{"type":"Point","coordinates":[120.88100092,23.78382972]},"properties":{"name":"人倫橋","code":"1510H086","STATUS":"現存","ADDR_C":"南投縣信義鄉人倫橋","countyCode":"10008"}},{"type":"Feature","id":"RIVWLSTA_e.207","geometry":{"type":"Point","coordinates":[120.8454713,23.71782708]},"properties":{"name":"興安橋","code":"1510H087","STATUS":"現存","ADDR_C":"南投縣信義鄉白布仔路興安橋","countyCode":"10008"}},{"type":"Feature","id":"RIVWLSTA_e.208","geometry":{"type":"Point","coordinates":[120.66374212,23.72367639]},"properties":{"name":"鯉魚大橋","code":"1510H088","STATUS":"現存","ADDR_C":"南投縣竹山鎮鯉行路鯉魚大橋","countyCode":"10008"}},{"type":"Feature","id":"RIVWLSTA_e.209","geometry":{"type":"Point","coordinates":[121.11751603,23.96832104]},"properties":{"name":"親愛橋","code":"1510H089","STATUS":"現存","ADDR_C":"親愛橋","countyCode":"10008"}},{"type":"Feature","id":"RIVWLSTA_e.210","geometry":{"type":"Point","coordinates":[121.1633661,24.0252388]},"properties":{"name":"德魯灣橋","code":"1510H090","STATUS":"現存","ADDR_C":"德魯灣橋","countyCode":"10008"}},{"type":"Feature","id":"RIVWLSTA_e.211","geometry":{"type":"Point","coordinates":[121.09552776,23.96988885]},"properties":{"name":"松林橋","code":"1510H091","STATUS":"現存","ADDR_C":"松林橋","countyCode":"10008"}},{"type":"Feature","id":"RIVWLSTA_e.212","geometry":{"type":"Point","coordinates":[120.63615802,23.78543917]},"properties":{"name":"彰雲橋(2)","code":"1510H57A","STATUS":"現存","ADDR_C":"雲林縣林內鄉林北村","countyCode":"10009"}},{"type":"Feature","id":"RIVWLSTA_e.213","geometry":{"type":"Point","coordinates":[120.46288782,23.35283961]},"properties":{"name":"仁厚橋","code":"1520H008","STATUS":"現存","ADDR_C":"臺南市白河區仁厚橋","countyCode":"67000"}},{"type":"Feature","id":"RIVWLSTA_e.214","geometry":{"type":"Point","coordinates":[120.30123162,23.56212784]},"properties":{"name":"北港(2)","code":"1540H009","STATUS":"現存","ADDR_C":"雲林縣北港鎮南安里（北港大橋）","countyCode":"10010"}},{"type":"Feature","id":"RIVWLSTA_e.215","geometry":{"type":"Point","coordinates":[120.39934167,23.60869135]},"properties":{"name":"溪口","code":"1540H014","STATUS":"現存","ADDR_C":"嘉義縣溪口鄉溪北村（和平橋）","countyCode":"10010"}},{"type":"Feature","id":"RIVWLSTA_e.216","geometry":{"type":"Point","coordinates":[120.41877858,23.68137865]},"properties":{"name":"土庫大橋","code":"1540H029","STATUS":"現存","ADDR_C":"雲林縣虎尾鎮延平里（土庫大橋）","countyCode":"10009"}},{"type":"Feature","id":"RIVWLSTA_e.217","geometry":{"type":"Point","coordinates":[120.47435204,23.66256139]},"properties":{"name":"大湖口溪橋","code":"1540H030","STATUS":"現存","ADDR_C":"雲林縣斗南鎮石溪里（大湖口溪橋）","countyCode":"10009"}},{"type":"Feature","id":"RIVWLSTA_e.218","geometry":{"type":"Point","coordinates":[120.41239567,23.61634306]},"properties":{"name":"西結橋","code":"1540H031","STATUS":"現存","ADDR_C":"嘉義縣溪口鄉游東村（西結橋）","countyCode":"10010"}},{"type":"Feature","id":"RIVWLSTA_e.219","geometry":{"type":"Point","coordinates":[120.46473865,23.68818003]},"properties":{"name":"雙東大橋","code":"1540H032","STATUS":"現存","ADDR_C":"雲林縣斗南鎮小東南路（雙東大橋）","countyCode":"10009"}},{"type":"Feature","id":"RIVWLSTA_e.220","geometry":{"type":"Point","coordinates":[120.48441411,23.70212723]},"properties":{"name":"田頭橋","code":"1540H033","STATUS":"現存","ADDR_C":"雲林縣斗南鎮延平路1段（田頭橋）","countyCode":"10009"}},{"type":"Feature","id":"RIVWLSTA_e.221","geometry":{"type":"Point","coordinates":[120.5999647,23.7008048]},"properties":{"name":"梅南橋","code":"1540H035","STATUS":"現存","ADDR_C":"雲林縣斗六市梅南橋","countyCode":"10009"}},{"type":"Feature","id":"RIVWLSTA_e.222","geometry":{"type":"Point","coordinates":[120.17814396,23.51434382]},"properties":{"name":"雲嘉大橋","code":"1540H036","STATUS":"現存","ADDR_C":"雲林縣口湖鄉雲嘉大橋","countyCode":"10009"}},{"type":"Feature","id":"RIVWLSTA_e.223","geometry":{"type":"Point","coordinates":[120.56757033,23.70285865]},"properties":{"name":"斗山橋","code":"1540H038","STATUS":"現存","ADDR_C":"雲林縣斗六市斗山橋","countyCode":"10009"}},{"type":"Feature","id":"RIVWLSTA_e.224","geometry":{"type":"Point","coordinates":[120.48782756,23.57353407]},"properties":{"name":"中興橋","code":"1540H039","STATUS":"現存","ADDR_C":"嘉義縣大林鎮中興橋","countyCode":"10010"}},{"type":"Feature","id":"RIVWLSTA_e.225","geometry":{"type":"Point","coordinates":[120.2931591,23.48200409]},"properties":{"name":"蒜頭","code":"1550H011","STATUS":"現存","ADDR_C":"嘉義縣六腳鄉蒜南村（介壽橋）","countyCode":"10010"}},{"type":"Feature","id":"RIVWLSTA_e.226","geometry":{"type":"Point","coordinates":[120.30318338,23.49794955]},"properties":{"name":"灣內橋","code":"1550H012","STATUS":"現存","ADDR_C":"嘉義縣六腳鄉蒜頭村（灣內大橋）","countyCode":"10010"}},{"type":"Feature","id":"RIVWLSTA_e.227","geometry":{"type":"Point","coordinates":[120.48201124,23.5125506]},"properties":{"name":"仁弘橋","code":"1550H014","STATUS":"現存","ADDR_C":"嘉義縣民雄鄉秀林村林子尾（仁弘橋）","countyCode":"10010"}},{"type":"Feature","id":"RIVWLSTA_e.228","geometry":{"type":"Point","coordinates":[120.36806408,23.49965744]},"properties":{"name":"麻魚寮橋","code":"1550H016","STATUS":"現存","ADDR_C":"嘉義縣太保市麻寮里麻太路（麻魚寮橋）","countyCode":"10010"}},{"type":"Feature","id":"RIVWLSTA_e.229","geometry":{"type":"Point","coordinates":[120.44328068,23.51354931]},"properties":{"name":"牛稠溪橋(1)","code":"1550H017","STATUS":"現存","ADDR_C":"嘉義市荖藤里","countyCode":"10020"}},{"type":"Feature","id":"RIVWLSTA_e.230","geometry":{"type":"Point","coordinates":[120.17813147,23.45889913]},"properties":{"name":"東石大橋","code":"1550H018","STATUS":"現存","ADDR_C":"嘉義縣東石鄉東石大橋","countyCode":"10010"}},{"type":"Feature","id":"RIVWLSTA_e.231","geometry":{"type":"Point","coordinates":[120.60583622,23.43879021]},"properties":{"name":"觸口","code":"1580H001","STATUS":"現存","ADDR_C":"嘉義縣番路鄉（觸口大橋）","countyCode":"10010"}},{"type":"Feature","id":"RIVWLSTA_e.232","geometry":{"type":"Point","coordinates":[120.45813704,23.45855426]},"properties":{"name":"軍輝橋","code":"1580H007","STATUS":"現存","ADDR_C":"嘉義縣中埔鄉和睦村（軍輝橋）","countyCode":"10020"}},{"type":"Feature","id":"RIVWLSTA_e.233","geometry":{"type":"Point","coordinates":[120.44988189,23.42894725]},"properties":{"name":"赤蘭溪橋","code":"1580H008","STATUS":"現存","ADDR_C":"嘉義縣水上鄉忠和村（赤蘭溪橋）","countyCode":"10010"}},{"type":"Feature","id":"RIVWLSTA_e.234","geometry":{"type":"Point","coordinates":[120.38214222,23.4037473]},"properties":{"name":"八掌溪橋","code":"1580H013","STATUS":"現存","ADDR_C":"臺南市白河區蓮潭里","countyCode":"67000"}},{"type":"Feature","id":"RIVWLSTA_e.235","geometry":{"type":"Point","coordinates":[120.43157697,23.37954187]},"properties":{"name":"頭前溪橋","code":"1580H015","STATUS":"現存","ADDR_C":"台南市白河區甘宅里（頭前溪橋）","countyCode":"67000"}},{"type":"Feature","id":"RIVWLSTA_e.236","geometry":{"type":"Point","coordinates":[120.45679679,23.45216164]},"properties":{"name":"興龍橋","code":"1580H017","STATUS":"現存","ADDR_C":"嘉義縣中埔鄉溪興街（興龍橋）","countyCode":"10020"}},{"type":"Feature","id":"RIVWLSTA_e.237","geometry":{"type":"Point","coordinates":[120.43561069,23.44214785]},"properties":{"name":"湖子內排水","code":"1580H018","STATUS":"現存","ADDR_C":"嘉義市西區湖子內路","countyCode":"10010"}},{"type":"Feature","id":"RIVWLSTA_e.238","geometry":{"type":"Point","coordinates":[120.46663999,23.46284]},"properties":{"name":"道將圳","code":"1580H020","STATUS":"現存","ADDR_C":"嘉義市東區道將圳攔河堰","countyCode":"10020"}},{"type":"Feature","id":"RIVWLSTA_e.239","geometry":{"type":"Point","coordinates":[120.2525202,23.32890216]},"properties":{"name":"義竹(厚生橋)(1)","code":"1580H021","STATUS":"現存","ADDR_C":"臺南市鹽水區下中里厚生橋","countyCode":"67000"}},{"type":"Feature","id":"RIVWLSTA_e.240","geometry":{"type":"Point","coordinates":[120.15317859,23.31350989]},"properties":{"name":"嘉南大橋","code":"1580H022","STATUS":"現存","ADDR_C":"嘉義縣布袋鎮嘉南大橋","countyCode":"10010"}},{"type":"Feature","id":"RIVWLSTA_e.241","geometry":{"type":"Point","coordinates":[120.31288357,23.29584148]},"properties":{"name":"新營","code":"1590H012","STATUS":"現存","ADDR_C":"台南市新營區（舊急水溪橋）","countyCode":"67000"}},{"type":"Feature","id":"RIVWLSTA_e.242","geometry":{"type":"Point","coordinates":[120.40710304,23.33818394]},"properties":{"name":"青葉橋","code":"1590H013","STATUS":"現存","ADDR_C":"台南市白河區白河里（青葉橋）","countyCode":"67000"}},{"type":"Feature","id":"RIVWLSTA_e.243","geometry":{"type":"Point","coordinates":[120.24802414,23.25578434]},"properties":{"name":"地頭港橋(原重溪橋)","code":"1590H015","STATUS":"現存","ADDR_C":"台南市鹽水區南港里(?頭港橋)","countyCode":"67000"}},{"type":"Feature","id":"RIVWLSTA_e.244","geometry":{"type":"Point","coordinates":[120.38323413,23.28999339]},"properties":{"name":"忠義橋","code":"1590H016","STATUS":"現存","ADDR_C":"台南市柳營區大腳腿（忠義 橋）","countyCode":"67000"}},{"type":"Feature","id":"RIVWLSTA_e.245","geometry":{"type":"Point","coordinates":[120.14444915,23.29190048]},"properties":{"name":"五王大橋","code":"1590H018","STATUS":"現存","ADDR_C":"臺南市北門區五王大橋","countyCode":"67000"}},{"type":"Feature","id":"RIVWLSTA_e.246","geometry":{"type":"Point","coordinates":[120.39384223,23.27175328]},"properties":{"name":"向平橋","code":"1590H019","STATUS":"現存","ADDR_C":"臺南市東山區向平橋","countyCode":"67000"}},{"type":"Feature","id":"RIVWLSTA_e.247","geometry":{"type":"Point","coordinates":[120.35947403,23.32691799]},"properties":{"name":"後壁急水溪橋","code":"1590H020","STATUS":"現存","ADDR_C":"台南市後壁區福安里","countyCode":"67000"}},{"type":"Feature","id":"RIVWLSTA_e.248","geometry":{"type":"Point","coordinates":[120.45831996,23.1178248]},"properties":{"name":"玉田","code":"1630H005","STATUS":"現存","ADDR_C":"臺南巿玉井區玉田里(玉井橋)","countyCode":"67000"}},{"type":"Feature","id":"RIVWLSTA_e.249","geometry":{"type":"Point","coordinates":[120.38077465,23.06681524]},"properties":{"name":"左鎮","code":"1630H013","STATUS":"現存","ADDR_C":"臺南巿左鎮區光和里(平和橋)","countyCode":"67000"}},{"type":"Feature","id":"RIVWLSTA_e.250","geometry":{"type":"Point","coordinates":[120.38434887,23.1156156]},"properties":{"name":"二溪大橋","code":"1630H018","STATUS":"現存","ADDR_C":"臺南巿大內區內郭里","countyCode":"67000"}},{"type":"Feature","id":"RIVWLSTA_e.251","geometry":{"type":"Point","coordinates":[120.45210718,23.12333766]},"properties":{"name":"玉豐大橋","code":"1630H020","STATUS":"現存","ADDR_C":"臺南巿玉井區豐里里","countyCode":"67000"}},{"type":"Feature","id":"RIVWLSTA_e.252","geometry":{"type":"Point","coordinates":[120.260449,23.17151245]},"properties":{"name":"麻善大橋","code":"1630H023","STATUS":"現存","ADDR_C":"臺南巿麻豆區龍泉里","countyCode":"67000"}},{"type":"Feature","id":"RIVWLSTA_e.253","geometry":{"type":"Point","coordinates":[120.48879765,23.07760335]},"properties":{"name":"北寮橋","code":"1630H024","STATUS":"現存","ADDR_C":"臺南巿南化區北寮里","countyCode":"67000"}},{"type":"Feature","id":"RIVWLSTA_e.254","geometry":{"type":"Point","coordinates":[120.33786989,23.1554181]},"properties":{"name":"新中(1)","code":"1630H025","STATUS":"現存","ADDR_C":"台南市善化區東昌里","countyCode":"67000"}},{"type":"Feature","id":"RIVWLSTA_e.255","geometry":{"type":"Point","coordinates":[120.46687626,23.14114918]},"properties":{"name":"中正橋","code":"1630H026","STATUS":"現存","ADDR_C":"台南市玉井區中正里","countyCode":"67000"}},{"type":"Feature","id":"RIVWLSTA_e.256","geometry":{"type":"Point","coordinates":[120.43038275,23.13778013]},"properties":{"name":"走馬瀨","code":"1630H027","STATUS":"現存","ADDR_C":"台南市大內區走馬瀨","countyCode":"67000"}},{"type":"Feature","id":"RIVWLSTA_e.257","geometry":{"type":"Point","coordinates":[120.36989651,23.09728884]},"properties":{"name":"玉峰橋","code":"1630H028","STATUS":"現存","ADDR_C":"台南市山上區玉峰里","countyCode":"67000"}},{"type":"Feature","id":"RIVWLSTA_e.258","geometry":{"type":"Point","coordinates":[120.34703557,23.11946903]},"properties":{"name":"北勢洲橋","code":"1630H029","STATUS":"現存","ADDR_C":"台南市大內區石子瀨","countyCode":"67000"}},{"type":"Feature","id":"RIVWLSTA_e.259","geometry":{"type":"Point","coordinates":[120.33786989,23.1554181]},"properties":{"name":"曾文溪橋","code":"1630H030","STATUS":"現存","ADDR_C":"台南市官田區渡仔頭","countyCode":"67000"}},{"type":"Feature","id":"RIVWLSTA_e.260","geometry":{"type":"Point","coordinates":[120.260449,23.17151245]},"properties":{"name":"麻善橋","code":"1630H031","STATUS":"現存","ADDR_C":"台南市麻豆區磚井里","countyCode":"67000"}},{"type":"Feature","id":"RIVWLSTA_e.261","geometry":{"type":"Point","coordinates":[120.2051634,23.10767952]},"properties":{"name":"西港橋","code":"1630H032","STATUS":"現存","ADDR_C":"台南市麻豆區中港","countyCode":"67000"}},{"type":"Feature","id":"RIVWLSTA_e.262","geometry":{"type":"Point","coordinates":[120.13425841,23.08627113]},"properties":{"name":"國姓橋","code":"1630H033","STATUS":"現存","ADDR_C":"台南市麻豆區永吉","countyCode":"67000"}},{"type":"Feature","id":"RIVWLSTA_e.263","geometry":{"type":"Point","coordinates":[120.66737403,23.31155678]},"properties":{"name":"新美","code":"1630H034","STATUS":"現存","ADDR_C":"嘉義縣阿里山鄉茶山村","countyCode":"10010"}},{"type":"Feature","id":"RIVWLSTA_e.264","geometry":{"type":"Point","coordinates":[120.67521506,23.37803047]},"properties":{"name":"山美","code":"1630H035","STATUS":"現存","ADDR_C":"嘉義縣阿里山鄉山美村","countyCode":"10010"}},{"type":"Feature","id":"RIVWLSTA_e.265","geometry":{"type":"Point","coordinates":[120.47767369,23.13495486]},"properties":{"name":"竹圍橋","code":"1630H036","STATUS":"現存","ADDR_C":"台南市玉井區竹圍橋","countyCode":"67000"}},{"type":"Feature","id":"RIVWLSTA_e.266","geometry":{"type":"Point","coordinates":[120.33810327,23.17858813]},"properties":{"name":"官田橋","code":"1630H037","STATUS":"現存","ADDR_C":"台南市官田區官田橋","countyCode":"67000"}},{"type":"Feature","id":"RIVWLSTA_e.267","geometry":{"type":"Point","coordinates":[120.33905828,23.15515895]},"properties":{"name":"新曾文溪渡槽","code":"1630H040","STATUS":"現存","ADDR_C":"台南市善化區嘉北里","countyCode":"67000"}},{"type":"Feature","id":"RIVWLSTA_e.268","geometry":{"type":"Point","coordinates":[120.27687641,23.0583003]},"properties":{"name":"新市","code":"1650H006","STATUS":"現存","ADDR_C":"臺南巿永康區三民里(豐化橋)","countyCode":"67000"}},{"type":"Feature","id":"RIVWLSTA_e.269","geometry":{"type":"Point","coordinates":[120.21377099,23.02943847]},"properties":{"name":"安順橋","code":"1650H009","STATUS":"現存","ADDR_C":"臺南巿安南區安和里","countyCode":"67000"}},{"type":"Feature","id":"RIVWLSTA_e.270","geometry":{"type":"Point","coordinates":[120.22492956,23.06412353]},"properties":{"name":"仁愛橋","code":"1650H011","STATUS":"現存","ADDR_C":"臺南巿安南區東和里","countyCode":"67000"}},{"type":"Feature","id":"RIVWLSTA_e.271","geometry":{"type":"Point","coordinates":[120.2820977,23.0209268]},"properties":{"name":"新灣橋","code":"1650H013","STATUS":"現存","ADDR_C":"臺南巿永康區西勢里","countyCode":"67000"}},{"type":"Feature","id":"RIVWLSTA_e.272","geometry":{"type":"Point","coordinates":[120.2228889,23.03744167]},"properties":{"name":"鹽水溪27號電塔","code":"1650H014","STATUS":"現存","ADDR_C":"臺南市永康區","countyCode":"67000"}},{"type":"Feature","id":"RIVWLSTA_e.273","geometry":{"type":"Point","coordinates":[120.2218602,23.03778544]},"properties":{"name":"鹽水溪排水郡安路三段","code":"1650H015","STATUS":"現存","ADDR_C":"臺南市安南區","countyCode":"67000"}},{"type":"Feature","id":"RIVWLSTA_e.274","geometry":{"type":"Point","coordinates":[120.32517561,22.97156652]},"properties":{"name":"許縣溪橋","code":"1650H016","STATUS":"現存","ADDR_C":"臺南巿關廟區下湖里(許縣溪橋)","countyCode":"67000"}},{"type":"Feature","id":"RIVWLSTA_e.275","geometry":{"type":"Point","coordinates":[120.21609976,23.02356392]},"properties":{"name":"溪頂寮橋","code":"1650H017","STATUS":"現存","ADDR_C":"臺南巿安南區溪北里(溪頂寮橋)","countyCode":"67000"}},{"type":"Feature","id":"RIVWLSTA_e.276","geometry":{"type":"Point","coordinates":[120.16596088,23.06213004]},"properties":{"name":"曾文溪排水橋","code":"1650H018","STATUS":"現存","ADDR_C":"臺南巿安南區佃西里台江大道三段(曾文溪排水橋)","countyCode":"67000"}},{"type":"Feature","id":"RIVWLSTA_e.277","geometry":{"type":"Point","coordinates":[120.28614888,23.03388777]},"properties":{"name":"開運橋","code":"1650H019","STATUS":"現存","ADDR_C":"臺南巿永康區王行里王行東路(開運橋)","countyCode":"67000"}},{"type":"Feature","id":"RIVWLSTA_e.278","geometry":{"type":"Point","coordinates":[120.33819453,22.8893751]},"properties":{"name":"南雄橋(阿蓮(2))","code":"1660H009","STATUS":"現存","ADDR_C":"高雄巿阿蓮區阿蓮里","countyCode":"67000"}},{"type":"Feature","id":"RIVWLSTA_e.279","geometry":{"type":"Point","coordinates":[120.36212212,22.87567632]},"properties":{"name":"崇德橋","code":"1660H010","STATUS":"現存","ADDR_C":"高雄巿田寮區西德里","countyCode":"64000"}},{"type":"Feature","id":"RIVWLSTA_e.280","geometry":{"type":"Point","coordinates":[120.29807192,22.90115816]},"properties":{"name":"39號二仁溪橋","code":"1660H011","STATUS":"現存","ADDR_C":"高雄巿阿蓮區中路里","countyCode":"64000"}},{"type":"Feature","id":"RIVWLSTA_e.281","geometry":{"type":"Point","coordinates":[120.22589922,22.91562431]},"properties":{"name":"二層行橋","code":"1660H012","STATUS":"現存","ADDR_C":"台南市仁德區二仁路二層行橋","countyCode":"67000"}},{"type":"Feature","id":"RIVWLSTA_e.282","geometry":{"type":"Point","coordinates":[120.24698881,22.9603182]},"properties":{"name":"華醫大橋","code":"1660H013","STATUS":"現存","ADDR_C":"台南市仁德區華醫大橋","countyCode":"67000"}},{"type":"Feature","id":"RIVWLSTA_e.283","geometry":{"type":"Point","coordinates":[120.27965738,22.80312026]},"properties":{"name":"前州橋","code":"1670H003","STATUS":"現存","ADDR_C":"高雄巿岡山區協和里","countyCode":"64000"}},{"type":"Feature","id":"RIVWLSTA_e.284","geometry":{"type":"Point","coordinates":[120.31284523,22.78825839]},"properties":{"name":"聖森橋","code":"1670H004","STATUS":"現存","ADDR_C":"高雄市岡山區聖森橋","countyCode":"64000"}},{"type":"Feature","id":"RIVWLSTA_e.285","geometry":{"type":"Point","coordinates":[120.29449178,22.76847336]},"properties":{"name":"五里林橋","code":"1680H004","STATUS":"現存","ADDR_C":"高雄巿橋頭區東林里","countyCode":"64000"}},{"type":"Feature","id":"RIVWLSTA_e.286","geometry":{"type":"Point","coordinates":[120.27509938,22.7620049]},"properties":{"name":"長潤橋","code":"1680H005","STATUS":"現存","ADDR_C":"高雄巿橋頭區芋寮里","countyCode":"64000"}},{"type":"Feature","id":"RIVWLSTA_e.287","geometry":{"type":"Point","coordinates":[120.64598054,22.71246493]},"properties":{"name":"三地門","code":"1730H036","STATUS":"現存","ADDR_C":"屏東縣內埔鄉水門村","countyCode":"10013"}},{"type":"Feature","id":"RIVWLSTA_e.288","geometry":{"type":"Point","coordinates":[120.45139289,22.77099063]},"properties":{"name":"里嶺大橋","code":"1730H043","STATUS":"現存","ADDR_C":"高雄市大樹區鐘鈴里","countyCode":"64000"}},{"type":"Feature","id":"RIVWLSTA_e.289","geometry":{"type":"Point","coordinates":[120.43921084,22.59309409]},"properties":{"name":"萬大大橋","code":"1730H045","STATUS":"現存","ADDR_C":"高雄市大寮區大寮里","countyCode":"64000"}},{"type":"Feature","id":"RIVWLSTA_e.290","geometry":{"type":"Point","coordinates":[120.54894693,22.89503678]},"properties":{"name":"東門橋","code":"1730H057","STATUS":"現存","ADDR_C":"高雄市美濃區","countyCode":"64000"}},{"type":"Feature","id":"RIVWLSTA_e.291","geometry":{"type":"Point","coordinates":[120.5509962,22.99036805]},"properties":{"name":"杉林大橋(2)","code":"1730H058","STATUS":"現存","ADDR_C":"高雄市杉林區杉林大橋","countyCode":"64000"}},{"type":"Feature","id":"RIVWLSTA_e.292","geometry":{"type":"Point","coordinates":[120.66230002,23.02170068]},"properties":{"name":"獅額頭橋","code":"1730H061","STATUS":"現存","ADDR_C":"高雄市六龜區六龜里","countyCode":"64000"}},{"type":"Feature","id":"RIVWLSTA_e.293","geometry":{"type":"Point","coordinates":[120.54212616,22.89924056]},"properties":{"name":"美濃橋","code":"1730H062","STATUS":"現存","ADDR_C":"高雄市美濃區泰安里","countyCode":"64000"}},{"type":"Feature","id":"RIVWLSTA_e.294","geometry":{"type":"Point","coordinates":[120.50106313,22.99198397]},"properties":{"name":"溝坪橋","code":"1730H065","STATUS":"現存","ADDR_C":"高雄市內門區","countyCode":"64000"}},{"type":"Feature","id":"RIVWLSTA_e.295","geometry":{"type":"Point","coordinates":[120.63899654,22.89140002]},"properties":{"name":"新威大橋(1)","code":"1730H066","STATUS":"現存","ADDR_C":"高雄市六龜區","countyCode":"64000"}},{"type":"Feature","id":"RIVWLSTA_e.296","geometry":{"type":"Point","coordinates":[120.70489662,23.11109824]},"properties":{"name":"寶來二號橋","code":"1730H067","STATUS":"現存","ADDR_C":"高雄市桃源區","countyCode":"64000"}},{"type":"Feature","id":"RIVWLSTA_e.297","geometry":{"type":"Point","coordinates":[120.43934464,22.64718219]},"properties":{"name":"高屏大橋","code":"1730H068","STATUS":"現存","ADDR_C":"屏東縣屏東市清溪里高屏大橋(儀器箱)","countyCode":"10013"}},{"type":"Feature","id":"RIVWLSTA_e.298","geometry":{"type":"Point","coordinates":[120.64730095,22.88010314]},"properties":{"name":"大津橋(1)","code":"1730H069","STATUS":"現存","ADDR_C":"屏東縣高樹鄉","countyCode":"10013"}},{"type":"Feature","id":"RIVWLSTA_e.299","geometry":{"type":"Point","coordinates":[120.63949993,22.99579578]},"properties":{"name":"六龜(1)","code":"1730H070","STATUS":"現存","ADDR_C":"高雄市六龜區","countyCode":"64000"}},{"type":"Feature","id":"RIVWLSTA_e.300","geometry":{"type":"Point","coordinates":[120.489104,22.88173296]},"properties":{"name":"旗山橋","code":"1730H071","STATUS":"現存","ADDR_C":"高雄市旗山區旗山橋","countyCode":"64000"}},{"type":"Feature","id":"RIVWLSTA_e.301","geometry":{"type":"Point","coordinates":[120.58804335,23.08942524]},"properties":{"name":"四德大橋","code":"1730H072","STATUS":"現存","ADDR_C":"高雄市甲仙區四德大橋","countyCode":"64000"}},{"type":"Feature","id":"RIVWLSTA_e.302","geometry":{"type":"Point","coordinates":[120.68863584,22.91146549]},"properties":{"name":"多納大橋","code":"1730H074","STATUS":"現存","ADDR_C":"高雄市茂林區多納大橋","countyCode":"64000"}},{"type":"Feature","id":"RIVWLSTA_e.303","geometry":{"type":"Point","coordinates":[120.6457009,22.76780139]},"properties":{"name":"口社富邦大橋","code":"1730H075","STATUS":"現存","ADDR_C":"屏東縣三地門鄉口社富邦大橋","countyCode":"10013"}},{"type":"Feature","id":"RIVWLSTA_e.304","geometry":{"type":"Point","coordinates":[120.49171423,22.92575239]},"properties":{"name":"西圓潭橋","code":"1730H076","STATUS":"現存","ADDR_C":"高雄市旗山區西圓潭橋","countyCode":"64000"}},{"type":"Feature","id":"RIVWLSTA_e.305","geometry":{"type":"Point","coordinates":[120.81714139,23.25205422]},"properties":{"name":"達西霸樂橋","code":"1730H077","STATUS":"現存","ADDR_C":"高雄市桃源區拉芙蘭里達西霸樂橋","countyCode":"64000"}},{"type":"Feature","id":"RIVWLSTA_e.306","geometry":{"type":"Point","coordinates":[120.77488929,23.16330713]},"properties":{"name":"撒拉阿塢橋","code":"1730H079","STATUS":"現存","ADDR_C":"高雄市桃園區撒拉阿塢橋","countyCode":"64000"}},{"type":"Feature","id":"RIVWLSTA_e.307","geometry":{"type":"Point","coordinates":[120.63537874,23.1568728]},"properties":{"name":"小林橋","code":"1730H081","STATUS":"現存","ADDR_C":"高雄市甲仙區小林里小林橋","countyCode":"64000"}},{"type":"Feature","id":"RIVWLSTA_e.308","geometry":{"type":"Point","coordinates":[120.54387272,22.56827824]},"properties":{"name":"潮州","code":"1740H002","STATUS":"現存","ADDR_C":"屏東縣潮州鎮新潮州大橋","countyCode":"10013"}},{"type":"Feature","id":"RIVWLSTA_e.309","geometry":{"type":"Point","coordinates":[120.47637231,22.5192848]},"properties":{"name":"港東二號橋","code":"1740H007","STATUS":"現存","ADDR_C":"屏東縣崁頂鄉港東二號橋","countyCode":"10013"}},{"type":"Feature","id":"RIVWLSTA_e.310","geometry":{"type":"Point","coordinates":[120.5029931,22.54215463]},"properties":{"name":"興社大橋","code":"1740H008","STATUS":"現存","ADDR_C":"屏東縣萬丹鄉新南路興社大橋","countyCode":"10013"}},{"type":"Feature","id":"RIVWLSTA_e.311","geometry":{"type":"Point","coordinates":[120.61015825,22.6346193]},"properties":{"name":"三民橋","code":"1740H009","STATUS":"現存","ADDR_C":"屏東縣內埔鄉老埤村三民橋","countyCode":"10013"}},{"type":"Feature","id":"RIVWLSTA_e.312","geometry":{"type":"Point","coordinates":[120.62574212,22.62318901]},"properties":{"name":"萬安大橋","code":"1740H010","STATUS":"現存","ADDR_C":"屏東縣泰武鄉萬安村萬安大橋","countyCode":"10013"}},{"type":"Feature","id":"RIVWLSTA_e.313","geometry":{"type":"Point","coordinates":[120.56329529,22.58006584]},"properties":{"name":"萬巒大橋","code":"1740H011","STATUS":"現存","ADDR_C":"屏東市內埔鄉萬巒大橋","countyCode":"10013"}},{"type":"Feature","id":"RIVWLSTA_e.314","geometry":{"type":"Point","coordinates":[120.77781001,22.12749417]},"properties":{"name":"石門橋","code":"1850H004","STATUS":"現存","ADDR_C":"屏東縣牡丹鄉石門橋","countyCode":"10013"}},{"type":"Feature","id":"RIVWLSTA_e.315","geometry":{"type":"Point","coordinates":[120.74060369,22.08270477]},"properties":{"name":"懷恩橋","code":"1850H005","STATUS":"現存","ADDR_C":"屏東縣車城鄉","countyCode":"10013"}},{"type":"Feature","id":"RIVWLSTA_e.316","geometry":{"type":"Point","coordinates":[120.77279517,22.12344108]},"properties":{"name":"石門村過水橋","code":"1850H006","STATUS":"現存","ADDR_C":"屏東縣牡丹鄉石門村過四重溪水泥橋","countyCode":"10013"}},{"type":"Feature","id":"RIVWLSTA_e.317","geometry":{"type":"Point","coordinates":[121.08514983,22.89848267]},"properties":{"name":"延平","code":"2200H007","STATUS":"現存","ADDR_C":"台東縣鹿野鄉鹿野村","countyCode":"10014"}},{"type":"Feature","id":"RIVWLSTA_e.318","geometry":{"type":"Point","coordinates":[121.14370809,22.79181772]},"properties":{"name":"台東大橋","code":"2200H011","STATUS":"現存","ADDR_C":"台東縣卑南鄉富源村","countyCode":"10014"}},{"type":"Feature","id":"RIVWLSTA_e.319","geometry":{"type":"Point","coordinates":[121.17001127,23.12602048]},"properties":{"name":"新武呂(4)","code":"2200H020","STATUS":"現存","ADDR_C":"台東縣海端鄉初來村","countyCode":"10014"}},{"type":"Feature","id":"RIVWLSTA_e.320","geometry":{"type":"Point","coordinates":[121.11931237,23.13337191]},"properties":{"name":"大崙","code":"2200H021","STATUS":"現存","ADDR_C":"台東縣海端鄉新武村(山林護管所上游50m)","countyCode":"10014"}},{"type":"Feature","id":"RIVWLSTA_e.321","geometry":{"type":"Point","coordinates":[121.16642917,22.97492794]},"properties":{"name":"瑞源","code":"2200H022","STATUS":"現存","ADDR_C":"臺東縣鹿野鄉瑞源村寶華大橋","countyCode":"10014"}},{"type":"Feature","id":"RIVWLSTA_e.322","geometry":{"type":"Point","coordinates":[121.1758403,23.03582318]},"properties":{"name":"電光橋","code":"2200H025","STATUS":"現存","ADDR_C":"台東縣關山鎮新福里","countyCode":"10014"}},{"type":"Feature","id":"RIVWLSTA_e.323","geometry":{"type":"Point","coordinates":[121.14466194,22.90678494]},"properties":{"name":"鸞山橋","code":"2200H026","STATUS":"現存","ADDR_C":"台東縣鹿野鄉鸞山村","countyCode":"10014"}},{"type":"Feature","id":"RIVWLSTA_e.324","geometry":{"type":"Point","coordinates":[121.19201826,23.09866853]},"properties":{"name":"池上大橋","code":"2200H028","STATUS":"現存","ADDR_C":"臺東縣池上鄉池上大橋","countyCode":"10014"}},{"type":"Feature","id":"RIVWLSTA_e.325","geometry":{"type":"Point","coordinates":[121.09447361,22.89194349]},"properties":{"name":"鹿鳴橋","code":"2200H029","STATUS":"現存","ADDR_C":"臺東縣鹿野鄉鹿鳴橋","countyCode":"10014"}},{"type":"Feature","id":"RIVWLSTA_e.326","geometry":{"type":"Point","coordinates":[121.31108886,23.42739462]},"properties":{"name":"立山","code":"2370H016","STATUS":"現存","ADDR_C":"花蓮縣卓溪鄉立山村","countyCode":"10015"}},{"type":"Feature","id":"RIVWLSTA_e.327","geometry":{"type":"Point","coordinates":[121.40371301,23.48609764]},"properties":{"name":"瑞穗大橋","code":"2370H017","STATUS":"現存","ADDR_C":"花蓮縣玉里鎮德武里","countyCode":"10015"}},{"type":"Feature","id":"RIVWLSTA_e.328","geometry":{"type":"Point","coordinates":[121.33023803,23.32267809]},"properties":{"name":"玉里大橋","code":"2370H018","STATUS":"現存","ADDR_C":"花蓮縣玉里鎮中城里","countyCode":"10015"}},{"type":"Feature","id":"RIVWLSTA_e.329","geometry":{"type":"Point","coordinates":[121.36642931,23.57181565]},"properties":{"name":"馬遠橋","code":"2370H019","STATUS":"現存","ADDR_C":"花蓮縣萬榮鄉馬遠村","countyCode":"10015"}},{"type":"Feature","id":"RIVWLSTA_e.330","geometry":{"type":"Point","coordinates":[121.27117909,23.21750178]},"properties":{"name":"崙天大橋","code":"2370H024","STATUS":"現存","ADDR_C":"花蓮縣富里鄉","countyCode":"10015"}},{"type":"Feature","id":"RIVWLSTA_e.331","geometry":{"type":"Point","coordinates":[121.22230357,23.13731533]},"properties":{"name":"文田橋","code":"2370H025","STATUS":"現存","ADDR_C":"花蓮縣富里鄉學田村","countyCode":"10014"}},{"type":"Feature","id":"RIVWLSTA_e.332","geometry":{"type":"Point","coordinates":[121.24974403,23.18828397]},"properties":{"name":"明里大橋","code":"2370H028","STATUS":"現存","ADDR_C":"0","countyCode":"10015"}},{"type":"Feature","id":"RIVWLSTA_e.333","geometry":{"type":"Point","coordinates":[121.45173919,23.81175209]},"properties":{"name":"平林","code":"2420H018","STATUS":"現存","ADDR_C":"花蓮縣壽豐鄉溪口村","countyCode":"10015"}},{"type":"Feature","id":"RIVWLSTA_e.334","geometry":{"type":"Point","coordinates":[121.50616608,23.95575701]},"properties":{"name":"仁壽橋","code":"2420H019","STATUS":"現存","ADDR_C":"花蓮縣秀林鄉銅門村","countyCode":"10015"}},{"type":"Feature","id":"RIVWLSTA_e.335","geometry":{"type":"Point","coordinates":[121.59827793,23.92347802]},"properties":{"name":"花蓮大橋","code":"2420H024","STATUS":"現存","ADDR_C":"花蓮縣壽豐鄉鹽寮村","countyCode":"10015"}},{"type":"Feature","id":"RIVWLSTA_e.336","geometry":{"type":"Point","coordinates":[121.40912754,23.68863246]},"properties":{"name":"馬鞍溪橋","code":"2420H036","STATUS":"現存","ADDR_C":"花蓮縣光復鄉大同村","countyCode":"10015"}},{"type":"Feature","id":"RIVWLSTA_e.337","geometry":{"type":"Point","coordinates":[121.4268848,23.72012022]},"properties":{"name":"萬里溪橋","code":"2420H037","STATUS":"現存","ADDR_C":"花蓮縣鳳林鎮長橋里","countyCode":"10015"}},{"type":"Feature","id":"RIVWLSTA_e.338","geometry":{"type":"Point","coordinates":[121.48928308,23.73211296]},"properties":{"name":"箭瑛大橋","code":"2420H043","STATUS":"現存","ADDR_C":"花蓮縣鳳林鎮","countyCode":"10015"}},{"type":"Feature","id":"RIVWLSTA_e.339","geometry":{"type":"Point","coordinates":[121.52780892,23.84005504]},"properties":{"name":"米棧大橋","code":"2420H046","STATUS":"現存","ADDR_C":"花蓮縣壽豐鄉豐坪村","countyCode":"10015"}},{"type":"Feature","id":"RIVWLSTA_e.340","geometry":{"type":"Point","coordinates":[121.74338179,24.32453858]},"properties":{"name":"希能埔","code":"2500H003","STATUS":"現存","ADDR_C":"花蓮縣秀林鄉和平村","countyCode":"10002"}},{"type":"Feature","id":"RIVWLSTA_e.341","geometry":{"type":"Point","coordinates":[121.771877,24.71607349]},"properties":{"name":"蘭陽大橋","code":"2560H006","STATUS":"現存","ADDR_C":"宜蘭縣羅東鎮復興村","countyCode":"10002"}},{"type":"Feature","id":"RIVWLSTA_e.342","geometry":{"type":"Point","coordinates":[121.49184015,24.57828113]},"properties":{"name":"家源橋","code":"2560H017","STATUS":"現存","ADDR_C":"宜蘭縣大同鄉土場村","countyCode":"10002"}},{"type":"Feature","id":"RIVWLSTA_e.343","geometry":{"type":"Point","coordinates":[121.7443786,24.75795029]},"properties":{"name":"西門橋","code":"2560H019","STATUS":"現存","ADDR_C":"宜蘭縣宜蘭市文昌路","countyCode":"10002"}},{"type":"Feature","id":"RIVWLSTA_e.344","geometry":{"type":"Point","coordinates":[121.82057879,24.71894864]},"properties":{"name":"噶瑪蘭橋","code":"2560H020","STATUS":"現存","ADDR_C":"宜蘭縣壯圍鄉","countyCode":"10002"}},{"type":"Feature","id":"RIVWLSTA_e.345","geometry":{"type":"Point","coordinates":[121.6134199,24.6371211]},"properties":{"name":"清水大橋","code":"2560H022","STATUS":"現存","ADDR_C":"宜蘭縣大同鄉復興村","countyCode":"10002"}},{"type":"Feature","id":"RIVWLSTA_e.346","geometry":{"type":"Point","coordinates":[121.74657434,24.68351841]},"properties":{"name":"北成橋","code":"2560H023","STATUS":"現存","ADDR_C":"宜蘭縣羅東鎮北成橋","countyCode":"10002"}},{"type":"Feature","id":"RIVWLSTA_e.347","geometry":{"type":"Point","coordinates":[121.56729891,24.64237892]},"properties":{"name":"牛鬥(3)","code":"2560H024","STATUS":"現存","ADDR_C":"宜蘭縣大同鄉牛鬥村牛鬥橋","countyCode":"10002"}},{"type":"Feature","id":"RIVWLSTA_e.348","geometry":{"type":"Point","coordinates":[121.77227081,24.71385468]},"properties":{"name":"蘭陽大橋(2)","code":"2560H025","STATUS":"現存","ADDR_C":"宜蘭縣羅東鎮復興村","countyCode":"10002"}},{"type":"Feature","id":"RIVWLSTA_e.349","geometry":{"type":"Point","coordinates":[121.49184015,24.57828113]},"properties":{"name":"家源橋(2)","code":"2560H026","STATUS":"現存","ADDR_C":"宜蘭縣大同鄉土場村","countyCode":"10002"}}]}