{"type":"FeatureCollection","features":[{"type":"Feature","geometry":{"type":"Point","coordinates":[121.71136930054443,25.133312253197975]},"properties":{"name":"新山水庫","name_en":"Shinshan Reservoir","dam_height_m":66,"countyCode":"10017"}},{"type":"Feature","geometry":{"type":"Point","coordinates":[121.73560267810024,25.087340133201742]},"properties":{"name":"西勢水庫","name_en":"Shishih Reservoir","dam_height_m":29.6,"countyCode":"10017"}},{"type":"Feature","geometry":{"type":"Point","coordinates":[121.54496353699392,24.943586591067557]},"properties":{"name":"青潭堰","name_en":"Chingtan Weir","dam_height_m":33.2,"countyCode":"65000"}},{"type":"Feature","geometry":{"type":"Point","coordinates":[121.57960927778828,24.90929562710403]},"properties":{"name":"翡翠水庫","name_en":"Feitsui Reservoir","dam_height_m":122.5,"countyCode":"65000"}},{"type":"Feature","geometry":{"type":"Point","coordinates":[121.24585993079417,24.811608704015363]},"properties":{"name":"石門水庫","name_en":"Shihmen Reservoir","dam_height_m":133.1,"countyCode":"68000"}},{"type":"Feature","geometry":{"type":"Point","coordinates":[121.04244695641638,24.749088307853352]},"properties":{"name":"寶山水庫","name_en":"Paoshan Reservoir","dam_height_m":34.5,"countyCode":"10004"}},{"type":"Feature","geometry":{"type":"Point","coordinates":[121.35156024349978,24.73720680138607]},"properties":{"name":"榮華壩","name_en":"Ronghua Dam","dam_height_m":82,"countyCode":"68000"}},{"type":"Feature","geometry":{"type":"Point","coordinates":[120.98366717764716,24.6738839127157]},"properties":{"name":"大埔水庫","name_en":"Tapu Reservoir","dam_height_m":20.9,"countyCode":"10004"}},{"type":"Feature","geometry":{"type":"Point","coordinates":[120.92261284020846,24.661059290754]},"properties":{"name":"永和山水庫","name_en":"Yongheshan Reservoir","dam_height_m":62.5,"countyCode":"10005"}},{"type":"Feature","geometry":{"type":"Point","coordinates":[120.90173111529944,24.625649864655855]},"properties":{"name":"劍潭水庫","name_en":"Chientan Reservoir","dam_height_m":10.5,"countyCode":"10005"}},{"type":"Feature","geometry":{"type":"Point","coordinates":[120.88471419948809,24.58188543448505]},"properties":{"name":"明德水庫","name_en":"Mingde Reservoir","dam_height_m":35.5,"countyCode":"10005"}},{"type":"Feature","geometry":{"type":"Point","coordinates":[120.78305774878537,24.343899399654696]},"properties":{"name":"鯉魚潭水庫","name_en":"Lyiutan Reservoir","dam_height_m":96,"countyCode":"10005"}},{"type":"Feature","geometry":{"type":"Point","coordinates":[120.76939061316433,24.281634743749088]},"properties":{"name":"石岡壩","name_en":"Shihkang Dam","dam_height_m":21.4,"countyCode":"66000"}},{"type":"Feature","geometry":{"type":"Point","coordinates":[121.16784127172136,24.2551828221125]},"properties":{"name":"德基水庫","name_en":"Techi Reservoir","dam_height_m":180,"countyCode":"66000"}},{"type":"Feature","geometry":{"type":"Point","coordinates":[121.076234906442,24.233469342355832]},"properties":{"name":"谷關水庫","name_en":"Kukuan Reservoir","dam_height_m":85,"countyCode":"66000"}},{"type":"Feature","geometry":{"type":"Point","coordinates":[121.13640237021144,23.980325419154042]},"properties":{"name":"霧社水庫","name_en":"Wushoh Reservoir","dam_height_m":114,"countyCode":"10008"}},{"type":"Feature","geometry":{"type":"Point","coordinates":[120.89485985710604,23.835559116249502]},"properties":{"name":"頭社水庫","name_en":"Toushih Reservoir","dam_height_m":12,"countyCode":"10008"}},{"type":"Feature","geometry":{"type":"Point","coordinates":[119.62550699937094,23.578443420733027]},"properties":{"name":"成功水庫","name_en":"Chengong Reservoir","dam_height_m":10.5,"countyCode":"10016"}},{"type":"Feature","geometry":{"type":"Point","coordinates":[119.59775890927665,23.56832679107917]},"properties":{"name":"東衛水庫","name_en":"Dongwei Reservoir","dam_height_m":9.5,"countyCode":"10016"}},{"type":"Feature","geometry":{"type":"Point","coordinates":[119.60509997194596,23.55021082217396]},"properties":{"name":"興仁水庫","name_en":"Shingren Reservoir","dam_height_m":13,"countyCode":"10016"}},{"type":"Feature","geometry":{"type":"Point","coordinates":[120.4780794319904,23.46762993145398]},"properties":{"name":"蘭潭水庫","name_en":"Lantan Reservoir","dam_height_m":31,"countyCode":"10020"}},{"type":"Feature","geometry":{"type":"Point","coordinates":[120.50552594991723,23.459278118184272]},"properties":{"name":"仁義潭水庫","name_en":"Jenitan Reservoir","dam_height_m":28,"countyCode":"10010"}},{"type":"Feature","geometry":{"type":"Point","coordinates":[120.47746195779101,23.385998487297282]},"properties":{"name":"鹿寮溪水庫","name_en":"Luliaoshi Reservoir","dam_height_m":30,"countyCode":"67000"}},{"type":"Feature","geometry":{"type":"Point","coordinates":[119.49631025453631,23.365459870374156]},"properties":{"name":"西安水庫","name_en":"Shian Reservoir","dam_height_m":13,"countyCode":"10016"}},{"type":"Feature","geometry":{"type":"Point","coordinates":[120.4717548144457,23.3563768473136]},"properties":{"name":"白河水庫","name_en":"Paiho Reservoir","dam_height_m":42.5,"countyCode":"67000"}},{"type":"Feature","geometry":{"type":"Point","coordinates":[120.33144028113256,23.263926767455263]},"properties":{"name":"德元埤水庫","name_en":"Teyuanpi Reservoir","dam_height_m":6.7,"countyCode":"67000"}},{"type":"Feature","geometry":{"type":"Point","coordinates":[120.39210514498141,23.26450383092463]},"properties":{"name":"尖山埤水庫","name_en":"Chienranpei Reservoir","dam_height_m":30,"countyCode":"67000"}},{"type":"Feature","geometry":{"type":"Point","coordinates":[120.53583117253841,23.24868503363512]},"properties":{"name":"曾文水庫","name_en":"Tsengwen Reservoir","dam_height_m":133,"countyCode":"10010"}},{"type":"Feature","geometry":{"type":"Point","coordinates":[120.3681217735146,23.203112547513694]},"properties":{"name":"烏山頭水庫","name_en":"Wushantou Reservoir","dam_height_m":56,"countyCode":"67000"}},{"type":"Feature","geometry":{"type":"Point","coordinates":[120.53814492164864,23.089385458987106]},"properties":{"name":"南化水庫","name_en":"Nanhwa Reservoir","dam_height_m":87.5,"countyCode":"67000"}},{"type":"Feature","geometry":{"type":"Point","coordinates":[120.48808562224272,23.058155797209693]},"properties":{"name":"鏡面水庫","name_en":"Chingmein Reservoir","dam_height_m":36,"countyCode":"67000"}},{"type":"Feature","geometry":{"type":"Point","coordinates":[120.33739243006487,23.025629293089484]},"properties":{"name":"虎頭埤水庫","name_en":"Hutoupi Reservoir","dam_height_m":15.3,"countyCode":"67000"}},{"type":"Feature","geometry":{"type":"Point","coordinates":[120.34462582078287,22.81150614081517]},"properties":{"name":"阿公店水庫","name_en":"Akongtien Reservoir","dam_height_m":31,"countyCode":"64000"}},{"type":"Feature","geometry":{"type":"Point","coordinates":[120.35806788497175,22.661077778872883]},"properties":{"name":"澄清湖水庫","name_en":"Chengchinghu Reservoir","dam_height_m":6,"countyCode":"64000"}},{"type":"Feature","geometry":{"type":"Point","coordinates":[120.39196461383446,22.534900320916783]},"properties":{"name":"鳳山水庫","name_en":"Fengshan Reservoir","dam_height_m":39.5,"countyCode":"64000"}},{"type":"Feature","geometry":{"type":"Point","coordinates":[120.46216918591931,22.504436521587504]},"properties":{"name":"東港溪攔河堰","name_en":"Tungkangshi Weir","dam_height_m":null,"countyCode":"10013"}},{"type":"Feature","geometry":{"type":"Point","coordinates":[120.73580662008794,21.98270016860461]},"properties":{"name":"龍鑾潭水庫","name_en":"Lungluantan Reservoir","dam_height_m":8,"countyCode":"10013"}},{"type":"Feature","geometry":{"type":"Point","coordinates":[120.7821600462879,22.132723587625993]},"properties":{"name":"牡丹水庫","name_en":"Mudan Reservoir","dam_height_m":65,"countyCode":"10013"}},{"type":"Feature","geometry":{"type":"Point","coordinates":[121.53189742400808,24.92661675272994]},"properties":{"name":"直潭壩","name_en":"Zhitan Dam","dam_height_m":12.5,"countyCode":"65000"}},{"type":"Feature","geometry":{"type":"Point","coordinates":[121.54664675694394,24.914974714265657]},"properties":{"name":"粗坑壩","name_en":"Chukeng Dam","dam_height_m":6.8,"countyCode":"65000"}},{"type":"Feature","geometry":{"type":"Point","coordinates":[121.54632837740921,24.871978093027245]},"properties":{"name":"桂山壩","name_en":"Kueishan Dam","dam_height_m":20,"countyCode":"65000"}},{"type":"Feature","geometry":{"type":"Point","coordinates":[121.58739563178287,24.849950917552174]},"properties":{"name":"阿玉壩","name_en":"Ayu Dam","dam_height_m":18,"countyCode":"65000"}},{"type":"Feature","geometry":{"type":"Point","coordinates":[121.52626829406671,24.831497841627872]},"properties":{"name":"羅好壩","name_en":"Lohao Dam","dam_height_m":22,"countyCode":"65000"}},{"type":"Feature","geometry":{"type":"Point","coordinates":[121.16045431213756,24.25298578754218]},"properties":{"name":"青山壩","name_en":"Chingshan Dam","dam_height_m":45,"countyCode":"66000"}},{"type":"Feature","geometry":{"type":"Point","coordinates":[121.01520171956773,24.210744783298306]},"properties":{"name":"天輪壩","name_en":"Tienlun Dam","dam_height_m":48.2,"countyCode":"66000"}},{"type":"Feature","geometry":{"type":"Point","coordinates":[120.86321164116076,23.815804333774725]},"properties":{"name":"銃櫃壩","name_en":"Tunghuei Dam","dam_height_m":27.3,"countyCode":"10008"}},{"type":"Feature","geometry":{"type":"Point","coordinates":[121.05769466289254,23.914705867333655]},"properties":{"name":"武界壩","name_en":"Wujie Dam","dam_height_m":57.6,"countyCode":"10008"}},{"type":"Feature","geometry":{"type":"Point","coordinates":[120.87033889225218,23.854502081279755]},"properties":{"name":"明湖下池水庫","name_en":"Minghu Reservoir","dam_height_m":57.5,"countyCode":"10008"}},{"type":"Feature","geometry":{"type":"Point","coordinates":[120.49358657068949,23.530164694962117]},"properties":{"name":"內埔子水庫","name_en":"Neiputzu Reservoir","dam_height_m":26,"countyCode":"10010"}},{"type":"Feature","geometry":{"type":"Point","coordinates":[120.36788909573332,22.707765841111478]},"properties":{"name":"觀音湖水庫","name_en":"","dam_height_m":6,"countyCode":"64000"}},{"type":"Feature","geometry":{"type":"Point","coordinates":[121.58358024316541,24.17694262717619]},"properties":{"name":"溪畔壩","name_en":"Chipan Dam","dam_height_m":25,"countyCode":"10015"}},{"type":"Feature","geometry":{"type":"Point","coordinates":[121.40998762998369,24.022408540039383]},"properties":{"name":"龍溪壩","name_en":"Lungshi Dam","dam_height_m":29.5,"countyCode":"10015"}},{"type":"Feature","geometry":{"type":"Point","coordinates":[121.43025759630197,24.000686252737438]},"properties":{"name":"水簾壩","name_en":"Shuilien Dam","dam_height_m":27,"countyCode":"10015"}},{"type":"Feature","geometry":{"type":"Point","coordinates":[120.55307120961322,22.908051441617534]},"properties":{"name":"美濃湖水庫","name_en":"","dam_height_m":145.5,"countyCode":"64000"}},{"type":"Feature","geometry":{"type":"Point","coordinates":[119.50910361448038,23.610563045822175]},"properties":{"name":"小池水庫","name_en":"Shiaochi Reservoir","dam_height_m":16,"countyCode":"10016"}},{"type":"Feature","geometry":{"type":"Point","coordinates":[119.43417637232938,23.21084796981737]},"properties":{"name":"七美水庫","name_en":"Chimei Reservoir","dam_height_m":14,"countyCode":"10016"}},{"type":"Feature","geometry":{"type":"Point","coordinates":[120.90194689563967,23.8622162956464]},"properties":{"name":"日月潭水庫","name_en":"Sunmoon Lake","dam_height_m":30.3,"countyCode":"10008"}},{"type":"Feature","geometry":{"type":"Point","coordinates":[121.34238165796364,24.93071718870379]},"properties":{"name":"鳶山堰","name_en":"Yuanshan Weir","dam_height_m":15.5,"countyCode":"65000"}},{"type":"Feature","geometry":{"type":"Point","coordinates":[121.2534541091441,24.823159082112408]},"properties":{"name":"石門後池堰","name_en":"","dam_height_m":29,"countyCode":"68000"}},{"type":"Feature","geometry":{"type":"Point","coordinates":[121.75341527731776,24.70289873206475]},"properties":{"name":"羅東攔河堰","name_en":"","dam_height_m":null,"countyCode":"10002"}},{"type":"Feature","geometry":{"type":"Point","coordinates":[121.04338355353823,24.720937368657484]},"properties":{"name":"寶山第二水庫","name_en":"","dam_height_m":61,"countyCode":"10004"}},{"type":"Feature","geometry":{"type":"Point","coordinates":[121.0369302355083,24.797147852191713]},"properties":{"name":"隆恩堰","name_en":"Lonen Weir","dam_height_m":null,"countyCode":"10004"}},{"type":"Feature","geometry":{"type":"Point","coordinates":[121.00680875408636,24.628444608524568]},"properties":{"name":"田美攔河堰","name_en":"","dam_height_m":null,"countyCode":"10005"}},{"type":"Feature","geometry":{"type":"Point","coordinates":[120.93657901363747,24.34404110979733]},"properties":{"name":"士林攔河堰","name_en":"","dam_height_m":21,"countyCode":"10005"}},{"type":"Feature","geometry":{"type":"Point","coordinates":[120.91435098772506,24.184102133509473]},"properties":{"name":"馬鞍壩","name_en":"Maan Dam","dam_height_m":23.5,"countyCode":"66000"}},{"type":"Feature","geometry":{"type":"Point","coordinates":[120.65921819753515,23.645878225110064]},"properties":{"name":"桶頭攔河堰","name_en":"","dam_height_m":null,"countyCode":"10008"}},{"type":"Feature","geometry":{"type":"Point","coordinates":[120.76351373878285,23.81836013830855]},"properties":{"name":"集集攔河堰","name_en":"Chichi Weir","dam_height_m":27.4,"countyCode":"10008"}},{"type":"Feature","geometry":{"type":"Point","coordinates":[120.63041549461161,23.691057023936366]},"properties":{"name":"湖山水庫","name_en":"","dam_height_m":75,"countyCode":"10009"}},{"type":"Feature","geometry":{"type":"Point","coordinates":[120.58374885915445,23.084732709618148]},"properties":{"name":"甲仙攔河堰","name_en":"","dam_height_m":null,"countyCode":"64000"}},{"type":"Feature","geometry":{"type":"Point","coordinates":[120.43856544268426,22.686058414770486]},"properties":{"name":"高屏溪攔河堰","name_en":"Kaopinshi Weir","dam_height_m":null,"countyCode":"64000"}},{"type":"Feature","geometry":{"type":"Point","coordinates":[121.50061146696491,22.673124935232405]},"properties":{"name":"酬勤水庫","name_en":"Chouchin Reservoir","dam_height_m":14.9,"countyCode":"10014"}},{"type":"Feature","geometry":{"type":"Point","coordinates":[119.53606001897673,23.36650481650016]},"properties":{"name":"烏溝蓄水塘","name_en":"Wugou Dam","dam_height_m":null,"countyCode":"10016"}},{"type":"Feature","geometry":{"type":"Point","coordinates":[120.338477104815,23.043014020245057]},"properties":{"name":"鹽水埤水庫","name_en":"","dam_height_m":8.5,"countyCode":"67000"}},{"type":"Feature","geometry":{"type":"Point","coordinates":[120.3647738724509,23.10289494512004]},"properties":{"name":"玉峰堰","name_en":"","dam_height_m":null,"countyCode":"67000"}},{"type":"Feature","geometry":{"type":"Point","coordinates":[120.86894661916196,23.836048994876453]},"properties":{"name":"明潭下池水庫","name_en":"","dam_height_m":null,"countyCode":"10008"}},{"type":"Feature","geometry":{"type":"Point","coordinates":[121.41555783217464,24.002311777881292]},"properties":{"name":"木瓜壩","name_en":"","dam_height_m":null,"countyCode":"10015"}},{"type":"Feature","geometry":{"type":"Point","coordinates":[121.60708950230368,24.333180586040942]},"properties":{"name":"南溪壩","name_en":"","dam_height_m":null,"countyCode":"10015"}},{"type":"Feature","geometry":{"type":"Point","coordinates":[119.92360769932944,26.161529495766086]},"properties":{"name":"后沃水庫","name_en":"","dam_height_m":null,"countyCode":"09007"}},{"type":"Feature","geometry":{"type":"Point","coordinates":[119.91476878781712,26.148298386769884]},"properties":{"name":"津沙一號水庫","name_en":"","dam_height_m":null,"countyCode":"09007"}},{"type":"Feature","geometry":{"type":"Point","coordinates":[119.91552870525764,26.144454700140198]},"properties":{"name":"津沙水庫","name_en":"","dam_height_m":null,"countyCode":"09007"}},{"type":"Feature","geometry":{"type":"Point","coordinates":[119.93597827843412,26.152587948995812]},"properties":{"name":"勝利水庫","name_en":"","dam_height_m":null,"countyCode":"09007"}},{"type":"Feature","geometry":{"type":"Point","coordinates":[119.91677087799701,26.153427477891928]},"properties":{"name":"儲水沃水庫","name_en":"","dam_height_m":null,"countyCode":"09007"}},{"type":"Feature","geometry":{"type":"Point","coordinates":[119.97423232754205,26.222012301546883]},"properties":{"name":"板里水庫","name_en":"","dam_height_m":null,"countyCode":"09007"}},{"type":"Feature","geometry":{"type":"Point","coordinates":[120.49243269556081,26.36966660548162]},"properties":{"name":"東湧水庫","name_en":"","dam_height_m":null,"countyCode":"09007"}},{"type":"Feature","geometry":{"type":"Point","coordinates":[119.9249351192175,26.16745808480862]},"properties":{"name":"秋桂山水庫","name_en":"","dam_height_m":null,"countyCode":"09007"}},{"type":"Feature","geometry":{"type":"Point","coordinates":[118.42899866731624,24.438863590605425]},"properties":{"name":"太湖水庫","name_en":"","dam_height_m":null,"countyCode":"09020"}},{"type":"Feature","geometry":{"type":"Point","coordinates":[118.39861414785686,24.46356309553567]},"properties":{"name":"擎天水庫","name_en":"","dam_height_m":null,"countyCode":"09020"}},{"type":"Feature","geometry":{"type":"Point","coordinates":[118.40940887252557,24.488138064041095]},"properties":{"name":"榮湖水庫","name_en":"","dam_height_m":null,"countyCode":"09020"}},{"type":"Feature","geometry":{"type":"Point","coordinates":[118.40176155871072,24.494621341732316]},"properties":{"name":"金沙水庫","name_en":"","dam_height_m":null,"countyCode":"09020"}},{"type":"Feature","geometry":{"type":"Point","coordinates":[118.43003381126545,24.50722103064918]},"properties":{"name":"山西水庫","name_en":"","dam_height_m":null,"countyCode":"09020"}},{"type":"Feature","geometry":{"type":"Point","coordinates":[118.45788770822226,24.478451408728013]},"properties":{"name":"田埔水庫","name_en":"","dam_height_m":null,"countyCode":"09020"}},{"type":"Feature","geometry":{"type":"Point","coordinates":[118.43209922789892,24.4597587116891]},"properties":{"name":"陽明湖水庫","name_en":"","dam_height_m":null,"countyCode":"09020"}},{"type":"Feature","geometry":{"type":"Point","coordinates":[118.45673808953016,24.433018367579272]},"properties":{"name":"金湖水庫","name_en":"","dam_height_m":null,"countyCode":"09020"}},{"type":"Feature","geometry":{"type":"Point","coordinates":[118.38219798263394,24.45248660932416]},"properties":{"name":"蘭湖水庫","name_en":"","dam_height_m":null,"countyCode":"09020"}},{"type":"Feature","geometry":{"type":"Point","coordinates":[118.37190012706084,24.45050887961936]},"properties":{"name":"瓊林水庫","name_en":"","dam_height_m":null,"countyCode":"09020"}},{"type":"Feature","geometry":{"type":"Point","coordinates":[118.25135578741508,24.450757206128745]},"properties":{"name":"蓮湖","name_en":"","dam_height_m":null,"countyCode":"09020"}},{"type":"Feature","geometry":{"type":"Point","coordinates":[118.24417554185463,24.44832713281563]},"properties":{"name":"菱湖","name_en":"","dam_height_m":null,"countyCode":"09020"}},{"type":"Feature","geometry":{"type":"Point","coordinates":[118.2294448345448,24.43522698900601]},"properties":{"name":"西湖水庫","name_en":"","dam_height_m":null,"countyCode":"09020"}}]}