{"type":"FeatureCollection","features":[{"type":"Feature","id":"M0000000573","geometry":{"type":"Point","coordinates":[120.70469679853183,23.83462649206443]},"properties":{"code":"M0000000573","name":"臺鐵濁水車站","alternate_name":"臺鐵濁水站","address":"南投縣名間鄉濁水村車站路15號","telephone":"049-2735850","updated_yyyymm":"202003","railway_system":"臺鐵","_featureId":"M0000000573","countyCodes":["10008"]}},{"type":"Feature","id":"M0000002531","geometry":{"type":"Point","coordinates":[120.75011386831872,23.835247663810016]},"properties":{"code":"M0000002531","name":"臺鐵龍泉車站","alternate_name":"臺鐵龍泉站","address":"南投縣集集鎮隘寮村(無站房)","telephone":"04-8792027","updated_yyyymm":"202212","railway_system":"臺鐵","_featureId":"M0000002531","countyCodes":["10008"]}},{"type":"Feature","id":"M0000000474","geometry":{"type":"Point","coordinates":[120.85341178704702,23.81852298712153]},"properties":{"code":"M0000000474","name":"臺鐵水里車站","alternate_name":"臺鐵水里站","address":"南投縣水里鄉民生路442號","telephone":"049-2770015","updated_yyyymm":"202003","railway_system":"臺鐵","_featureId":"M0000000474","countyCodes":["10008"]}},{"type":"Feature","id":"M0000000494","geometry":{"type":"Point","coordinates":[120.78490070271175,23.82645526156713]},"properties":{"code":"M0000000494","name":"臺鐵集集車站","alternate_name":"臺鐵集集站","address":"南投縣集集鎮民生路75號","telephone":"049-2762546","updated_yyyymm":"202003","railway_system":"臺鐵","_featureId":"M0000000494","countyCodes":["10008"]}},{"type":"Feature","id":"M0000000547","geometry":{"type":"Point","coordinates":[120.86567908515096,23.832548510555174]},"properties":{"code":"M0000000547","name":"臺鐵車埕車站","alternate_name":"臺鐵車埕站","address":"南投縣水里鄉車埕村民權巷2號","telephone":"049-2774749","updated_yyyymm":"201810","railway_system":"臺鐵","_featureId":"M0000000547","countyCodes":["10008"]}},{"type":"Feature","id":"C0000000231","geometry":{"type":"Point","coordinates":[121.69379637411042,25.0779425656101]},"properties":{"code":"C0000000231","name":"臺鐵百福車站","alternate_name":"臺鐵百福站","address":"基隆市七堵區明德三路1之1號","telephone":"02-24528372","updated_yyyymm":"202001","railway_system":"臺鐵","_featureId":"C0000000231","countyCodes":["10017"]}},{"type":"Feature","id":"C0000000960","geometry":{"type":"Point","coordinates":[121.71433728105139,25.093150892661026]},"properties":{"code":"C0000000960","name":"臺鐵七堵車站","alternate_name":"臺鐵七堵站","address":"基隆市七堵區長興里東新街2號之1","telephone":"02-24553426","updated_yyyymm":"201311","railway_system":"臺鐵","_featureId":"C0000000960","countyCodes":["10017"]}},{"type":"Feature","id":"C0000000596","geometry":{"type":"Point","coordinates":[121.7406416392875,25.102165615952508]},"properties":{"code":"C0000000596","name":"臺鐵暖暖車站","alternate_name":"臺鐵暖暖站","address":"基隆市暖暖區暖暖街51號","telephone":"02-24972033","updated_yyyymm":"202201","railway_system":"臺鐵","_featureId":"C0000000596","countyCodes":["10017"]}},{"type":"Feature","id":"C0000000129","geometry":{"type":"Point","coordinates":[121.72887986871154,25.108341652395847]},"properties":{"code":"C0000000129","name":"臺鐵八堵車站","alternate_name":"臺鐵八堵站","address":"基隆市暖暖區八南里八堵路142號","telephone":"02-24560841","updated_yyyymm":"201311","railway_system":"臺鐵","_featureId":"C0000000129","countyCodes":["10017"]}},{"type":"Feature","id":"C0000001877","geometry":{"type":"Point","coordinates":[121.74198633043898,25.123233988237768]},"properties":{"code":"C0000001877","name":"臺鐵三坑車站","alternate_name":"臺鐵三坑站","address":"基隆市仁愛區龍安街206號","telephone":"02-24230289","updated_yyyymm":"202001","railway_system":"臺鐵","_featureId":"C0000001877","countyCodes":["10017"]}},{"type":"Feature","id":"C0000001680","geometry":{"type":"Point","coordinates":[121.73849004207077,25.131874264902688]},"properties":{"code":"C0000001680","name":"臺鐵基隆車站(南站)","alternate_name":"臺鐵基隆站(南站)","address":"","telephone":"","updated_yyyymm":"202207","railway_system":"臺鐵","_featureId":"C0000001680","countyCodes":["10017"]}},{"type":"Feature","id":"C0000002243","geometry":{"type":"Point","coordinates":[121.73996683401342,25.13410662520359]},"properties":{"code":"C0000002243","name":"臺鐵基隆車站(北站)","alternate_name":"臺鐵基隆站(北站)","address":"基隆市仁愛區文昌里港西街5號","telephone":"02-24263743","updated_yyyymm":"202207","railway_system":"臺鐵","_featureId":"C0000002243","countyCodes":["10017"]}},{"type":"Feature","id":"C0000001890","geometry":{"type":"Point","coordinates":[121.8028874079824,25.13532609481863]},"properties":{"code":"C0000001890","name":"臺鐵八斗子車站","alternate_name":"臺鐵八斗子站","address":"基隆市中正區/新北市瑞芳區交界處(無站房)","telephone":"02-24972033","updated_yyyymm":"202201","railway_system":"臺鐵","_featureId":"C0000001890","countyCodes":["10017"]}},{"type":"Feature","id":"C0000001888","geometry":{"type":"Point","coordinates":[121.79986755340373,25.137578206452897]},"properties":{"code":"C0000001888","name":"臺鐵海科館車站","alternate_name":"臺鐵海科館站","address":"基隆市中正區(無站房)","telephone":"02-24972033","updated_yyyymm":"202201","railway_system":"臺鐵","_featureId":"C0000001888","countyCodes":["10017"]}},{"type":"Feature","id":"G0000001662","geometry":{"type":"Point","coordinates":[121.76831898929792,24.335421726605816]},"properties":{"code":"G0000001662","name":"臺鐵漢本車站","alternate_name":"臺鐵漢本站","address":"宜蘭縣南澳鄉澳花村蘇花路一段56號","telephone":"03-9985238","updated_yyyymm":"201810","railway_system":"臺鐵","_featureId":"G0000001662","countyCodes":["10002"]}},{"type":"Feature","id":"G0000000021","geometry":{"type":"Point","coordinates":[121.77583238066389,24.449164030135545]},"properties":{"code":"G0000000021","name":"臺鐵武塔車站","alternate_name":"臺鐵武塔站","address":"宜蘭縣南澳鄉武塔村新溪路18號","telephone":"03-9981971","updated_yyyymm":"202012","railway_system":"臺鐵","_featureId":"G0000000021","countyCodes":["10002"]}},{"type":"Feature","id":"G0000000026","geometry":{"type":"Point","coordinates":[121.8010340295344,24.463347540817985]},"properties":{"code":"G0000000026","name":"臺鐵南澳車站","alternate_name":"臺鐵南澳站","address":"宜蘭縣蘇澳鎮南強里大通路22號","telephone":"03-9981971","updated_yyyymm":"201810","railway_system":"臺鐵","_featureId":"G0000000026","countyCodes":["10002"]}},{"type":"Feature","id":"G0000000084","geometry":{"type":"Point","coordinates":[121.83067023232688,24.518218094287224]},"properties":{"code":"G0000000084","name":"臺鐵東澳車站","alternate_name":"臺鐵東澳站","address":"宜蘭縣南澳鄉東岳村1號","telephone":"03-9986053","updated_yyyymm":"201810","railway_system":"臺鐵","_featureId":"G0000000084","countyCodes":["10002"]}},{"type":"Feature","id":"G0000000098","geometry":{"type":"Point","coordinates":[121.84453183043283,24.568366592795517]},"properties":{"code":"G0000000098","name":"臺鐵永樂車站","alternate_name":"臺鐵永樂站","address":"宜蘭縣蘇澳鎮永樂里圳頭路60號","telephone":"03-9961889","updated_yyyymm":"201409","railway_system":"臺鐵","_featureId":"G0000000098","countyCodes":["10002"]}},{"type":"Feature","id":"G0000000150","geometry":{"type":"Point","coordinates":[121.85147834097302,24.59512945124881]},"properties":{"code":"G0000000150","name":"臺鐵蘇澳車站","alternate_name":"臺鐵蘇澳站","address":"宜蘭縣蘇澳鎮蘇南里太平路1號","telephone":"03-9962028","updated_yyyymm":"201810","railway_system":"臺鐵","_featureId":"G0000000150","countyCodes":["10002"]}},{"type":"Feature","id":"G0000000219","geometry":{"type":"Point","coordinates":[121.82726112395495,24.60869073412287]},"properties":{"code":"G0000000219","name":"臺鐵蘇澳新車站","alternate_name":"臺鐵蘇澳新站","address":"宜蘭縣蘇澳鎮聖愛里中山路二段238號","telephone":"03-9961004","updated_yyyymm":"201810","railway_system":"臺鐵","_featureId":"G0000000219","countyCodes":["10002"]}},{"type":"Feature","id":"G0000000241","geometry":{"type":"Point","coordinates":[121.82290519261748,24.615393147421255]},"properties":{"code":"G0000000241","name":"臺鐵新馬車站","alternate_name":"臺鐵新馬站","address":"宜蘭縣蘇澳鎮中山路二段322號","telephone":"03-9961004","updated_yyyymm":"201806","railway_system":"臺鐵","_featureId":"G0000000241","countyCodes":["10002"]}},{"type":"Feature","id":"G0000000319","geometry":{"type":"Point","coordinates":[121.79228032138522,24.63648921238832]},"properties":{"code":"G0000000319","name":"臺鐵冬山車站","alternate_name":"臺鐵冬山站","address":"宜蘭縣冬山鄉冬山村中正路1之2號","telephone":"03-9594221","updated_yyyymm":"201810","railway_system":"臺鐵","_featureId":"G0000000319","countyCodes":["10002"]}},{"type":"Feature","id":"G0000000586","geometry":{"type":"Point","coordinates":[121.77435668320979,24.67788957976037]},"properties":{"code":"G0000000586","name":"臺鐵羅東車站","alternate_name":"臺鐵羅東站","address":"宜蘭縣羅東鎮大新里公正路2號","telephone":"03-9542117","updated_yyyymm":"201810","railway_system":"臺鐵","_featureId":"G0000000586","countyCodes":["10002"]}},{"type":"Feature","id":"G0000000735","geometry":{"type":"Point","coordinates":[121.77527015679675,24.69463028246133]},"properties":{"code":"G0000000735","name":"臺鐵中里車站","alternate_name":"臺鐵中里站","address":"宜蘭縣五結鄉台興路10號","telephone":"03-9542117","updated_yyyymm":"202208","railway_system":"臺鐵","_featureId":"G0000000735","countyCodes":["10002"]}},{"type":"Feature","id":"G0000000759","geometry":{"type":"Point","coordinates":[121.77418142668574,24.705291522024513]},"properties":{"code":"G0000000759","name":"臺鐵二結車站","alternate_name":"臺鐵二結站","address":"宜蘭縣五結鄉五結中路三段658巷8號","telephone":"03-9650304","updated_yyyymm":"201810","railway_system":"臺鐵","_featureId":"G0000000759","countyCodes":["10002"]}},{"type":"Feature","id":"G0000001043","geometry":{"type":"Point","coordinates":[121.75801609712366,24.754623796980564]},"properties":{"code":"G0000001043","name":"臺鐵宜蘭車站","alternate_name":"臺鐵宜蘭站","address":"宜蘭縣宜蘭市和睦里光復路1號","telephone":"03-9323801","updated_yyyymm":"201810","railway_system":"臺鐵","_featureId":"G0000001043","countyCodes":["10002"]}},{"type":"Feature","id":"G0000001245","geometry":{"type":"Point","coordinates":[121.76270470462411,24.78682224759895]},"properties":{"code":"G0000001245","name":"臺鐵四城車站","alternate_name":"臺鐵四城站","address":"宜蘭縣礁溪鄉吳沙村站前路24號","telephone":"03-9282449","updated_yyyymm":"201806","railway_system":"臺鐵","_featureId":"G0000001245","countyCodes":["10002"]}},{"type":"Feature","id":"G0000001335","geometry":{"type":"Point","coordinates":[121.77529383013079,24.827012325906214]},"properties":{"code":"G0000001335","name":"臺鐵礁溪車站","alternate_name":"臺鐵礁溪站","address":"宜蘭縣礁溪鄉德陽村溫泉路1號","telephone":"03-9886940","updated_yyyymm":"201810","railway_system":"臺鐵","_featureId":"G0000001335","countyCodes":["10002"]}},{"type":"Feature","id":"G0000001464","geometry":{"type":"Point","coordinates":[121.80910334688785,24.843906931100467]},"properties":{"code":"G0000001464","name":"臺鐵頂埔車站","alternate_name":"臺鐵頂埔站","address":"宜蘭縣頭城鎮下埔里下埔路4之8號","telephone":"03-9886940","updated_yyyymm":"201810","railway_system":"臺鐵","_featureId":"G0000001464","countyCodes":["10002"]}},{"type":"Feature","id":"G0000001505","geometry":{"type":"Point","coordinates":[121.8224652885174,24.858884892409353]},"properties":{"code":"G0000001505","name":"臺鐵頭城車站","alternate_name":"臺鐵頭城站","address":"宜蘭縣頭城鎮城北里纘祥路59號","telephone":"03-9771429","updated_yyyymm":"201806","railway_system":"臺鐵","_featureId":"G0000001505","countyCodes":["10002"]}},{"type":"Feature","id":"G0000001555","geometry":{"type":"Point","coordinates":[121.84590029699997,24.88388125823444]},"properties":{"code":"G0000001555","name":"臺鐵外澳車站","alternate_name":"臺鐵外澳站","address":"宜蘭縣頭城鎮外澳里濱海路二段217號","telephone":"03-9771429","updated_yyyymm":"201810","railway_system":"臺鐵","_featureId":"G0000001555","countyCodes":["10002"]}},{"type":"Feature","id":"G0000001564","geometry":{"type":"Point","coordinates":[121.86887813858549,24.90486879828137]},"properties":{"code":"G0000001564","name":"臺鐵龜山車站","alternate_name":"臺鐵龜山站","address":"宜蘭縣頭城鎮更新里濱海路三段261號","telephone":"03-9770351","updated_yyyymm":"201810","railway_system":"臺鐵","_featureId":"G0000001564","countyCodes":["10002"]}},{"type":"Feature","id":"G0000001579","geometry":{"type":"Point","coordinates":[121.8898199649237,24.938375372137635]},"properties":{"code":"G0000001579","name":"臺鐵大溪車站","alternate_name":"臺鐵大溪站","address":"宜蘭縣頭城鎮大溪里濱海路五段63號","telephone":"03-9771429","updated_yyyymm":"201810","railway_system":"臺鐵","_featureId":"G0000001579","countyCodes":["10002"]}},{"type":"Feature","id":"G0000001597","geometry":{"type":"Point","coordinates":[121.92251971079617,24.96673477095555]},"properties":{"code":"G0000001597","name":"臺鐵大里車站","alternate_name":"臺鐵大里站","address":"宜蘭縣頭城鎮大里里濱海路六段326號","telephone":"03-9781171","updated_yyyymm":"201409","railway_system":"臺鐵","_featureId":"G0000001597","countyCodes":["10002"]}},{"type":"Feature","id":"G0000003890","geometry":{"type":"Point","coordinates":[121.94506281080554,24.978315154209675]},"properties":{"code":"G0000003890","name":"臺鐵石城車站","alternate_name":"臺鐵石城站","address":"宜蘭縣頭城鎮濱海路七段230號","telephone":"03-9771429","updated_yyyymm":"202402","railway_system":"臺鐵","_featureId":"G0000003890","countyCodes":["10002"]}},{"type":"Feature","id":"N0000001514","geometry":{"type":"Point","coordinates":[120.64203746883807,23.798442275560685]},"properties":{"code":"N0000001514","name":"臺鐵源泉車站(集集線)","alternate_name":"臺鐵源泉站(集集線)","address":"彰化縣二水鄉合興村英義路(無站房)","telephone":"04-8792027","updated_yyyymm":"201810","railway_system":"臺鐵","_featureId":"N0000001514","countyCodes":["10007"]}},{"type":"Feature","id":"N0000001515","geometry":{"type":"Point","coordinates":[120.61808477152228,23.813212667271905]},"properties":{"code":"N0000001515","name":"臺鐵二水車站","alternate_name":"臺鐵二水站","address":"彰化縣二水鄉光文路1號","telephone":"04-8792027","updated_yyyymm":"202003","railway_system":"臺鐵","_featureId":"N0000001515","countyCodes":["10007"]}},{"type":"Feature","id":"N0000001954","geometry":{"type":"Point","coordinates":[120.59129721211531,23.858280086097725]},"properties":{"code":"N0000001954","name":"臺鐵田中車站","alternate_name":"臺鐵田中站","address":"彰化縣田中鎮中州路一段1號","telephone":"04-8742142","updated_yyyymm":"201811","railway_system":"臺鐵","_featureId":"N0000001954","countyCodes":["10007"]}},{"type":"Feature","id":"N0000000986","geometry":{"type":"Point","coordinates":[120.58075606115881,23.895716502491577]},"properties":{"code":"N0000000986","name":"臺鐵社頭車站","alternate_name":"臺鐵社頭站","address":"彰化縣社頭鄉廣興村社站路10號","telephone":"04-8711646","updated_yyyymm":"202210","railway_system":"臺鐵","_featureId":"N0000000986","countyCodes":["10007"]}},{"type":"Feature","id":"N0000001065","geometry":{"type":"Point","coordinates":[120.57171266506967,23.927998763842417]},"properties":{"code":"N0000001065","name":"臺鐵永靖車站","alternate_name":"臺鐵永靖站","address":"彰化縣永靖鄉崙子村永崙路25號","telephone":"04-8320544","updated_yyyymm":"201811","railway_system":"臺鐵","_featureId":"N0000001065","countyCodes":["10007"]}},{"type":"Feature","id":"N0000004199","geometry":{"type":"Point","coordinates":[120.56974730600174,23.959363571657136]},"properties":{"code":"N0000004199","name":"臺鐵員林車站","alternate_name":"臺鐵員林站","address":"彰化縣員林市民權街55號","telephone":"04-8320544","updated_yyyymm":"201811","railway_system":"臺鐵","_featureId":"N0000004199","countyCodes":["10007"]}},{"type":"Feature","id":"N0000002675","geometry":{"type":"Point","coordinates":[120.56065322497233,23.990056576291245]},"properties":{"code":"N0000002675","name":"臺鐵大村車站","alternate_name":"臺鐵大村站","address":"彰化縣大村鄉過溝村福進路100號","telephone":"04-8525148","updated_yyyymm":"201811","railway_system":"臺鐵","_featureId":"N0000002675","countyCodes":["10007"]}},{"type":"Feature","id":"N0000001724","geometry":{"type":"Point","coordinates":[120.53739352706174,24.025012081302375]},"properties":{"code":"N0000001724","name":"臺鐵花壇車站","alternate_name":"臺鐵花壇站","address":"彰化縣花壇鄉中正路370號","telephone":"04-7881418","updated_yyyymm":"201810","railway_system":"臺鐵","_featureId":"N0000001724","countyCodes":["10007"]}},{"type":"Feature","id":"N0000006564","geometry":{"type":"Point","coordinates":[120.53846557013583,24.081606735041678]},"properties":{"code":"N0000006564","name":"臺鐵彰化車站","alternate_name":"臺鐵彰化站","address":"彰化縣彰化市三民路1號","telephone":"04-7274218","updated_yyyymm":"202101","railway_system":"臺鐵","_featureId":"N0000006564","countyCodes":["10007"]}},{"type":"Feature","id":"F0000015375","geometry":{"type":"Point","coordinates":[121.35518966095913,24.95453055939879]},"properties":{"code":"F0000015375","name":"臺鐵鶯歌車站","alternate_name":"臺鐵鶯歌站","address":"新北市鶯歌區東鶯里文化路68之1號","telephone":"02-26792004","updated_yyyymm":"202201","railway_system":"臺鐵","_featureId":"F0000015375","countyCodes":["65000"]}},{"type":"Feature","id":"F0000019357","geometry":{"type":"Point","coordinates":[121.33659671192649,24.9726389190736]},"properties":{"code":"F0000019357","name":"臺鐵鳳鳴車站","alternate_name":"臺鐵鳳鳴站","address":"","telephone":"","updated_yyyymm":"202506","railway_system":"臺鐵","_featureId":"F0000019357","countyCodes":["65000"]}},{"type":"Feature","id":"F0000013874","geometry":{"type":"Point","coordinates":[121.39258275351288,24.972680846058374]},"properties":{"code":"F0000013874","name":"臺鐵山佳車站","alternate_name":"臺鐵山佳站","address":"新北市樹林區中山里中山路三段108號","telephone":"02-26808874","updated_yyyymm":"202401","railway_system":"臺鐵","_featureId":"F0000013874","countyCodes":["65000"]}},{"type":"Feature","id":"F0000008689","geometry":{"type":"Point","coordinates":[121.40883951389084,24.980513383445025]},"properties":{"code":"F0000008689","name":"臺鐵南樹林車站","alternate_name":"臺鐵南樹林站","address":"新北市樹林區中山里中山路二段230號","telephone":"02-23815226分機4403、02-26812052","updated_yyyymm":"202201","railway_system":"臺鐵","_featureId":"F0000008689","countyCodes":["65000"]}},{"type":"Feature","id":"F0000015681","geometry":{"type":"Point","coordinates":[121.42478153818777,24.991284445787638]},"properties":{"code":"F0000015681","name":"臺鐵樹林車站","alternate_name":"臺鐵樹林站","address":"新北市樹林區樹北里鎮前街112號","telephone":"02-26812052","updated_yyyymm":"202201","railway_system":"臺鐵","_featureId":"F0000015681","countyCodes":["65000"]}},{"type":"Feature","id":"F0000007486","geometry":{"type":"Point","coordinates":[121.44465936827612,25.004211646302334]},"properties":{"code":"F0000007486","name":"臺鐵浮洲車站","alternate_name":"臺鐵浮洲站","address":"新北市板橋區僑中二街156號","telephone":"02-23815226#4665","updated_yyyymm":"201904","railway_system":"臺鐵","_featureId":"F0000007486","countyCodes":["65000"]}},{"type":"Feature","id":"F0000013910","geometry":{"type":"Point","coordinates":[121.4642265828728,25.014228188819743]},"properties":{"code":"F0000013910","name":"臺鐵板橋車站","alternate_name":"臺鐵板橋站","address":"新北市板橋區縣民大道二段7號","telephone":"02-89691036","updated_yyyymm":"201911","railway_system":"臺鐵","_featureId":"F0000013910","countyCodes":["65000"]}},{"type":"Feature","id":"F0000008937","geometry":{"type":"Point","coordinates":[121.6466875768668,25.06257288388627]},"properties":{"code":"F0000008937","name":"臺鐵汐科車站","alternate_name":"臺鐵汐科站","address":"新北市汐止區大同路二段182號","telephone":"02-23815226#8730","updated_yyyymm":"202201","railway_system":"臺鐵","_featureId":"F0000008937","countyCodes":["65000"]}},{"type":"Feature","id":"F0000003616","geometry":{"type":"Point","coordinates":[121.66202964942391,25.06854002844996]},"properties":{"code":"F0000003616","name":"臺鐵汐止車站","alternate_name":"臺鐵汐止站","address":"新北市汐止區信望里信義路1號","telephone":"02-26415096","updated_yyyymm":"201904","railway_system":"臺鐵","_featureId":"F0000003616","countyCodes":["65000"]}},{"type":"Feature","id":"F0000003644","geometry":{"type":"Point","coordinates":[121.66763004818543,25.077887054089928]},"properties":{"code":"F0000003644","name":"臺鐵五堵車站","alternate_name":"臺鐵五堵站","address":"新北市汐止區長安里長安路17號","telephone":"02-86476200","updated_yyyymm":"201904","railway_system":"臺鐵","_featureId":"F0000003644","countyCodes":["65000"]}},{"type":"Feature","id":"F0000004536","geometry":{"type":"Point","coordinates":[121.9446932225597,25.015911353485016]},"properties":{"code":"F0000004536","name":"臺鐵福隆車站","alternate_name":"臺鐵福隆站","address":"新北市貢寮區福隆里福隆街2號","telephone":"02-24991800","updated_yyyymm":"202201","railway_system":"臺鐵","_featureId":"F0000004536","countyCodes":["65000"]}},{"type":"Feature","id":"F0000004551","geometry":{"type":"Point","coordinates":[121.90871825093686,25.022007804182977]},"properties":{"code":"F0000004551","name":"臺鐵貢寮車站","alternate_name":"臺鐵貢寮站","address":"新北市貢寮區貢寮里朝陽街33號","telephone":"02-24941500","updated_yyyymm":"202201","railway_system":"臺鐵","_featureId":"F0000004551","countyCodes":["65000"]}},{"type":"Feature","id":"F0000007321","geometry":{"type":"Point","coordinates":[121.74001640431709,25.025567331774386]},"properties":{"code":"F0000007321","name":"臺鐵平溪車站","alternate_name":"臺鐵平溪站","address":"新北市平溪區中華街12號","telephone":"02-24972033","updated_yyyymm":"201904","railway_system":"臺鐵","_featureId":"F0000007321","countyCodes":["65000"]}},{"type":"Feature","id":"F0000015162","geometry":{"type":"Point","coordinates":[121.7479952688095,25.030151587674027]},"properties":{"code":"F0000015162","name":"臺鐵嶺腳車站","alternate_name":"臺鐵嶺腳站","address":"新北市平溪區嶺腳街22號","telephone":"02-24972033","updated_yyyymm":"202001","railway_system":"臺鐵","_featureId":"F0000015162","countyCodes":["65000"]}},{"type":"Feature","id":"F0000015132","geometry":{"type":"Point","coordinates":[121.76380690411108,25.034577364365255]},"properties":{"code":"F0000015132","name":"臺鐵望古車站","alternate_name":"臺鐵望古站","address":"新北市平溪區(無站房)","telephone":"02-24972033","updated_yyyymm":"202001","railway_system":"臺鐵","_featureId":"F0000015132","countyCodes":["65000"]}},{"type":"Feature","id":"F0000004573","geometry":{"type":"Point","coordinates":[121.8665285286868,25.038588042409188]},"properties":{"code":"F0000004573","name":"臺鐵雙溪車站","alternate_name":"臺鐵雙溪站","address":"新北市雙溪區新基里朝陽街1號","telephone":"02-24932980","updated_yyyymm":"202201","railway_system":"臺鐵","_featureId":"F0000004573","countyCodes":["65000"]}},{"type":"Feature","id":"F0000007326","geometry":{"type":"Point","coordinates":[121.77503308882453,25.041005824764667]},"properties":{"code":"F0000007326","name":"臺鐵十分車站","alternate_name":"臺鐵十分站","address":"新北市平溪區十分街51號","telephone":"02-24958307","updated_yyyymm":"202201","railway_system":"臺鐵","_featureId":"F0000007326","countyCodes":["65000"]}},{"type":"Feature","id":"F0000009196","geometry":{"type":"Point","coordinates":[121.7975921857905,25.049818910833224]},"properties":{"code":"F0000009196","name":"臺鐵大華車站","alternate_name":"臺鐵大華站","address":"新北市平溪區六分路12之1號","telephone":"02-24972033","updated_yyyymm":"202001","railway_system":"臺鐵","_featureId":"F0000009196","countyCodes":["65000"]}},{"type":"Feature","id":"F0000009199","geometry":{"type":"Point","coordinates":[121.85200442280896,25.05870058981639]},"properties":{"code":"F0000009199","name":"臺鐵牡丹車站","alternate_name":"臺鐵牡丹站","address":"新北市雙溪區牡丹里16鄰牡丹路159號","telephone":"02-24932980","updated_yyyymm":"202201","railway_system":"臺鐵","_featureId":"F0000009199","countyCodes":["65000"]}},{"type":"Feature","id":"F0000015142","geometry":{"type":"Point","coordinates":[121.82253676417811,25.06552659965305]},"properties":{"code":"F0000015142","name":"臺鐵三貂嶺車站","alternate_name":"臺鐵三貂嶺站","address":"新北市瑞芳區碩仁里魚寮路1號","telephone":"02-24977896","updated_yyyymm":"202001","railway_system":"臺鐵","_featureId":"F0000015142","countyCodes":["65000"]}},{"type":"Feature","id":"F0000015149","geometry":{"type":"Point","coordinates":[121.82749681022212,25.086834710911422]},"properties":{"code":"F0000015149","name":"臺鐵猴硐車站","alternate_name":"臺鐵猴硐站","address":"新北市瑞芳區光復里柴寮路70號","telephone":"02-24977747","updated_yyyymm":"202201","railway_system":"臺鐵","_featureId":"F0000015149","countyCodes":["65000"]}},{"type":"Feature","id":"F0000007338","geometry":{"type":"Point","coordinates":[121.76191992920084,25.10278478222211]},"properties":{"code":"F0000007338","name":"臺鐵四腳亭車站","alternate_name":"臺鐵四腳亭站","address":"新北市瑞芳區吉慶里中央路65號","telephone":"02-24579346","updated_yyyymm":"202201","railway_system":"臺鐵","_featureId":"F0000007338","countyCodes":["65000"]}},{"type":"Feature","id":"F0000015154","geometry":{"type":"Point","coordinates":[121.80609234450033,25.108692835047336]},"properties":{"code":"F0000015154","name":"臺鐵瑞芳車站","alternate_name":"臺鐵瑞芳站","address":"新北市瑞芳區龍潭里明燈路三段82號","telephone":"02-24972033","updated_yyyymm":"202001","railway_system":"臺鐵","_featureId":"F0000015154","countyCodes":["65000"]}},{"type":"Feature","id":"F0000019432","geometry":{"type":"Point","coordinates":[121.72393033586243,25.023869558031215]},"properties":{"code":"F0000019432","name":"臺鐵菁桐車站","alternate_name":"臺鐵菁桐站","address":"新北市平溪區菁桐街52號","telephone":"02-24972033","updated_yyyymm":"202511","railway_system":"臺鐵","_featureId":"F0000019432","countyCodes":["65000"]}},{"type":"Feature","id":"O0000000052","geometry":{"type":"Point","coordinates":[120.91391414314096,24.763119912837876]},"properties":{"code":"O0000000052","name":"臺鐵香山車站","alternate_name":"臺鐵香山站","address":"新竹市香山區朝山里中華路五段347巷2弄27號","telephone":"03-5237441","updated_yyyymm":"202201","railway_system":"臺鐵","_featureId":"O0000000052","countyCodes":["10018"]}},{"type":"Feature","id":"O0000001271","geometry":{"type":"Point","coordinates":[120.92849027813601,24.78728321834667]},"properties":{"code":"O0000001271","name":"臺鐵三姓橋車站","alternate_name":"臺鐵三姓橋站","address":"新竹市香山區元培街32巷30號","telephone":"03-5237441","updated_yyyymm":"202201","railway_system":"臺鐵","_featureId":"O0000001271","countyCodes":["10018"]}},{"type":"Feature","id":"O0000000601","geometry":{"type":"Point","coordinates":[120.97163059255769,24.80152154052093]},"properties":{"code":"O0000000601","name":"臺鐵新竹車站","alternate_name":"臺鐵新竹站","address":"新竹市東區榮光里中華路二段445號","telephone":"03-5237441","updated_yyyymm":"202201","railway_system":"臺鐵","_featureId":"O0000000601","countyCodes":["10018"]}},{"type":"Feature","id":"O0000000286","geometry":{"type":"Point","coordinates":[121.02200884582359,24.78814614438557]},"properties":{"code":"O0000000286","name":"臺鐵新莊車站","alternate_name":"臺鐵新莊站","address":"新竹市東區新莊里關東路310號","telephone":"03-5237441","updated_yyyymm":"202201","railway_system":"臺鐵","_featureId":"O0000000286","countyCodes":["10018"]}},{"type":"Feature","id":"O0000000805","geometry":{"type":"Point","coordinates":[121.00347355193168,24.806657275814892]},"properties":{"code":"O0000000805","name":"臺鐵千甲車站","alternate_name":"臺鐵千甲站","address":"新竹市東區水源里千甲路142號","telephone":"03-5237441","updated_yyyymm":"201311","railway_system":"臺鐵","_featureId":"O0000000805","countyCodes":["10018"]}},{"type":"Feature","id":"O0000000872","geometry":{"type":"Point","coordinates":[120.98380767419579,24.80861645296579]},"properties":{"code":"O0000000872","name":"臺鐵北新竹車站","alternate_name":"臺鐵北新竹站","address":"新竹市東區中華路一段291之2號","telephone":"03-5237441","updated_yyyymm":"201311","railway_system":"臺鐵","_featureId":"O0000000872","countyCodes":["10018"]}},{"type":"Feature","id":"J0000001195","geometry":{"type":"Point","coordinates":[121.18252701958525,24.705360375010894]},"properties":{"code":"J0000001195","name":"臺鐵內灣車站","alternate_name":"臺鐵內灣站","address":"新竹縣橫山鄉中正路6號","telephone":"03-5962042","updated_yyyymm":"202001","railway_system":"臺鐵","_featureId":"J0000001195","countyCodes":["10004"]}},{"type":"Feature","id":"J0000001200","geometry":{"type":"Point","coordinates":[121.16741672234645,24.7155077877223]},"properties":{"code":"J0000001200","name":"臺鐵富貴車站","alternate_name":"臺鐵富貴站","address":"新竹縣橫山鄉(無站房)","telephone":"03-5962042","updated_yyyymm":"202001","railway_system":"臺鐵","_featureId":"J0000001200","countyCodes":["10004"]}},{"type":"Feature","id":"J0000001202","geometry":{"type":"Point","coordinates":[121.15447674841745,24.716646628835107]},"properties":{"code":"J0000001202","name":"臺鐵合興車站","alternate_name":"臺鐵合興站","address":"新竹縣橫山鄉中山街一段17號","telephone":"03-5962042","updated_yyyymm":"202112","railway_system":"臺鐵","_featureId":"J0000001202","countyCodes":["10004"]}},{"type":"Feature","id":"J0000001210","geometry":{"type":"Point","coordinates":[121.11767570701949,24.7204123352613]},"properties":{"code":"J0000001210","name":"臺鐵橫山車站","alternate_name":"臺鐵橫山站","address":"新竹縣橫山鄉橫山村橫山路97號(無站房)","telephone":"03-5962042","updated_yyyymm":"202001","railway_system":"臺鐵","_featureId":"J0000001210","countyCodes":["10004"]}},{"type":"Feature","id":"J0000001211","geometry":{"type":"Point","coordinates":[121.13623745004162,24.720629032540646]},"properties":{"code":"J0000001211","name":"臺鐵九讚頭車站","alternate_name":"臺鐵九讚頭站","address":"新竹縣橫山鄉中豐路二段286巷29號","telephone":"03-5962042","updated_yyyymm":"202001","railway_system":"臺鐵","_featureId":"J0000001211","countyCodes":["10004"]}},{"type":"Feature","id":"J0000016078","geometry":{"type":"Point","coordinates":[121.0946959386017,24.73821389072453]},"properties":{"code":"J0000016078","name":"臺鐵竹東車站","alternate_name":"臺鐵竹東站","address":"新竹縣竹東鎮雞林里東林路196號","telephone":"03-5962042","updated_yyyymm":"202112","railway_system":"臺鐵","_featureId":"J0000016078","countyCodes":["10004"]}},{"type":"Feature","id":"J0000016092","geometry":{"type":"Point","coordinates":[121.08325440449495,24.748348123137063]},"properties":{"code":"J0000016092","name":"臺鐵榮華車站","alternate_name":"臺鐵榮華站","address":"新竹縣竹東鎮仁愛里北興路(無站房)","telephone":"03-5962042","updated_yyyymm":"202112","railway_system":"臺鐵","_featureId":"J0000016092","countyCodes":["10004"]}},{"type":"Feature","id":"J0000016118","geometry":{"type":"Point","coordinates":[121.05578921878475,24.777765794602637]},"properties":{"code":"J0000016118","name":"臺鐵上員車站","alternate_name":"臺鐵上員站","address":"新竹縣竹東鎮上員里光明路(無站房)","telephone":"03-5962042","updated_yyyymm":"202112","railway_system":"臺鐵","_featureId":"J0000016118","countyCodes":["10004"]}},{"type":"Feature","id":"J0000016129","geometry":{"type":"Point","coordinates":[121.03137984889948,24.781680046871426]},"properties":{"code":"J0000016129","name":"臺鐵竹中車站","alternate_name":"臺鐵竹中站","address":"新竹縣竹東鎮頭重里竹中路145號","telephone":"03-5962042","updated_yyyymm":"202112","railway_system":"臺鐵","_featureId":"J0000016129","countyCodes":["10004"]}},{"type":"Feature","id":"J0000002080","geometry":{"type":"Point","coordinates":[121.03933004838893,24.807568090569408]},"properties":{"code":"J0000002080","name":"臺鐵六家車站","alternate_name":"臺鐵六家站","address":"新竹縣竹北市復興三路二段229號","telephone":"03-5962042","updated_yyyymm":"202112","railway_system":"臺鐵","_featureId":"J0000002080","countyCodes":["10004"]}},{"type":"Feature","id":"J0000000591","geometry":{"type":"Point","coordinates":[121.00946256234376,24.839116430244054]},"properties":{"code":"J0000000591","name":"臺鐵竹北車站","alternate_name":"臺鐵竹北站","address":"新竹縣竹北市福德里和平街59號","telephone":"03-5552024","updated_yyyymm":"202112","railway_system":"臺鐵","_featureId":"J0000000591","countyCodes":["10004"]}},{"type":"Feature","id":"J0000015789","geometry":{"type":"Point","coordinates":[120.99688497647443,24.869800110445336]},"properties":{"code":"J0000015789","name":"臺鐵新豐車站","alternate_name":"臺鐵新豐站","address":"新竹縣新豐鄉員山村新興路202號","telephone":"03-5596314","updated_yyyymm":"202112","railway_system":"臺鐵","_featureId":"J0000015789","countyCodes":["10004"]}},{"type":"Feature","id":"J0000000993","geometry":{"type":"Point","coordinates":[121.04403470266145,24.90289563091091]},"properties":{"code":"J0000000993","name":"臺鐵湖口車站","alternate_name":"臺鐵湖口站","address":"新竹縣湖口鄉仁勢村中山路二段121號","telephone":"03-5992192","updated_yyyymm":"202112","railway_system":"臺鐵","_featureId":"J0000000993","countyCodes":["10004"]}},{"type":"Feature","id":"J0000004481","geometry":{"type":"Point","coordinates":[121.05592752591595,24.922143710142258]},"properties":{"code":"J0000004481","name":"臺鐵北湖車站","alternate_name":"臺鐵北湖站","address":"新竹縣湖口鄉東興村北湖路1號","telephone":"03-5993850","updated_yyyymm":"201907","railway_system":"臺鐵","_featureId":"J0000004481","countyCodes":["10004"]}},{"type":"Feature","id":"H0000000903","geometry":{"type":"Point","coordinates":[121.14619929522692,24.914017542248903]},"properties":{"code":"H0000000903","name":"臺鐵楊梅車站","alternate_name":"臺鐵楊梅站","address":"桃園市楊梅區楊梅里大成路256號","telephone":"03-4782893","updated_yyyymm":"201311","railway_system":"臺鐵","_featureId":"H0000000903","countyCodes":["68000"]}},{"type":"Feature","id":"H0000000970","geometry":{"type":"Point","coordinates":[121.18370100240284,24.91948164303972]},"properties":{"code":"H0000000970","name":"臺鐵埔心車站","alternate_name":"臺鐵埔心站","address":"桃園市楊梅區埔心里永美路208號","telephone":"03-4827100","updated_yyyymm":"201311","railway_system":"臺鐵","_featureId":"H0000000970","countyCodes":["68000"]}},{"type":"Feature","id":"H0000009094","geometry":{"type":"Point","coordinates":[121.0678009892509,24.931193794984495]},"properties":{"code":"H0000009094","name":"臺鐵新富車站","alternate_name":"臺鐵新富站","address":"桃園市楊梅區富豐里富全街1號","telephone":"03-4723754","updated_yyyymm":"202112","railway_system":"臺鐵","_featureId":"H0000009094","countyCodes":["68000"]}},{"type":"Feature","id":"H0000001189","geometry":{"type":"Point","coordinates":[121.08308723808585,24.93438306245301]},"properties":{"code":"H0000001189","name":"臺鐵富岡車站","alternate_name":"臺鐵富岡站","address":"桃園市楊梅區富岡里成功路37號","telephone":"03-4723754","updated_yyyymm":"202112","railway_system":"臺鐵","_featureId":"H0000001189","countyCodes":["68000"]}},{"type":"Feature","id":"H0000008975","geometry":{"type":"Point","coordinates":[121.22516848395449,24.952804783013363]},"properties":{"code":"H0000008975","name":"臺鐵中壢車站(後站)","alternate_name":"臺鐵中壢站(後站)","address":"桃園市中壢區東興里新興路99號","telephone":"03-4223235","updated_yyyymm":"202112","railway_system":"臺鐵","_featureId":"H0000008975","countyCodes":["68000"]}},{"type":"Feature","id":"H0000011889","geometry":{"type":"Point","coordinates":[121.22495576329558,24.953345354487187]},"properties":{"code":"H0000011889","name":"臺鐵中壢臨時車站(前站)","alternate_name":"臺鐵中壢臨時站(前站)","address":"","telephone":"","updated_yyyymm":"202401","railway_system":"臺鐵","_featureId":"H0000011889","countyCodes":["68000"]}},{"type":"Feature","id":"H0000009442","geometry":{"type":"Point","coordinates":[121.22572625969704,24.95373719494219]},"properties":{"code":"H0000009442","name":"臺鐵中壢車站(前站)(興建中)","alternate_name":"臺鐵中壢站(前站)(興建中)","address":"桃園市中壢區石頭里中和路139號","telephone":"03-4223235","updated_yyyymm":"202401","railway_system":"臺鐵","_featureId":"H0000009442","countyCodes":["68000"]}},{"type":"Feature","id":"H0000002406","geometry":{"type":"Point","coordinates":[121.25828411839177,24.97277439802619]},"properties":{"code":"H0000002406","name":"臺鐵內壢車站","alternate_name":"臺鐵內壢站","address":"桃園市中壢區中原里中華路一段267號","telephone":"03-4559725","updated_yyyymm":"201311","railway_system":"臺鐵","_featureId":"H0000002406","countyCodes":["68000"]}},{"type":"Feature","id":"H0000008957","geometry":{"type":"Point","coordinates":[121.3144557196486,24.988791480747878]},"properties":{"code":"H0000008957","name":"臺鐵桃園車站","alternate_name":"臺鐵桃園站","address":"桃園市桃園區武陵里中正路1號","telephone":"03-3767050","updated_yyyymm":"202008","railway_system":"臺鐵","_featureId":"H0000008957","countyCodes":["68000"]}},{"type":"Feature","id":"A0000013083","geometry":{"type":"Point","coordinates":[121.50017524954905,25.0333357392679]},"properties":{"code":"A0000013083","name":"臺鐵萬華車站","alternate_name":"臺鐵萬華站","address":"臺北市萬華區富福里康定路382號","telephone":"02-23020481","updated_yyyymm":"202202","railway_system":"臺鐵","_featureId":"A0000013083","countyCodes":["63000"]}},{"type":"Feature","id":"A0000002544","geometry":{"type":"Point","coordinates":[121.51677622094967,25.047416461350494]},"properties":{"code":"A0000002544","name":"臺鐵臺北車站","alternate_name":"臺鐵臺北站","address":"臺北市中正區黎明里北平西路3號","telephone":"02-23713558","updated_yyyymm":"202001","railway_system":"臺鐵","_featureId":"A0000002544","countyCodes":["63000"]}},{"type":"Feature","id":"A0000012887","geometry":{"type":"Point","coordinates":[121.57836855870354,25.04916485595466]},"properties":{"code":"A0000012887","name":"臺鐵松山車站","alternate_name":"臺鐵松山站","address":"臺北市信義區永吉里松山路11號B1","telephone":"02-27673819","updated_yyyymm":"202001","railway_system":"臺鐵","_featureId":"A0000012887","countyCodes":["63000"]}},{"type":"Feature","id":"A0000003480","geometry":{"type":"Point","coordinates":[121.60707200117086,25.053401556641465]},"properties":{"code":"A0000003480","name":"臺鐵南港車站","alternate_name":"臺鐵南港站","address":"臺北市南港區南港里南港路一段313號","telephone":"02-27838645","updated_yyyymm":"201311","railway_system":"臺鐵","_featureId":"A0000003480","countyCodes":["63000"]}},{"type":"Feature","id":"K0000000385","geometry":{"type":"Point","coordinates":[120.78618410747549,24.48640042939351]},"properties":{"code":"K0000000385","name":"臺鐵銅鑼車站","alternate_name":"臺鐵銅鑼站","address":"苗栗縣銅鑼鄉銅鑼村大同路13號","telephone":"037-983838","updated_yyyymm":"201905","railway_system":"臺鐵","_featureId":"K0000000385","countyCodes":["10005"]}},{"type":"Feature","id":"K0000000560","geometry":{"type":"Point","coordinates":[120.79151156296221,24.522506590618182]},"properties":{"code":"K0000000560","name":"臺鐵南勢車站","alternate_name":"臺鐵南勢站","address":"苗栗縣苗栗市新英里南勢39號","telephone":"037-260031","updated_yyyymm":"201908","railway_system":"臺鐵","_featureId":"K0000000560","countyCodes":["10005"]}},{"type":"Feature","id":"K0000000990","geometry":{"type":"Point","coordinates":[120.82242525220802,24.569983713645428]},"properties":{"code":"K0000000990","name":"臺鐵苗栗車站","alternate_name":"臺鐵苗栗站","address":"苗栗縣苗栗市上苗里為公路1號","telephone":"037-260031","updated_yyyymm":"201908","railway_system":"臺鐵","_featureId":"K0000000990","countyCodes":["10005"]}},{"type":"Feature","id":"K0000003407","geometry":{"type":"Point","coordinates":[120.82635325606373,24.604267715156297]},"properties":{"code":"K0000003407","name":"臺鐵豐富車站","alternate_name":"臺鐵豐富站","address":"苗栗縣後龍鎮校椅里高鐵一路66號","telephone":"037-726700","updated_yyyymm":"202109","railway_system":"臺鐵","_featureId":"K0000003407","countyCodes":["10005"]}},{"type":"Feature","id":"K0000001323","geometry":{"type":"Point","coordinates":[120.78709211846609,24.616041758206396]},"properties":{"code":"K0000001323","name":"臺鐵後龍車站","alternate_name":"臺鐵後龍站","address":"苗栗縣後龍鎮北龍里車站街127之2號","telephone":"037-728616","updated_yyyymm":"201905","railway_system":"臺鐵","_featureId":"K0000001323","countyCodes":["10005"]}},{"type":"Feature","id":"K0000000167","geometry":{"type":"Point","coordinates":[120.77398634151825,24.420630565689837]},"properties":{"code":"K0000000167","name":"臺鐵三義車站","alternate_name":"臺鐵三義站","address":"苗栗縣三義鄉雙湖村雙湖90號","telephone":"037-874763","updated_yyyymm":"202109","railway_system":"臺鐵","_featureId":"K0000000167","countyCodes":["10005"]}},{"type":"Feature","id":"K0000003046","geometry":{"type":"Point","coordinates":[120.6514147282005,24.443370320867704]},"properties":{"code":"K0000003046","name":"臺鐵苑裡車站","alternate_name":"臺鐵苑裡站","address":"苗栗縣苑裡鎮苑北里中山路165號","telephone":"037-851013","updated_yyyymm":"201908","railway_system":"臺鐵","_featureId":"K0000003046","countyCodes":["10005"]}},{"type":"Feature","id":"K0000000445","geometry":{"type":"Point","coordinates":[120.6784178865112,24.49141109662724]},"properties":{"code":"K0000000445","name":"臺鐵通霄車站","alternate_name":"臺鐵通霄站","address":"苗栗縣通霄鎮通西里中正路109號","telephone":"037-758300","updated_yyyymm":"201908","railway_system":"臺鐵","_featureId":"K0000000445","countyCodes":["10005"]}},{"type":"Feature","id":"K0000000653","geometry":{"type":"Point","coordinates":[120.69520831211199,24.540167322441537]},"properties":{"code":"K0000000653","name":"臺鐵新埔車站","alternate_name":"臺鐵新埔站","address":"苗栗縣通霄鎮新埔里新埔57號","telephone":"037-793066","updated_yyyymm":"201908","railway_system":"臺鐵","_featureId":"K0000000653","countyCodes":["10005"]}},{"type":"Feature","id":"K0000000928","geometry":{"type":"Point","coordinates":[120.70819060199251,24.564826498697606]},"properties":{"code":"K0000000928","name":"臺鐵白沙屯車站","alternate_name":"臺鐵白沙屯站","address":"苗栗縣通霄鎮白西里白西131號","telephone":"037-793066","updated_yyyymm":"201908","railway_system":"臺鐵","_featureId":"K0000000928","countyCodes":["10005"]}},{"type":"Feature","id":"K0000001269","geometry":{"type":"Point","coordinates":[120.75818160143406,24.611671256740475]},"properties":{"code":"K0000001269","name":"臺鐵龍港車站","alternate_name":"臺鐵龍港站","address":"苗栗縣後龍鎮龍京里公司寮85號","telephone":"037-728616","updated_yyyymm":"201905","railway_system":"臺鐵","_featureId":"K0000001269","countyCodes":["10005"]}},{"type":"Feature","id":"K0000001422","geometry":{"type":"Point","coordinates":[120.86724602755375,24.641888267331236]},"properties":{"code":"K0000001422","name":"臺鐵造橋車站","alternate_name":"臺鐵造橋站","address":"苗栗縣造橋鄉造橋村平仁路54號","telephone":"037-472030","updated_yyyymm":"202109","railway_system":"臺鐵","_featureId":"K0000001422","countyCodes":["10005"]}},{"type":"Feature","id":"K0000001437","geometry":{"type":"Point","coordinates":[120.80377807105188,24.645674452990292]},"properties":{"code":"K0000001437","name":"臺鐵大山車站","alternate_name":"臺鐵大山站","address":"苗栗縣後龍鎮大山里明山路180號","telephone":"037-728616","updated_yyyymm":"202001","railway_system":"臺鐵","_featureId":"K0000001437","countyCodes":["10005"]}},{"type":"Feature","id":"K0000003491","geometry":{"type":"Point","coordinates":[120.85849690789226,24.656546985044344]},"properties":{"code":"K0000003491","name":"臺鐵談文車站","alternate_name":"臺鐵談文站","address":"苗栗縣造橋鄉談文村仁愛路29號","telephone":"037-472030","updated_yyyymm":"202109","railway_system":"臺鐵","_featureId":"K0000003491","countyCodes":["10005"]}},{"type":"Feature","id":"K0000001703","geometry":{"type":"Point","coordinates":[120.88041912872174,24.68652691476377]},"properties":{"code":"K0000001703","name":"臺鐵竹南車站","alternate_name":"臺鐵竹南站","address":"苗栗縣竹南鎮竹南里中山路166號","telephone":"037-472030","updated_yyyymm":"201905","railway_system":"臺鐵","_featureId":"K0000001703","countyCodes":["10005"]}},{"type":"Feature","id":"K0000003651","geometry":{"type":"Point","coordinates":[120.87176257735705,24.722987412791635]},"properties":{"code":"K0000003651","name":"臺鐵崎頂車站","alternate_name":"臺鐵崎頂站","address":"苗栗縣竹南鎮崎頂里北戶55號","telephone":"037-472030","updated_yyyymm":"202001","railway_system":"臺鐵","_featureId":"K0000003651","countyCodes":["10005"]}},{"type":"Feature","id":"P0000001072","geometry":{"type":"Point","coordinates":[120.5412226455511,23.71165982921424]},"properties":{"code":"P0000001072","name":"臺鐵斗六車站","alternate_name":"臺鐵斗六站","address":"雲林縣斗六市信義里民生路187號","telephone":"931041917","updated_yyyymm":"202003","railway_system":"臺鐵","_featureId":"P0000001072","countyCodes":["10009"]}},{"type":"Feature","id":"P0000001176","geometry":{"type":"Point","coordinates":[120.58000354709226,23.731652309935114]},"properties":{"code":"P0000001176","name":"臺鐵石榴車站","alternate_name":"臺鐵石榴站","address":"雲林縣斗六市榴北里文明路26號","telephone":"05-5332900","updated_yyyymm":"201810","railway_system":"臺鐵","_featureId":"P0000001176","countyCodes":["10009"]}},{"type":"Feature","id":"P0000000093","geometry":{"type":"Point","coordinates":[120.61497624453594,23.759713296235066]},"properties":{"code":"P0000000093","name":"臺鐵林內車站","alternate_name":"臺鐵林內站","address":"雲林縣林內鄉中山路42號","telephone":"05-5892040","updated_yyyymm":"201810","railway_system":"臺鐵","_featureId":"P0000000093","countyCodes":["10009"]}},{"type":"Feature","id":"P0000000401","geometry":{"type":"Point","coordinates":[120.47103474003302,23.639525285821502]},"properties":{"code":"P0000000401","name":"臺鐵石龜車站","alternate_name":"臺鐵石龜站","address":"雲林縣斗南鎮石溪里","telephone":"05-5972039","updated_yyyymm":"202212","railway_system":"臺鐵","_featureId":"P0000000401","countyCodes":["10009"]}},{"type":"Feature","id":"P0000004708","geometry":{"type":"Point","coordinates":[120.48061090087907,23.67261032741845]},"properties":{"code":"P0000004708","name":"臺鐵斗南車站","alternate_name":"臺鐵斗南站","address":"雲林縣斗南鎮南昌里中山路2號","telephone":"05-5972039","updated_yyyymm":"202012","railway_system":"臺鐵","_featureId":"P0000004708","countyCodes":["10009"]}},{"type":"Feature","id":"B0000001360","geometry":{"type":"Point","coordinates":[120.6224961943285,24.108691409553778]},"properties":{"code":"B0000001360","name":"臺鐵烏日車站","alternate_name":"臺鐵烏日站","address":"臺中市烏日區三民街258號","telephone":"04-23381071","updated_yyyymm":"201310","railway_system":"臺鐵","_featureId":"B0000001360","countyCodes":["66000"]}},{"type":"Feature","id":"B0000006988","geometry":{"type":"Point","coordinates":[120.61429094644382,24.10976582828605]},"properties":{"code":"B0000006988","name":"臺鐵新烏日車站","alternate_name":"臺鐵新烏日站","address":"臺中市烏日區高鐵東一路26號","telephone":"04-23376883","updated_yyyymm":"201710","railway_system":"臺鐵","_featureId":"B0000006988","countyCodes":["66000"]}},{"type":"Feature","id":"B0000000923","geometry":{"type":"Point","coordinates":[120.59017594333207,24.114286858854026]},"properties":{"code":"B0000000923","name":"臺鐵成功車站","alternate_name":"臺鐵成功站","address":"臺中市烏日區中山路三段550號","telephone":"04-23371986","updated_yyyymm":"201310","railway_system":"臺鐵","_featureId":"B0000000923","countyCodes":["66000"]}},{"type":"Feature","id":"B0000006989","geometry":{"type":"Point","coordinates":[120.64871856977514,24.119346544837367]},"properties":{"code":"B0000006989","name":"臺鐵大慶車站","alternate_name":"臺鐵大慶站","address":"臺中市南區大慶街二段130號","telephone":"04-22637940","updated_yyyymm":"201710","railway_system":"臺鐵","_featureId":"B0000006989","countyCodes":["66000"]}},{"type":"Feature","id":"B0000000702","geometry":{"type":"Point","coordinates":[120.57018457581641,24.120537041213765]},"properties":{"code":"B0000000702","name":"臺鐵追分車站","alternate_name":"臺鐵追分站","address":"臺中市大肚區追分街13號","telephone":"04-26933106","updated_yyyymm":"201310","railway_system":"臺鐵","_featureId":"B0000000702","countyCodes":["66000"]}},{"type":"Feature","id":"B0000006368","geometry":{"type":"Point","coordinates":[120.66668688077957,24.12874968111406]},"properties":{"code":"B0000006368","name":"臺鐵五權車站","alternate_name":"臺鐵五權站","address":"臺中市南區建國南路二段201號","telephone":"04-22601636","updated_yyyymm":"201809","railway_system":"臺鐵","_featureId":"B0000006368","countyCodes":["66000"]}},{"type":"Feature","id":"B0000009226","geometry":{"type":"Point","coordinates":[120.6869056560749,24.137081654808803]},"properties":{"code":"B0000009226","name":"臺鐵臺中車站","alternate_name":"臺鐵臺中站","address":"臺中市中區臺灣大道一段1號","telephone":"04-22216492","updated_yyyymm":"201709","railway_system":"臺鐵","_featureId":"B0000009226","countyCodes":["66000"]}},{"type":"Feature","id":"B0000006369","geometry":{"type":"Point","coordinates":[120.69785341341324,24.149284815665734]},"properties":{"code":"B0000006369","name":"臺鐵精武車站","alternate_name":"臺鐵精武站","address":"臺中市東區東光路161號","telephone":"04-2360650","updated_yyyymm":"201809","railway_system":"臺鐵","_featureId":"B0000006369","countyCodes":["66000"]}},{"type":"Feature","id":"B0000000408","geometry":{"type":"Point","coordinates":[120.54248337496509,24.15409676184548]},"properties":{"code":"B0000000408","name":"臺鐵大肚車站","alternate_name":"臺鐵大肚站","address":"臺中市大肚區平和街121號","telephone":"04-26992523","updated_yyyymm":"201310","railway_system":"臺鐵","_featureId":"B0000000408","countyCodes":["66000"]}},{"type":"Feature","id":"B0000006987","geometry":{"type":"Point","coordinates":[120.69994921695002,24.16437675985073]},"properties":{"code":"B0000006987","name":"臺鐵太原車站","alternate_name":"臺鐵太原站","address":"臺中市北屯區東光路665號","telephone":"04-22313926","updated_yyyymm":"201710","railway_system":"臺鐵","_featureId":"B0000006987","countyCodes":["66000"]}},{"type":"Feature","id":"B0000006990","geometry":{"type":"Point","coordinates":[120.702047852694,24.180096159439593]},"properties":{"code":"B0000006990","name":"臺鐵松竹車站","alternate_name":"臺鐵松竹站","address":"臺中市北屯區松竹路一段1473巷100號","telephone":"04-22473033","updated_yyyymm":"201809","railway_system":"臺鐵","_featureId":"B0000006990","countyCodes":["66000"]}},{"type":"Feature","id":"B0000006372","geometry":{"type":"Point","coordinates":[120.70403849016927,24.19547061253012]},"properties":{"code":"B0000006372","name":"臺鐵頭家厝車站","alternate_name":"臺鐵頭家厝站","address":"臺中市潭子區頭張東路43巷8號","telephone":"04-25391426","updated_yyyymm":"201809","railway_system":"臺鐵","_featureId":"B0000006372","countyCodes":["66000"]}},{"type":"Feature","id":"B0000000419","geometry":{"type":"Point","coordinates":[120.543350055225,24.197475296408097]},"properties":{"code":"B0000000419","name":"臺鐵龍井車站","alternate_name":"臺鐵龍井站","address":"臺中市龍井區龍新路1號","telephone":"04-26355578","updated_yyyymm":"201310","railway_system":"臺鐵","_featureId":"B0000000419","countyCodes":["66000"]}},{"type":"Feature","id":"B0000004956","geometry":{"type":"Point","coordinates":[120.70584217472835,24.212538520483296]},"properties":{"code":"B0000004956","name":"臺鐵潭子車站","alternate_name":"臺鐵潭子站","address":"臺中市潭子區中山路二段352-1號","telephone":"04-25363852","updated_yyyymm":"201308","railway_system":"臺鐵","_featureId":"B0000004956","countyCodes":["66000"]}},{"type":"Feature","id":"B0000006991","geometry":{"type":"Point","coordinates":[120.71065636215762,24.23458066566602]},"properties":{"code":"B0000006991","name":"臺鐵栗林車站","alternate_name":"臺鐵栗林站","address":"臺中市潭子區潭豐路二段747號","telephone":"04-25391401","updated_yyyymm":"201911","railway_system":"臺鐵","_featureId":"B0000006991","countyCodes":["66000"]}},{"type":"Feature","id":"B0000000540","geometry":{"type":"Point","coordinates":[120.55758497249627,24.23716690354774]},"properties":{"code":"B0000000540","name":"臺鐵沙鹿車站","alternate_name":"臺鐵沙鹿站","address":"臺中市沙鹿區中正街94號","telephone":"04-26625057","updated_yyyymm":"201308","railway_system":"臺鐵","_featureId":"B0000000540","countyCodes":["66000"]}},{"type":"Feature","id":"B0000011964","geometry":{"type":"Point","coordinates":[120.72351944722251,24.25422614776204]},"properties":{"code":"B0000011964","name":"臺鐵豐原車站","alternate_name":"臺鐵豐原站","address":"臺中市豐原區中正路1-1號","telephone":"04-25207950","updated_yyyymm":"201911","railway_system":"臺鐵","_featureId":"B0000011964","countyCodes":["66000"]}},{"type":"Feature","id":"B0000000694","geometry":{"type":"Point","coordinates":[120.56914619801503,24.263668846755923]},"properties":{"code":"B0000000694","name":"臺鐵清水車站","alternate_name":"臺鐵清水站","address":"臺中市清水區中正街115號","telephone":"04-26222021","updated_yyyymm":"201308","railway_system":"臺鐵","_featureId":"B0000000694","countyCodes":["66000"]}},{"type":"Feature","id":"B0000001024","geometry":{"type":"Point","coordinates":[120.60241011928906,24.3047273321948]},"properties":{"code":"B0000001024","name":"臺鐵臺中港車站","alternate_name":"臺鐵臺中港站","address":"臺中市清水區甲南路2號","telephone":"04-26225374","updated_yyyymm":"201310","railway_system":"臺鐵","_featureId":"B0000001024","countyCodes":["66000"]}},{"type":"Feature","id":"B0000005800","geometry":{"type":"Point","coordinates":[120.73309055762212,24.309283842874848]},"properties":{"code":"B0000005800","name":"臺鐵后里車站","alternate_name":"臺鐵后里站","address":"臺中市后里區甲后路一段1號","telephone":"04-25562038","updated_yyyymm":"201308","railway_system":"臺鐵","_featureId":"B0000005800","countyCodes":["66000"]}},{"type":"Feature","id":"B0000000171","geometry":{"type":"Point","coordinates":[120.74177689872566,24.331126110864194]},"properties":{"code":"B0000000171","name":"臺鐵泰安車站","alternate_name":"臺鐵泰安站","address":"臺中市后里區安眉路37-12號","telephone":"04-25562038","updated_yyyymm":"202312","railway_system":"臺鐵","_featureId":"B0000000171","countyCodes":["66000"]}},{"type":"Feature","id":"B0000001512","geometry":{"type":"Point","coordinates":[120.62707327457625,24.344402334248034]},"properties":{"code":"B0000001512","name":"臺鐵大甲車站","alternate_name":"臺鐵大甲站","address":"臺中市大甲區中山路一段828號","telephone":"04-26872022","updated_yyyymm":"201308","railway_system":"臺鐵","_featureId":"B0000001512","countyCodes":["66000"]}},{"type":"Feature","id":"B0000009227","geometry":{"type":"Point","coordinates":[120.65414903987964,24.378068136001573]},"properties":{"code":"B0000009227","name":"臺鐵日南車站","alternate_name":"臺鐵日南站","address":"臺中市大甲區中山路二段140巷8號","telephone":"04-26816113","updated_yyyymm":"201712","railway_system":"臺鐵","_featureId":"B0000009227","countyCodes":["66000"]}},{"type":"Feature","id":"D0000014103","geometry":{"type":"Point","coordinates":[120.21617038760323,22.977374519142323]},"properties":{"code":"D0000014103","name":"臺鐵林森車站(興建中)","alternate_name":"臺鐵林森站(興建中)","address":"","telephone":"","updated_yyyymm":"202511","railway_system":"臺鐵","_featureId":"D0000014103","countyCodes":["67000"]}},{"type":"Feature","id":"D0000014104","geometry":{"type":"Point","coordinates":[120.21755721659059,22.965691029523004]},"properties":{"code":"D0000014104","name":"臺鐵南臺南車站(興建中)","alternate_name":"臺鐵南臺南站(興建中)","address":"","telephone":"","updated_yyyymm":"202511","railway_system":"臺鐵","_featureId":"D0000014104","countyCodes":["67000"]}},{"type":"Feature","id":"D0000004394","geometry":{"type":"Point","coordinates":[120.25273854681092,22.904527667976176]},"properties":{"code":"D0000004394","name":"臺鐵中洲車站","alternate_name":"臺鐵中洲站","address":"臺南市仁德區中洲路298-1號","telephone":"06-2667191","updated_yyyymm":"201208","railway_system":"臺鐵","_featureId":"D0000004394","countyCodes":["67000"]}},{"type":"Feature","id":"D0000004551","geometry":{"type":"Point","coordinates":[120.2722377695763,22.907153773631645]},"properties":{"code":"D0000004551","name":"臺鐵長榮大學車站","alternate_name":"臺鐵長榮大學站","address":"臺南市歸仁區長榮路一段200巷72弄126號","telephone":"06-2782615","updated_yyyymm":"201208","railway_system":"臺鐵","_featureId":"D0000004551","countyCodes":["67000"]}},{"type":"Feature","id":"D0000004256","geometry":{"type":"Point","coordinates":[120.24045178910666,22.92356830647905]},"properties":{"code":"D0000004256","name":"臺鐵仁德車站","alternate_name":"臺鐵仁德站","address":"臺南市仁德區永德路10號","telephone":"06-2669383","updated_yyyymm":"201410","railway_system":"臺鐵","_featureId":"D0000004256","countyCodes":["67000"]}},{"type":"Feature","id":"D0000006610","geometry":{"type":"Point","coordinates":[120.28618273585565,22.924001996522396]},"properties":{"code":"D0000006610","name":"臺鐵沙崙車站","alternate_name":"臺鐵沙崙站","address":"臺南市歸仁區沙崙里歸仁大道102號","telephone":"06-3032686","updated_yyyymm":"201705","railway_system":"臺鐵","_featureId":"D0000006610","countyCodes":["67000"]}},{"type":"Feature","id":"D0000004977","geometry":{"type":"Point","coordinates":[120.23162814914451,22.932977377340137]},"properties":{"code":"D0000004977","name":"臺鐵保安車站","alternate_name":"臺鐵保安站","address":"臺南市仁德區文賢路一段529巷10號","telephone":"06-2665988","updated_yyyymm":"202009","railway_system":"臺鐵","_featureId":"D0000004977","countyCodes":["67000"]}},{"type":"Feature","id":"D0000011113","geometry":{"type":"Point","coordinates":[120.21340550665455,22.996411470496174]},"properties":{"code":"D0000011113","name":"臺鐵臺南車站(臨時後站)","alternate_name":"臺鐵臺南站(臨時後站)","address":"","telephone":"","updated_yyyymm":"202209","railway_system":"臺鐵","_featureId":"D0000011113","countyCodes":["67000"]}},{"type":"Feature","id":"D0000008463","geometry":{"type":"Point","coordinates":[120.21249244838502,22.997185227537972]},"properties":{"code":"D0000008463","name":"臺鐵臺南車站","alternate_name":"臺鐵臺南站","address":"臺南市東區北門路二段4號","telephone":"06-2261314","updated_yyyymm":"202102","railway_system":"臺鐵","_featureId":"D0000008463","countyCodes":["67000"]}},{"type":"Feature","id":"D0000003961","geometry":{"type":"Point","coordinates":[120.22430606543463,23.019221411753897]},"properties":{"code":"D0000003961","name":"臺鐵大橋車站","alternate_name":"臺鐵大橋站","address":"臺南市永康區中華路835號","telephone":"06-3021755","updated_yyyymm":"201208","railway_system":"臺鐵","_featureId":"D0000003961","countyCodes":["67000"]}},{"type":"Feature","id":"D0000006963","geometry":{"type":"Point","coordinates":[120.25347433948862,23.03830499564646]},"properties":{"code":"D0000006963","name":"臺鐵永康車站","alternate_name":"臺鐵永康站","address":"臺南市永康區中山路459號","telephone":"06-2323305","updated_yyyymm":"201705","railway_system":"臺鐵","_featureId":"D0000006963","countyCodes":["67000"]}},{"type":"Feature","id":"D0000011947","geometry":{"type":"Point","coordinates":[120.28998247719855,23.06815439225428]},"properties":{"code":"D0000011947","name":"臺鐵新市車站","alternate_name":"臺鐵新市站","address":"臺南市新市區中華路1號","telephone":"06-5996911","updated_yyyymm":"202209","railway_system":"臺鐵","_featureId":"D0000011947","countyCodes":["67000"]}},{"type":"Feature","id":"D0000001151","geometry":{"type":"Point","coordinates":[120.30199080365935,23.107310401867196]},"properties":{"code":"D0000001151","name":"臺鐵南科車站","alternate_name":"臺鐵南科站","address":"臺南市新市區大營里大營287-300號","telephone":"06-5896356","updated_yyyymm":"201208","railway_system":"臺鐵","_featureId":"D0000001151","countyCodes":["67000"]}},{"type":"Feature","id":"D0000001386","geometry":{"type":"Point","coordinates":[120.30642311629518,23.133350361587887]},"properties":{"code":"D0000001386","name":"臺鐵善化車站","alternate_name":"臺鐵善化站","address":"臺南市善化區中山路1號","telephone":"06-5837301","updated_yyyymm":"201703","railway_system":"臺鐵","_featureId":"D0000001386","countyCodes":["67000"]}},{"type":"Feature","id":"D0000001606","geometry":{"type":"Point","coordinates":[120.32137726155095,23.172609126989784]},"properties":{"code":"D0000001606","name":"臺鐵拔林車站","alternate_name":"臺鐵拔林站","address":"臺南市官田區拔林里拔子林83-1號","telephone":"06-5791664","updated_yyyymm":"201208","railway_system":"臺鐵","_featureId":"D0000001606","countyCodes":["67000"]}},{"type":"Feature","id":"D0000001784","geometry":{"type":"Point","coordinates":[120.31928720891642,23.192592478717593]},"properties":{"code":"D0000001784","name":"臺鐵隆田車站","alternate_name":"臺鐵隆田站","address":"臺南市官田區中山路一段1號","telephone":"06-5791664","updated_yyyymm":"201208","railway_system":"臺鐵","_featureId":"D0000001784","countyCodes":["67000"]}},{"type":"Feature","id":"D0000002066","geometry":{"type":"Point","coordinates":[120.3210068386022,23.242593455074182]},"properties":{"code":"D0000002066","name":"臺鐵林鳳營車站","alternate_name":"臺鐵林鳳營站","address":"臺南市六甲區中社里林鳳營16號","telephone":"","updated_yyyymm":"202009","railway_system":"臺鐵","_featureId":"D0000002066","countyCodes":["67000"]}},{"type":"Feature","id":"D0000002178","geometry":{"type":"Point","coordinates":[120.32256784323008,23.2775161694828]},"properties":{"code":"D0000002178","name":"臺鐵柳營車站","alternate_name":"臺鐵柳營站","address":"臺南市柳營區建國路1號","telephone":"06-6226450","updated_yyyymm":"201410","railway_system":"臺鐵","_featureId":"D0000002178","countyCodes":["67000"]}},{"type":"Feature","id":"D0000002364","geometry":{"type":"Point","coordinates":[120.32317917593849,23.306830018107448]},"properties":{"code":"D0000002364","name":"臺鐵新營車站","alternate_name":"臺鐵新營站","address":"臺南市新營區中山路1號","telephone":"06-6322104","updated_yyyymm":"201410","railway_system":"臺鐵","_featureId":"D0000002364","countyCodes":["67000"]}},{"type":"Feature","id":"D0000002733","geometry":{"type":"Point","coordinates":[120.36052549701547,23.3661721735427]},"properties":{"code":"D0000002733","name":"臺鐵後壁車站","alternate_name":"臺鐵後壁站","address":"臺南市後壁區後壁里後壁77號","telephone":"06-6872055","updated_yyyymm":"202009","railway_system":"臺鐵","_featureId":"D0000002733","countyCodes":["67000"]}},{"type":"Feature","id":"E0000014572","geometry":{"type":"Point","coordinates":[120.30003727152797,22.792221736840172]},"properties":{"code":"E0000014572","name":"臺鐵岡山車站","alternate_name":"臺鐵岡山站","address":"高雄市岡山區岡燕路111號","telephone":"07-6212074","updated_yyyymm":"202411","railway_system":"臺鐵","_featureId":"E0000014572","countyCodes":["64000"]}},{"type":"Feature","id":"E0000001408","geometry":{"type":"Point","coordinates":[120.26628207949443,22.853999119508273]},"properties":{"code":"E0000001408","name":"臺鐵路竹車站","alternate_name":"臺鐵路竹站","address":"高雄市路竹區中正路288號","telephone":"07-6072723","updated_yyyymm":"201208","railway_system":"臺鐵","_featureId":"E0000001408","countyCodes":["64000"]}},{"type":"Feature","id":"E0000001565","geometry":{"type":"Point","coordinates":[120.253996199618,22.878198612764105]},"properties":{"code":"E0000001565","name":"臺鐵大湖車站","alternate_name":"臺鐵大湖站","address":"高雄市路竹區天祐路24號","telephone":"07-6932127","updated_yyyymm":"201208","railway_system":"臺鐵","_featureId":"E0000001565","countyCodes":["64000"]}},{"type":"Feature","id":"E0000014540","geometry":{"type":"Point","coordinates":[120.35710431870866,22.63147360225743]},"properties":{"code":"E0000014540","name":"臺鐵鳳山車站","alternate_name":"臺鐵鳳山站","address":"高雄市鳳山區曹公路70號","telephone":"07-7460423","updated_yyyymm":"202407","railway_system":"臺鐵","_featureId":"E0000014540","countyCodes":["64000"]}},{"type":"Feature","id":"E0000009068","geometry":{"type":"Point","coordinates":[120.34218734327658,22.63428995353091]},"properties":{"code":"E0000009068","name":"臺鐵正義車站","alternate_name":"臺鐵正義站","address":"高雄市苓雅區正義路308號B1","telephone":"07-7460423","updated_yyyymm":"201808","railway_system":"臺鐵","_featureId":"E0000009068","countyCodes":["64000"]}},{"type":"Feature","id":"E0000009067","geometry":{"type":"Point","coordinates":[120.32604402115851,22.637111676201343]},"properties":{"code":"E0000009067","name":"臺鐵科工館車站","alternate_name":"臺鐵科工館站","address":"高雄市三民區大順三路307號","telephone":"07-2371507","updated_yyyymm":"201808","railway_system":"臺鐵","_featureId":"E0000009067","countyCodes":["64000"]}},{"type":"Feature","id":"E0000009069","geometry":{"type":"Point","coordinates":[120.31483175622068,22.638789189130833]},"properties":{"code":"E0000009069","name":"臺鐵民族車站","alternate_name":"臺鐵民族站","address":"高雄市三民區凱旋一路260號","telephone":"07-2371507","updated_yyyymm":"201808","railway_system":"臺鐵","_featureId":"E0000009069","countyCodes":["64000"]}},{"type":"Feature","id":"E0000009066","geometry":{"type":"Point","coordinates":[120.29415806331075,22.63932522284103]},"properties":{"code":"E0000009066","name":"臺鐵三塊厝車站","alternate_name":"臺鐵三塊厝站","address":"高雄市三民區康平街1號","telephone":"07-2371507","updated_yyyymm":"201808","railway_system":"臺鐵","_featureId":"E0000009066","countyCodes":["64000"]}},{"type":"Feature","id":"E0000011392","geometry":{"type":"Point","coordinates":[120.30197912868559,22.63961478187363]},"properties":{"code":"E0000011392","name":"臺鐵高雄車站","alternate_name":"臺鐵高雄站","address":"高雄市三民區建國二路320號","telephone":"07-2352376","updated_yyyymm":"202103","railway_system":"臺鐵","_featureId":"E0000011392","countyCodes":["64000"]}},{"type":"Feature","id":"E0000006034","geometry":{"type":"Point","coordinates":[120.39129114821661,22.64018824218109]},"properties":{"code":"E0000006034","name":"臺鐵後庄車站","alternate_name":"臺鐵後庄站","address":"高雄市大寮區民慶街9號","telephone":"07-7020149","updated_yyyymm":"201710","railway_system":"臺鐵","_featureId":"E0000006034","countyCodes":["64000"]}},{"type":"Feature","id":"E0000009063","geometry":{"type":"Point","coordinates":[120.28067380636662,22.641807307671623]},"properties":{"code":"E0000009063","name":"臺鐵鼓山車站","alternate_name":"臺鐵鼓山站","address":"高雄市鼓山區鐵路街20巷6號B1","telephone":"07-2371507","updated_yyyymm":"201808","railway_system":"臺鐵","_featureId":"E0000009063","countyCodes":["64000"]}},{"type":"Feature","id":"E0000009064","geometry":{"type":"Point","coordinates":[120.28148152884101,22.652181627151375]},"properties":{"code":"E0000009064","name":"臺鐵美術館車站","alternate_name":"臺鐵美術館站","address":"高雄市鼓山區翠華路246號B1","telephone":"07-2371507","updated_yyyymm":"201808","railway_system":"臺鐵","_featureId":"E0000009064","countyCodes":["64000"]}},{"type":"Feature","id":"E0000003815","geometry":{"type":"Point","coordinates":[120.42096891053714,22.656409956332055]},"properties":{"code":"E0000003815","name":"臺鐵九曲堂車站","alternate_name":"臺鐵九曲堂站","address":"高雄市大樹區久堂路鐵路巷15號","telephone":"07-6512020","updated_yyyymm":"202401","railway_system":"臺鐵","_featureId":"E0000003815","countyCodes":["64000"]}},{"type":"Feature","id":"E0000009065","geometry":{"type":"Point","coordinates":[120.28700206326099,22.665869585190293]},"properties":{"code":"E0000009065","name":"臺鐵內惟車站","alternate_name":"臺鐵內惟站","address":"高雄市鼓山區翠華路500號B1","telephone":"07-5887825","updated_yyyymm":"201808","railway_system":"臺鐵","_featureId":"E0000009065","countyCodes":["64000"]}},{"type":"Feature","id":"E0000009062","geometry":{"type":"Point","coordinates":[120.29405867789094,22.674486539523375]},"properties":{"code":"E0000009062","name":"臺鐵左營(舊城)車站","alternate_name":"臺鐵左營(舊城)站","address":"高雄市鼓山區翠華路1050號B1","telephone":"07-5887825","updated_yyyymm":"201808","railway_system":"臺鐵","_featureId":"E0000009062","countyCodes":["64000"]}},{"type":"Feature","id":"E0000000235","geometry":{"type":"Point","coordinates":[120.30678526441021,22.687538916618117]},"properties":{"code":"E0000000235","name":"臺鐵新左營站","alternate_name":"臺鐵新左營站","address":"高雄市左營區站前北路1號","telephone":"07-5887825","updated_yyyymm":"201711","railway_system":"臺鐵","_featureId":"E0000000235","countyCodes":["64000"]}},{"type":"Feature","id":"E0000000649","geometry":{"type":"Point","coordinates":[120.32419976176266,22.727047695220627]},"properties":{"code":"E0000000649","name":"臺鐵楠梓車站","alternate_name":"臺鐵楠梓站","address":"高雄市楠梓區建楠路229號","telephone":"07-3510175","updated_yyyymm":"201208","railway_system":"臺鐵","_featureId":"E0000000649","countyCodes":["64000"]}},{"type":"Feature","id":"E0000000963","geometry":{"type":"Point","coordinates":[120.31009785072533,22.761151038380863]},"properties":{"code":"E0000000963","name":"臺鐵橋頭車站","alternate_name":"臺鐵橋頭站","address":"高雄市橋頭區站前街14號","telephone":"07-6115424","updated_yyyymm":"201208","railway_system":"臺鐵","_featureId":"E0000000963","countyCodes":["64000"]}},{"type":"Feature","id":"I0000001671","geometry":{"type":"Point","coordinates":[120.44118177012598,23.479095459779987]},"properties":{"code":"I0000001671","name":"臺鐵嘉義車站","alternate_name":"臺鐵嘉義站","address":"嘉義市西區中山路528號","telephone":"05-2228904","updated_yyyymm":"202412","railway_system":"臺鐵","_featureId":"I0000001671","countyCodes":["10020"]}},{"type":"Feature","id":"I0000000638","geometry":{"type":"Point","coordinates":[120.44832930644318,23.499767636660746]},"properties":{"code":"I0000000638","name":"臺鐵嘉北車站","alternate_name":"臺鐵嘉北站","address":"嘉義市東區保建街110號","telephone":"05-2334584","updated_yyyymm":"202009","railway_system":"臺鐵","_featureId":"I0000000638","countyCodes":["10020"]}},{"type":"Feature","id":"Q0000000236","geometry":{"type":"Point","coordinates":[120.3865908427846,23.413400798403366]},"properties":{"code":"Q0000000236","name":"臺鐵南靖車站","alternate_name":"臺鐵南靖站","address":"嘉義縣水上鄉三鎮路26號","telephone":"05-2601232","updated_yyyymm":"202411","railway_system":"臺鐵","_featureId":"Q0000000236","countyCodes":["10010"]}},{"type":"Feature","id":"Q0000002257","geometry":{"type":"Point","coordinates":[120.39973113569994,23.433988375597828]},"properties":{"code":"Q0000002257","name":"臺鐵水上車站","alternate_name":"臺鐵水上站","address":"嘉義縣水上鄉下寮村鴿溪寮49號","telephone":"05-2228904","updated_yyyymm":"201702","railway_system":"臺鐵","_featureId":"Q0000002257","countyCodes":["10010"]}},{"type":"Feature","id":"Q0000001147","geometry":{"type":"Point","coordinates":[120.43139590143139,23.55507730282647]},"properties":{"code":"Q0000001147","name":"臺鐵民雄車站","alternate_name":"臺鐵民雄站","address":"嘉義縣民雄鄉和平路2號","telephone":"05-2264272","updated_yyyymm":"201410","railway_system":"臺鐵","_featureId":"Q0000001147","countyCodes":["10010"]}},{"type":"Feature","id":"Q0000001923","geometry":{"type":"Point","coordinates":[120.45584433573998,23.60109590292501]},"properties":{"code":"Q0000001923","name":"臺鐵大林站","alternate_name":"臺鐵大林站","address":"嘉義縣大林鎮中山路2號","telephone":"05-2654804","updated_yyyymm":"201604","railway_system":"臺鐵","_featureId":"Q0000001923","countyCodes":["10010"]}},{"type":"Feature","id":"T0000002647","geometry":{"type":"Point","coordinates":[120.51473043382268,22.512980609534733]},"properties":{"code":"T0000002647","name":"臺鐵崁頂車站","alternate_name":"臺鐵崁頂站","address":"屏東縣崁頂鄉中正路122號","telephone":"08-7882739","updated_yyyymm":"201710","railway_system":"臺鐵","_featureId":"T0000002647","countyCodes":["10013"]}},{"type":"Feature","id":"T0000002648","geometry":{"type":"Point","coordinates":[120.53631873993051,22.55007719330144]},"properties":{"code":"T0000002648","name":"臺鐵潮州車站","alternate_name":"臺鐵潮州站","address":"屏東縣潮州鎮信義路111號","telephone":"08-7882739","updated_yyyymm":"201911","railway_system":"臺鐵","_featureId":"T0000002648","countyCodes":["10013"]}},{"type":"Feature","id":"T0000001430","geometry":{"type":"Point","coordinates":[120.53993110221379,22.58645916982661]},"properties":{"code":"T0000001430","name":"臺鐵竹田車站","alternate_name":"臺鐵竹田站","address":"屏東縣竹田鄉豐明路27-1號","telephone":"08-7711002","updated_yyyymm":"201009","railway_system":"臺鐵","_featureId":"T0000001430","countyCodes":["10013"]}},{"type":"Feature","id":"T0000002651","geometry":{"type":"Point","coordinates":[120.52641615665395,22.616323870626125]},"properties":{"code":"T0000002651","name":"臺鐵西勢車站","alternate_name":"臺鐵西勢站","address":"屏東縣竹田鄉西豐路2號","telephone":"08-7784521","updated_yyyymm":"201710","railway_system":"臺鐵","_featureId":"T0000002651","countyCodes":["10013"]}},{"type":"Feature","id":"T0000001258","geometry":{"type":"Point","coordinates":[120.5141701439052,22.635098793070433]},"properties":{"code":"T0000001258","name":"臺鐵麟洛車站","alternate_name":"臺鐵麟洛站","address":"屏東縣麟洛鄉中華路站前巷15號","telephone":"08-7515140","updated_yyyymm":"201009","railway_system":"臺鐵","_featureId":"T0000001258","countyCodes":["10013"]}},{"type":"Feature","id":"T0000002644","geometry":{"type":"Point","coordinates":[120.51520455257675,22.43129676833129]},"properties":{"code":"T0000002644","name":"臺鐵林邊車站","alternate_name":"臺鐵林邊站","address":"屏東縣林邊鄉仁愛路33號","telephone":"08-8751475","updated_yyyymm":"201710","railway_system":"臺鐵","_featureId":"T0000002644","countyCodes":["10013"]}},{"type":"Feature","id":"T0000002645","geometry":{"type":"Point","coordinates":[120.51122414406976,22.457933601029374]},"properties":{"code":"T0000002645","name":"臺鐵鎮安車站","alternate_name":"臺鐵鎮安站","address":"屏東縣林邊鄉永和路4號","telephone":"08-8642942","updated_yyyymm":"201710","railway_system":"臺鐵","_featureId":"T0000002645","countyCodes":["10013"]}},{"type":"Feature","id":"T0000002646","geometry":{"type":"Point","coordinates":[120.51179910534361,22.492026687039107]},"properties":{"code":"T0000002646","name":"臺鐵南州車站","alternate_name":"臺鐵南州站","address":"屏東縣南州鄉仁里路86號","telephone":"08-8642942","updated_yyyymm":"201710","railway_system":"臺鐵","_featureId":"T0000002646","countyCodes":["10013"]}},{"type":"Feature","id":"T0000002649","geometry":{"type":"Point","coordinates":[120.50297376742323,22.65232528374942]},"properties":{"code":"T0000002649","name":"臺鐵歸來車站","alternate_name":"臺鐵歸來站","address":"屏東縣屏東市歸仁路1-2號","telephone":"08-7515140","updated_yyyymm":"201710","railway_system":"臺鐵","_featureId":"T0000002649","countyCodes":["10013"]}},{"type":"Feature","id":"T0000002657","geometry":{"type":"Point","coordinates":[120.48621754190108,22.668885332004656]},"properties":{"code":"T0000002657","name":"臺鐵屏東車站","alternate_name":"臺鐵屏東站","address":"屏東縣屏東市公勇路62號","telephone":"08-7515140","updated_yyyymm":"201710","railway_system":"臺鐵","_featureId":"T0000002657","countyCodes":["10013"]}},{"type":"Feature","id":"T0000002650","geometry":{"type":"Point","coordinates":[120.4649745401828,22.665946956824225]},"properties":{"code":"T0000002650","name":"臺鐵六塊厝車站","alternate_name":"臺鐵六塊厝站","address":"屏東縣屏東市光復路392號","telephone":"08-7515140","updated_yyyymm":"201710","railway_system":"臺鐵","_featureId":"T0000002650","countyCodes":["10013"]}},{"type":"Feature","id":"T0000000124","geometry":{"type":"Point","coordinates":[120.57236777613575,22.39894352489615]},"properties":{"code":"T0000000124","name":"臺鐵東海車站","alternate_name":"臺鐵東海站","address":"屏東縣枋寮鄉西安路92號","telephone":"08-8782041","updated_yyyymm":"201412","railway_system":"臺鐵","_featureId":"T0000000124","countyCodes":["10013"]}},{"type":"Feature","id":"T0000002643","geometry":{"type":"Point","coordinates":[120.54771580478075,22.414054584681118]},"properties":{"code":"T0000002643","name":"臺鐵佳冬車站","alternate_name":"臺鐵佳冬站","address":"屏東縣佳冬鄉復興路21號","telephone":"08-8662939","updated_yyyymm":"201710","railway_system":"臺鐵","_featureId":"T0000002643","countyCodes":["10013"]}},{"type":"Feature","id":"T0000000091","geometry":{"type":"Point","coordinates":[120.59509807788777,22.368084744906305]},"properties":{"code":"T0000000091","name":"臺鐵枋寮車站","alternate_name":"臺鐵枋寮站","address":"屏東縣枋寮鄉儲運路18號","telephone":"08-8782041","updated_yyyymm":"201009","railway_system":"臺鐵","_featureId":"T0000000091","countyCodes":["10013"]}},{"type":"Feature","id":"T0000000049","geometry":{"type":"Point","coordinates":[120.62462823692583,22.330952000620087]},"properties":{"code":"T0000000049","name":"臺鐵加祿車站","alternate_name":"臺鐵加祿站","address":"屏東縣枋山鄉加祿村會社53號","telephone":"08-8720791","updated_yyyymm":"201412","railway_system":"臺鐵","_featureId":"T0000000049","countyCodes":["10013"]}},{"type":"Feature","id":"T0000000043","geometry":{"type":"Point","coordinates":[120.64335997506072,22.3061532594308]},"properties":{"code":"T0000000043","name":"臺鐵內獅車站","alternate_name":"臺鐵內獅站","address":"屏東縣枋山鄉南和路43號","telephone":"08-8720791","updated_yyyymm":"201412","railway_system":"臺鐵","_featureId":"T0000000043","countyCodes":["10013"]}},{"type":"Feature","id":"T0000001975","geometry":{"type":"Point","coordinates":[120.71719947252818,22.28079628410513]},"properties":{"code":"T0000001975","name":"臺鐵枋野車站","alternate_name":"臺鐵枋野站","address":"屏東縣獅子鄉內獅巷88號","telephone":"08-8761953","updated_yyyymm":"201009","railway_system":"臺鐵","_featureId":"T0000001975","countyCodes":["10013"]}},{"type":"Feature","id":"T0000000036","geometry":{"type":"Point","coordinates":[120.65962005155524,22.26709450934447]},"properties":{"code":"T0000000036","name":"臺鐵枋山車站","alternate_name":"臺鐵枋山站","address":"屏東縣獅子鄉內獅巷88號","telephone":"08-8761953","updated_yyyymm":"201009","railway_system":"臺鐵","_featureId":"T0000000036","countyCodes":["10013"]}},{"type":"Feature","id":"U0000000018","geometry":{"type":"Point","coordinates":[121.2486026230115,23.179112108895218]},"properties":{"code":"U0000000018","name":"臺鐵富里車站","alternate_name":"臺鐵富里站","address":"花蓮縣富里鄉車站街56號","telephone":"03-8831771","updated_yyyymm":"202012","railway_system":"臺鐵","_featureId":"U0000000018","countyCodes":["10015"]}},{"type":"Feature","id":"U0000000032","geometry":{"type":"Point","coordinates":[121.27844010537214,23.226019076493753]},"properties":{"code":"U0000000032","name":"臺鐵東竹車站","alternate_name":"臺鐵東竹站","address":"花蓮縣富里鄉新興村新興26號","telephone":"03-8821504","updated_yyyymm":"201107","railway_system":"臺鐵","_featureId":"U0000000032","countyCodes":["10015"]}},{"type":"Feature","id":"U0000000047","geometry":{"type":"Point","coordinates":[121.30421923956246,23.27235617985525]},"properties":{"code":"U0000000047","name":"臺鐵東里車站","alternate_name":"臺鐵東里站","address":"花蓮縣富里鄉大莊路15-6號","telephone":"03-8861005","updated_yyyymm":"201107","railway_system":"臺鐵","_featureId":"U0000000047","countyCodes":["10015"]}},{"type":"Feature","id":"U0000000083","geometry":{"type":"Point","coordinates":[121.31172039999576,23.331580522513278]},"properties":{"code":"U0000000083","name":"臺鐵玉里車站","alternate_name":"臺鐵玉里站","address":"花蓮縣玉里鎮康樂街39號","telephone":"03-8882020","updated_yyyymm":"201107","railway_system":"臺鐵","_featureId":"U0000000083","countyCodes":["10015"]}},{"type":"Feature","id":"U0000000162","geometry":{"type":"Point","coordinates":[121.34537791413847,23.42451686905528]},"properties":{"code":"U0000000162","name":"臺鐵三民車站","alternate_name":"臺鐵三民站","address":"花蓮縣玉里鎮三民里三民10號","telephone":"03-8841847","updated_yyyymm":"202012","railway_system":"臺鐵","_featureId":"U0000000162","countyCodes":["10015"]}},{"type":"Feature","id":"U0000000223","geometry":{"type":"Point","coordinates":[121.37676386687248,23.497370095820354]},"properties":{"code":"U0000000223","name":"臺鐵瑞穗車站","alternate_name":"臺鐵瑞穗站","address":"花蓮縣瑞穗鄉四維街13號","telephone":"03-8875039","updated_yyyymm":"201107","railway_system":"臺鐵","_featureId":"U0000000223","countyCodes":["10015"]}},{"type":"Feature","id":"U0000000574","geometry":{"type":"Point","coordinates":[121.38012575976983,23.580308688006014]},"properties":{"code":"U0000000574","name":"臺鐵富源車站","alternate_name":"臺鐵富源站","address":"花蓮縣瑞穗鄉富源路2號","telephone":"03-8811824","updated_yyyymm":"201504","railway_system":"臺鐵","_featureId":"U0000000574","countyCodes":["10015"]}},{"type":"Feature","id":"U0000000829","geometry":{"type":"Point","coordinates":[121.3895977784519,23.605658839642143]},"properties":{"code":"U0000000829","name":"臺鐵大富車站","alternate_name":"臺鐵大富站","address":"花蓮縣光復鄉明德路1號","telephone":"03-8811824","updated_yyyymm":"202012","railway_system":"臺鐵","_featureId":"U0000000829","countyCodes":["10015"]}},{"type":"Feature","id":"U0000000573","geometry":{"type":"Point","coordinates":[121.42116221537617,23.666332695804762]},"properties":{"code":"U0000000573","name":"臺鐵光復車站","alternate_name":"臺鐵光復站","address":"花蓮縣光復鄉中正路一段2-1號","telephone":"03-8704143","updated_yyyymm":"201504","railway_system":"臺鐵","_featureId":"U0000000573","countyCodes":["10015"]}},{"type":"Feature","id":"U0000000877","geometry":{"type":"Point","coordinates":[121.4190919981681,23.712060939916682]},"properties":{"code":"U0000000877","name":"臺鐵萬榮車站","alternate_name":"臺鐵萬榮車站","address":"花蓮縣鳳林鎮長德街17號","telephone":"03-8752175","updated_yyyymm":"201504","railway_system":"臺鐵","_featureId":"U0000000877","countyCodes":["10015"]}},{"type":"Feature","id":"U0000000972","geometry":{"type":"Point","coordinates":[121.52045160810246,23.882750375311925]},"properties":{"code":"U0000000972","name":"臺鐵平和車站","alternate_name":"臺鐵平和站","address":"花蓮縣壽豐鄉平和路1號","telephone":"03-8653706","updated_yyyymm":"202110","railway_system":"臺鐵","_featureId":"U0000000972","countyCodes":["10015"]}},{"type":"Feature","id":"U0000000984","geometry":{"type":"Point","coordinates":[121.52942618688503,23.907544905179034]},"properties":{"code":"U0000000984","name":"臺鐵志學車站","alternate_name":"臺鐵志學站","address":"花蓮縣壽豐鄉中正路1號","telephone":"03-8662966","updated_yyyymm":"202110","railway_system":"臺鐵","_featureId":"U0000000984","countyCodes":["10015"]}},{"type":"Feature","id":"U0000003617","geometry":{"type":"Point","coordinates":[121.58259109416542,23.968153882892558]},"properties":{"code":"U0000003617","name":"臺鐵吉安車站","alternate_name":"臺鐵吉安站","address":"花蓮縣吉安鄉南昌街200號","telephone":"03-8539423","updated_yyyymm":"202110","railway_system":"臺鐵","_featureId":"U0000003617","countyCodes":["10015"]}},{"type":"Feature","id":"U0000003771","geometry":{"type":"Point","coordinates":[121.60182542268268,23.99299634483893]},"properties":{"code":"U0000003771","name":"臺鐵花蓮車站","alternate_name":"臺鐵花蓮站","address":"花蓮縣花蓮市國聯一路100號","telephone":"03-8355941","updated_yyyymm":"202110","railway_system":"臺鐵","_featureId":"U0000003771","countyCodes":["10015"]}},{"type":"Feature","id":"U0000003376","geometry":{"type":"Point","coordinates":[121.63575668890876,23.994010593126433]},"properties":{"code":"U0000003376","name":"臺鐵花蓮港車站","alternate_name":"臺鐵花蓮港站","address":"花蓮縣花蓮市港口路2號","telephone":"03-8222468","updated_yyyymm":"202110","railway_system":"臺鐵","_featureId":"U0000003376","countyCodes":["10015"]}},{"type":"Feature","id":"U0000000751","geometry":{"type":"Point","coordinates":[121.60163561999236,24.032482284711303]},"properties":{"code":"U0000000751","name":"臺鐵北埔車站","alternate_name":"臺鐵北埔站","address":"花蓮縣新城鄉自強街113號","telephone":"03-8263809","updated_yyyymm":"201504","railway_system":"臺鐵","_featureId":"U0000000751","countyCodes":["10015"]}},{"type":"Feature","id":"U0000000570","geometry":{"type":"Point","coordinates":[121.6109243369887,24.090388529948335]},"properties":{"code":"U0000000570","name":"臺鐵景美車站","alternate_name":"臺鐵景美站","address":"花蓮縣秀林鄉加灣178-1號","telephone":"03-8611237","updated_yyyymm":"201504","railway_system":"臺鐵","_featureId":"U0000000570","countyCodes":["10015"]}},{"type":"Feature","id":"U0000001442","geometry":{"type":"Point","coordinates":[121.64070962707447,24.12754619428792]},"properties":{"code":"U0000001442","name":"臺鐵新城(太魯閣)車站","alternate_name":"臺鐵新城(太魯閣)站","address":"花蓮縣新城鄉新興一路73號","telephone":"03-8611237","updated_yyyymm":"202110","railway_system":"臺鐵","_featureId":"U0000001442","countyCodes":["10015"]}},{"type":"Feature","id":"U0000001603","geometry":{"type":"Point","coordinates":[121.65539963089385,24.17196548708535]},"properties":{"code":"U0000001603","name":"臺鐵崇德車站","alternate_name":"臺鐵崇德站","address":"花蓮縣秀林鄉海濱路96號","telephone":"03-8621365","updated_yyyymm":"202201","railway_system":"臺鐵","_featureId":"U0000001603","countyCodes":["10015"]}},{"type":"Feature","id":"U0000001604","geometry":{"type":"Point","coordinates":[121.71183716948903,24.242167234253788]},"properties":{"code":"U0000001604","name":"臺鐵和仁車站","alternate_name":"臺鐵和仁站","address":"花蓮縣秀林鄉和仁路71號","telephone":"03-8681221","updated_yyyymm":"202201","railway_system":"臺鐵","_featureId":"U0000001604","countyCodes":["10015"]}},{"type":"Feature","id":"U0000001593","geometry":{"type":"Point","coordinates":[121.75333209366205,24.29827955779211]},"properties":{"code":"U0000001593","name":"臺鐵和平車站","alternate_name":"臺鐵和平站","address":"花蓮縣秀林鄉和平村276號","telephone":"03-8681009","updated_yyyymm":"202201","railway_system":"臺鐵","_featureId":"U0000001593","countyCodes":["10015"]}},{"type":"Feature","id":"U0000000909","geometry":{"type":"Point","coordinates":[121.44696793332253,23.746350879471848]},"properties":{"code":"U0000000909","name":"臺鐵鳳林車站","alternate_name":"臺鐵鳳林站","address":"花蓮縣鳳林鎮中山路43號","telephone":"03-8762004","updated_yyyymm":"202111","railway_system":"臺鐵","_featureId":"U0000000909","countyCodes":["10015"]}},{"type":"Feature","id":"U0000000572","geometry":{"type":"Point","coordinates":[121.4582193316123,23.78227940182495]},"properties":{"code":"U0000000572","name":"臺鐵南平車站","alternate_name":"臺鐵南平站","address":"花蓮縣鳳林鎮自強路233號","telephone":"03-8771597","updated_yyyymm":"202111","railway_system":"臺鐵","_featureId":"U0000000572","countyCodes":["10015"]}},{"type":"Feature","id":"U0000003685","geometry":{"type":"Point","coordinates":[121.46221578868602,23.802492634819423]},"properties":{"code":"U0000003685","name":"臺鐵林榮新光車站","alternate_name":"臺鐵林榮新光站","address":"花蓮縣鳳林鎮兆豐路800號","telephone":"03-8772677","updated_yyyymm":"202309","railway_system":"臺鐵","_featureId":"U0000003685","countyCodes":["10015"]}},{"type":"Feature","id":"U0000000951","geometry":{"type":"Point","coordinates":[121.49619422599896,23.848442001364575]},"properties":{"code":"U0000000951","name":"臺鐵豐田車站","alternate_name":"臺鐵豐田站","address":"花蓮縣壽豐鄉站前街36號","telephone":"03-8654251","updated_yyyymm":"202110","railway_system":"臺鐵","_featureId":"U0000000951","countyCodes":["10015"]}},{"type":"Feature","id":"U0000003721","geometry":{"type":"Point","coordinates":[121.51100507828286,23.86936410035198]},"properties":{"code":"U0000003721","name":"臺鐵壽豐車站","alternate_name":"臺鐵壽豐站","address":"花蓮縣壽豐鄉壽山路1號","telephone":"03-8653706","updated_yyyymm":"202110","railway_system":"臺鐵","_featureId":"U0000003721","countyCodes":["10015"]}},{"type":"Feature","id":"V0000001096","geometry":{"type":"Point","coordinates":[120.90082690872502,22.36518575489648]},"properties":{"code":"V0000001096","name":"臺鐵大武車站","alternate_name":"臺鐵大武站","address":"臺東縣大武鄉大鳥村和平部落33號","telephone":"089-792056","updated_yyyymm":"201006","railway_system":"臺鐵","_featureId":"V0000001096","countyCodes":["10014"]}},{"type":"Feature","id":"V0000001134","geometry":{"type":"Point","coordinates":[120.94178735707152,22.46096034909423]},"properties":{"code":"V0000001134","name":"臺鐵瀧溪車站","alternate_name":"臺鐵瀧溪站","address":"臺東縣太麻里鄉多良村大溪37號","telephone":"089-761482","updated_yyyymm":"201006","railway_system":"臺鐵","_featureId":"V0000001134","countyCodes":["10014"]}},{"type":"Feature","id":"V0000001168","geometry":{"type":"Point","coordinates":[120.96726152173011,22.531533851333744]},"properties":{"code":"V0000001168","name":"臺鐵金崙車站","alternate_name":"臺鐵金崙站","address":"臺東縣太麻里鄉金崙村金崙47-17號","telephone":"089-771068","updated_yyyymm":"201006","railway_system":"臺鐵","_featureId":"V0000001168","countyCodes":["10014"]}},{"type":"Feature","id":"V0000001209","geometry":{"type":"Point","coordinates":[121.00496963603622,22.618842003321195]},"properties":{"code":"V0000001209","name":"臺鐵太麻里車站","alternate_name":"台鐵太麻里站","address":"臺東縣太麻里鄉站前路2號","telephone":"089-781544","updated_yyyymm":"202010","railway_system":"臺鐵","_featureId":"V0000001209","countyCodes":["10014"]}},{"type":"Feature","id":"V0000000411","geometry":{"type":"Point","coordinates":[121.06071024096516,22.710214509510234]},"properties":{"code":"V0000000411","name":"臺鐵知本車站","alternate_name":"臺鐵知本站","address":"臺東縣臺東市知本路二段900巷85號","telephone":"089-514482","updated_yyyymm":"201006","railway_system":"臺鐵","_featureId":"V0000000411","countyCodes":["10014"]}},{"type":"Feature","id":"V0000000372","geometry":{"type":"Point","coordinates":[121.0935134883362,22.764267343973014]},"properties":{"code":"V0000000372","name":"臺鐵康樂車站","alternate_name":"臺鐵康樂站","address":"臺東縣臺東市博物館路51巷131號","telephone":"089-383107","updated_yyyymm":"201006","railway_system":"臺鐵","_featureId":"V0000000372","countyCodes":["10014"]}},{"type":"Feature","id":"V0000000820","geometry":{"type":"Point","coordinates":[121.12314829136066,22.793723656414812]},"properties":{"code":"V0000000820","name":"臺鐵臺東車站","alternate_name":"臺鐵臺東站","address":"臺東縣臺東市岩灣路101巷598號","telephone":"089-229687","updated_yyyymm":"201006","railway_system":"臺鐵","_featureId":"V0000000820","countyCodes":["10014"]}},{"type":"Feature","id":"V0000000832","geometry":{"type":"Point","coordinates":[121.13781647486276,22.86190986285753]},"properties":{"code":"V0000000832","name":"臺鐵山里車站","alternate_name":"臺鐵山里站","address":"臺東縣卑南鄉山里路108號","telephone":"089-572370","updated_yyyymm":"202012","railway_system":"臺鐵","_featureId":"V0000000832","countyCodes":["10014"]}},{"type":"Feature","id":"V0000000399","geometry":{"type":"Point","coordinates":[121.13698285914425,22.912465719835815]},"properties":{"code":"V0000000399","name":"臺鐵鹿野車站","alternate_name":"臺鐵鹿野站","address":"臺東縣鹿野鄉中正路38號","telephone":"089-550217","updated_yyyymm":"201006","railway_system":"臺鐵","_featureId":"V0000000399","countyCodes":["10014"]}},{"type":"Feature","id":"V0000000196","geometry":{"type":"Point","coordinates":[121.15900504815707,22.95609295588963]},"properties":{"code":"V0000000196","name":"臺鐵瑞源車站","alternate_name":"臺鐵瑞源站","address":"臺東縣鹿野鄉瑞景路一段336巷8-1號","telephone":"089-580159","updated_yyyymm":"201412","railway_system":"臺鐵","_featureId":"V0000000196","countyCodes":["10014"]}},{"type":"Feature","id":"V0000000330","geometry":{"type":"Point","coordinates":[121.15586142018553,22.98005272352896]},"properties":{"code":"V0000000330","name":"臺鐵瑞和車站","alternate_name":"臺鐵瑞和站","address":"臺東縣鹿野鄉瑞景路三段1-1號","telephone":"089-580159","updated_yyyymm":"201503","railway_system":"臺鐵","_featureId":"V0000000330","countyCodes":["10014"]}},{"type":"Feature","id":"V0000000231","geometry":{"type":"Point","coordinates":[121.16434771718195,23.045662919964837]},"properties":{"code":"V0000000231","name":"臺鐵關山車站","alternate_name":"臺鐵關山站","address":"臺東縣關山鎮博愛路2號","telephone":"089-811033","updated_yyyymm":"201412","railway_system":"臺鐵","_featureId":"V0000000231","countyCodes":["10014"]}},{"type":"Feature","id":"V0000000261","geometry":{"type":"Point","coordinates":[121.17679912019513,23.102924606929356]},"properties":{"code":"V0000000261","name":"臺鐵海端車站","alternate_name":"臺鐵海端站","address":"臺東縣關山鎮德高里西莊49號","telephone":"089-811033","updated_yyyymm":"201006","railway_system":"臺鐵","_featureId":"V0000000261","countyCodes":["10014"]}},{"type":"Feature","id":"V0000001272","geometry":{"type":"Point","coordinates":[121.21976178872933,23.126318766098475]},"properties":{"code":"V0000001272","name":"臺鐵池上車站","alternate_name":"臺鐵池上站","address":"臺東縣池上鄉鐵花路30號","telephone":"089-862097","updated_yyyymm":"202012","railway_system":"臺鐵","_featureId":"V0000001272","countyCodes":["10014"]}}]}