{"type":"FeatureCollection","features":[{"type":"Feature","id":"tainan:1","geometry":{"type":"Point","coordinates":[120.29119361557291,23.098169571576285]},"properties":{"name":"三舍滯洪池抽水站(原大社改名)","county":"tainan","area_m2":45000,"_featureId":"tainan:1","countyCodes":["67000"]}},{"type":"Feature","id":"tainan:2","geometry":{"type":"Point","coordinates":[120.31310369957629,23.345463570556998]},"properties":{"name":"下茄苳排水蓄水閘門","county":"tainan","area_m2":0,"_featureId":"tainan:2","countyCodes":["67000"]}},{"type":"Feature","id":"tainan:3","geometry":{"type":"Point","coordinates":[120.38367552945813,23.37031876057115]},"properties":{"name":"土溝埤","county":"tainan","area_m2":10670,"_featureId":"tainan:3","countyCodes":["67000"]}},{"type":"Feature","id":"tainan:4","geometry":{"type":"Point","coordinates":[120.24888354171247,22.96684701438529]},"properties":{"name":"仁德滯洪北池","county":"tainan","area_m2":25200,"_featureId":"tainan:4","countyCodes":["67000"]}},{"type":"Feature","id":"tainan:5","geometry":{"type":"Point","coordinates":[120.24759470181506,22.963608081167028]},"properties":{"name":"仁德滯洪南池","county":"tainan","area_m2":140300,"_featureId":"tainan:5","countyCodes":["67000"]}},{"type":"Feature","id":"tainan:6","geometry":{"type":"Point","coordinates":[120.32046523040654,23.33056924894734]},"properties":{"name":"天鵝湖(埤寮埤)","county":"tainan","area_m2":75000,"_featureId":"tainan:6","countyCodes":["67000"]}},{"type":"Feature","id":"tainan:7","geometry":{"type":"Point","coordinates":[120.34067326722977,23.287754218339796]},"properties":{"name":"太康有機農業專區滯洪池","county":"tainan","area_m2":8000,"_featureId":"tainan:7","countyCodes":["67000"]}},{"type":"Feature","id":"tainan:8","geometry":{"type":"Point","coordinates":[120.26677770805883,23.317071342671042]},"properties":{"name":"月津港地區排水(公滯18滯洪池)","county":"tainan","area_m2":110000,"_featureId":"tainan:8","countyCodes":["67000"]}},{"type":"Feature","id":"tainan:9","geometry":{"type":"Point","coordinates":[120.38634225236514,23.258203500909516]},"properties":{"name":"台糖2號觀音埤","county":"tainan","area_m2":53800,"_featureId":"tainan:9","countyCodes":["67000"]}},{"type":"Feature","id":"tainan:10","geometry":{"type":"Point","coordinates":[120.38677902880161,23.252453042209407]},"properties":{"name":"台糖3號觀音埤","county":"tainan","area_m2":99000,"_featureId":"tainan:10","countyCodes":["67000"]}},{"type":"Feature","id":"tainan:11","geometry":{"type":"Point","coordinates":[120.25449354178694,23.055134565258555]},"properties":{"name":"永康分洪滯洪池","county":"tainan","area_m2":13000,"_featureId":"tainan:11","countyCodes":["67000"]}},{"type":"Feature","id":"tainan:12","geometry":{"type":"Point","coordinates":[120.27996175514645,23.047992346204804]},"properties":{"name":"永康科滯洪池一","county":"tainan","area_m2":15700,"_featureId":"tainan:12","countyCodes":["67000"]}},{"type":"Feature","id":"tainan:13","geometry":{"type":"Point","coordinates":[120.27796207988696,23.04054235532463]},"properties":{"name":"永康科滯洪池二","county":"tainan","area_m2":11000,"_featureId":"tainan:13","countyCodes":["67000"]}},{"type":"Feature","id":"tainan:14","geometry":{"type":"Point","coordinates":[120.27796207988696,23.04054235532463]},"properties":{"name":"永康科滯洪池三","county":"tainan","area_m2":3500,"_featureId":"tainan:14","countyCodes":["67000"]}},{"type":"Feature","id":"tainan:15","geometry":{"type":"Point","coordinates":[120.33448664722084,23.224517944285285]},"properties":{"name":"瓦瑤埤","county":"tainan","area_m2":66000,"_featureId":"tainan:15","countyCodes":["67000"]}},{"type":"Feature","id":"tainan:16","geometry":{"type":"Point","coordinates":[120.16208472035014,23.061155335424786]},"properties":{"name":"立德滯洪池（一）","county":"tainan","area_m2":20600,"_featureId":"tainan:16","countyCodes":["67000"]}},{"type":"Feature","id":"tainan:17","geometry":{"type":"Point","coordinates":[120.15428228413509,23.057321187553793]},"properties":{"name":"立德滯洪池（二）","county":"tainan","area_m2":20000,"_featureId":"tainan:17","countyCodes":["67000"]}},{"type":"Feature","id":"tainan:18","geometry":{"type":"Point","coordinates":[120.19188860532162,23.26928771904939]},"properties":{"name":"羊稠厝滯洪池","county":"tainan","area_m2":20000,"_featureId":"tainan:18","countyCodes":["67000"]}},{"type":"Feature","id":"tainan:19","geometry":{"type":"Point","coordinates":[120.40918324782456,23.375248202065478]},"properties":{"name":"林初埤","county":"tainan","area_m2":166400,"_featureId":"tainan:19","countyCodes":["67000"]}},{"type":"Feature","id":"tainan:20","geometry":{"type":"Point","coordinates":[120.2786841201683,23.099115253947794]},"properties":{"name":"南科滯洪池A(道爺湖)","county":"tainan","area_m2":50000,"_featureId":"tainan:20","countyCodes":["67000"]}},{"type":"Feature","id":"tainan:21","geometry":{"type":"Point","coordinates":[120.27146627760446,23.107109876972345]},"properties":{"name":"南科滯洪池B(霞客湖)","county":"tainan","area_m2":150000,"_featureId":"tainan:21","countyCodes":["67000"]}},{"type":"Feature","id":"tainan:22","geometry":{"type":"Point","coordinates":[120.26875999592747,23.11652478213305]},"properties":{"name":"南科滯洪池C(三抱竹湖)","county":"tainan","area_m2":50000,"_featureId":"tainan:22","countyCodes":["67000"]}},{"type":"Feature","id":"tainan:23","geometry":{"type":"Point","coordinates":[120.28399990734565,23.085178856995125]},"properties":{"name":"南科滯洪池D(迎曦湖)","county":"tainan","area_m2":200000,"_featureId":"tainan:23","countyCodes":["67000"]}},{"type":"Feature","id":"tainan:24","geometry":{"type":"Point","coordinates":[120.26457212420344,23.112875221234322]},"properties":{"name":"南科滯洪池E1(安定湖)","county":"tainan","area_m2":134100,"_featureId":"tainan:24","countyCodes":["67000"]}},{"type":"Feature","id":"tainan:25","geometry":{"type":"Point","coordinates":[120.26928359015555,23.104562326800465]},"properties":{"name":"南科滯洪池E2(舒湖)","county":"tainan","area_m2":32700,"_featureId":"tainan:25","countyCodes":["67000"]}},{"type":"Feature","id":"tainan:26","geometry":{"type":"Point","coordinates":[120.2668742029857,23.09163809695762]},"properties":{"name":"南科滯洪池F(堤塘湖)","county":"tainan","area_m2":108600,"_featureId":"tainan:26","countyCodes":["67000"]}},{"type":"Feature","id":"tainan:27","geometry":{"type":"Point","coordinates":[120.35882933984,23.28503016790357]},"properties":{"name":"柳科北側滯洪池一","county":"tainan","area_m2":54500,"_featureId":"tainan:27","countyCodes":["67000"]}},{"type":"Feature","id":"tainan:28","geometry":{"type":"Point","coordinates":[120.352046562264,23.27064457230866]},"properties":{"name":"柳科南側滯洪池二","county":"tainan","area_m2":94350,"_featureId":"tainan:28","countyCodes":["67000"]}},{"type":"Feature","id":"tainan:29","geometry":{"type":"Point","coordinates":[120.3078902873763,23.273860386021333]},"properties":{"name":"柳營櫻花滯洪池","county":"tainan","area_m2":13200,"_featureId":"tainan:29","countyCodes":["67000"]}},{"type":"Feature","id":"tainan:30","geometry":{"type":"Point","coordinates":[120.35375884512275,23.241881906072027]},"properties":{"name":"洗布埤","county":"tainan","area_m2":191700.00000000003,"_featureId":"tainan:30","countyCodes":["67000"]}},{"type":"Feature","id":"tainan:31","geometry":{"type":"Point","coordinates":[120.28934597794772,23.106107784996126]},"properties":{"name":"座駕滯洪池抽水站","county":"tainan","area_m2":50000,"_featureId":"tainan:31","countyCodes":["67000"]}},{"type":"Feature","id":"tainan:32","geometry":{"type":"Point","coordinates":[120.17776190342397,23.03785891585203]},"properties":{"name":"海尾寮帶狀滯洪池","county":"tainan","area_m2":22000,"_featureId":"tainan:32","countyCodes":["67000"]}},{"type":"Feature","id":"tainan:33","geometry":{"type":"Point","coordinates":[120.23547076696921,23.059269809271964]},"properties":{"name":"國立台灣歷史博物館滯洪池","county":"tainan","area_m2":51200,"_featureId":"tainan:33","countyCodes":["67000"]}},{"type":"Feature","id":"tainan:34","geometry":{"type":"Point","coordinates":[120.39881425004722,23.388320192461187]},"properties":{"name":"將軍埤","county":"tainan","area_m2":127800,"_featureId":"tainan:34","countyCodes":["67000"]}},{"type":"Feature","id":"tainan:35","geometry":{"type":"Point","coordinates":[120.23197929612388,22.91746095978704]},"properties":{"name":"港尾溝滯洪池","county":"tainan","area_m2":100000,"_featureId":"tainan:35","countyCodes":["67000"]}},{"type":"Feature","id":"tainan:36","geometry":{"type":"Point","coordinates":[120.1856487078602,23.069775751328415]},"properties":{"name":"新吉滯洪池(施工中)","county":"tainan","area_m2":39100,"_featureId":"tainan:36","countyCodes":["67000"]}},{"type":"Feature","id":"tainan:37","geometry":{"type":"Point","coordinates":[120.253019173756,23.1347459406983]},"properties":{"name":"溪尾安定滯洪池","county":"tainan","area_m2":420000,"_featureId":"tainan:37","countyCodes":["67000"]}},{"type":"Feature","id":"tainan:38","geometry":{"type":"Point","coordinates":[120.29773777769445,23.196735231044073]},"properties":{"name":"葫蘆埤(番子田埤)","county":"tainan","area_m2":757600,"_featureId":"tainan:38","countyCodes":["67000"]}},{"type":"Feature","id":"tainan:39","geometry":{"type":"Point","coordinates":[120.25258496720916,23.095020602880098]},"properties":{"name":"樹谷滯洪池3(曼陀林湖)","county":"tainan","area_m2":150000,"_featureId":"tainan:39","countyCodes":["67000"]}},{"type":"Feature","id":"tainan:40","geometry":{"type":"Point","coordinates":[120.26557145080098,23.09606582830367]},"properties":{"name":"樹谷滯洪池5","county":"tainan","area_m2":70000,"_featureId":"tainan:40","countyCodes":["67000"]}},{"type":"Feature","id":"tainan:41","geometry":{"type":"Point","coordinates":[120.37476649840916,23.33861534429109]},"properties":{"name":"蘭花園區一期滯洪池","county":"tainan","area_m2":4420,"_featureId":"tainan:41","countyCodes":["67000"]}},{"type":"Feature","id":"tainan:42","geometry":{"type":"Point","coordinates":[120.3714463555175,23.3459163298596]},"properties":{"name":"蘭花園區二期a滯洪池","county":"tainan","area_m2":7810,"_featureId":"tainan:42","countyCodes":["67000"]}},{"type":"Feature","id":"tainan:43","geometry":{"type":"Point","coordinates":[120.37908641141243,23.345450164022907]},"properties":{"name":"蘭花園區二期b滯洪池","county":"tainan","area_m2":4089.9999999999995,"_featureId":"tainan:43","countyCodes":["67000"]}},{"type":"Feature","id":"tainan:44","geometry":{"type":"Point","coordinates":[120.37166465756646,23.351479662721637]},"properties":{"name":"蘭花園區三期滯洪池","county":"tainan","area_m2":46800,"_featureId":"tainan:44","countyCodes":["67000"]}},{"type":"Feature","id":"tainan:45","geometry":{"type":"Point","coordinates":[120.38331097695571,23.343380933555157]},"properties":{"name":"蘭花園區四期滯洪池","county":"tainan","area_m2":36380,"_featureId":"tainan:45","countyCodes":["67000"]}},{"type":"Feature","id":"taoyuan:1","geometry":{"type":"Point","coordinates":[121.371669,25.050782]},"properties":{"name":"山尾滯洪池","county":"taoyuan","area_m2":null,"_featureId":"taoyuan:1","countyCodes":["68000"]}},{"type":"Feature","id":"taoyuan:2","geometry":{"type":"Point","coordinates":[121.366682,25.050001]},"properties":{"name":"菜公堂滯洪池","county":"taoyuan","area_m2":null,"_featureId":"taoyuan:2","countyCodes":["68000"]}},{"type":"Feature","id":"taoyuan:3","geometry":{"type":"Point","coordinates":[121.39103,25.04405]},"properties":{"name":"文中小滯洪池","county":"taoyuan","area_m2":null,"_featureId":"taoyuan:3","countyCodes":["68000"]}},{"type":"Feature","id":"taoyuan:4","geometry":{"type":"Point","coordinates":[121.245635,24.956575]},"properties":{"name":"中原14A滯洪池","county":"taoyuan","area_m2":null,"_featureId":"taoyuan:4","countyCodes":["68000"]}},{"type":"Feature","id":"taoyuan:5","geometry":{"type":"Point","coordinates":[121.265122,24.975361]},"properties":{"name":"龍山滯洪池","county":"taoyuan","area_m2":null,"_featureId":"taoyuan:5","countyCodes":["68000"]}},{"type":"Feature","id":"taoyuan:6","geometry":{"type":"Point","coordinates":[121.38353,25.04842]},"properties":{"name":"A7公滯一","county":"taoyuan","area_m2":null,"_featureId":"taoyuan:6","countyCodes":["68000"]}},{"type":"Feature","id":"taoyuan:7","geometry":{"type":"Point","coordinates":[121.38492,25.05345]},"properties":{"name":"A7公滯三","county":"taoyuan","area_m2":null,"_featureId":"taoyuan:7","countyCodes":["68000"]}},{"type":"Feature","id":"taoyuan:8","geometry":{"type":"Point","coordinates":[121.38213,25.05172]},"properties":{"name":"A7公滯四","county":"taoyuan","area_m2":null,"_featureId":"taoyuan:8","countyCodes":["68000"]}},{"type":"Feature","id":"taoyuan:9","geometry":{"type":"Point","coordinates":[121.37214,25.04932]},"properties":{"name":"A7公滯五","county":"taoyuan","area_m2":null,"_featureId":"taoyuan:9","countyCodes":["68000"]}},{"type":"Feature","id":"taoyuan:10","geometry":{"type":"Point","coordinates":[121.38767,25.04402]},"properties":{"name":"A7公滯七","county":"taoyuan","area_m2":null,"_featureId":"taoyuan:10","countyCodes":["68000"]}},{"type":"Feature","id":"taoyuan:11","geometry":{"type":"Point","coordinates":[121.38687,25.03889]},"properties":{"name":"A7公滯八","county":"taoyuan","area_m2":null,"_featureId":"taoyuan:11","countyCodes":["68000"]}},{"type":"Feature","id":"taoyuan:12","geometry":{"type":"Point","coordinates":[121.388138,25.038344]},"properties":{"name":"A7公滯十","county":"taoyuan","area_m2":null,"_featureId":"taoyuan:12","countyCodes":["68000"]}},{"type":"Feature","id":"taoyuan:13","geometry":{"type":"Point","coordinates":[121.39344,25.0378]},"properties":{"name":"A7公滯十一","county":"taoyuan","area_m2":null,"_featureId":"taoyuan:13","countyCodes":["68000"]}},{"type":"Feature","id":"taoyuan:14","geometry":{"type":"Point","coordinates":[121.39336,25.04061]},"properties":{"name":"A7公滯十二","county":"taoyuan","area_m2":null,"_featureId":"taoyuan:14","countyCodes":["68000"]}},{"type":"Feature","id":"taoyuan:15","geometry":{"type":"Point","coordinates":[121.39735,25.04414]},"properties":{"name":"A7公滯十三","county":"taoyuan","area_m2":null,"_featureId":"taoyuan:15","countyCodes":["68000"]}},{"type":"Feature","id":"taoyuan:16","geometry":{"type":"Point","coordinates":[121.39842,25.04453]},"properties":{"name":"A7公滯十四","county":"taoyuan","area_m2":null,"_featureId":"taoyuan:16","countyCodes":["68000"]}},{"type":"Feature","id":"taoyuan:17","geometry":{"type":"Point","coordinates":[121.39789,25.04587]},"properties":{"name":"A7公滯十五","county":"taoyuan","area_m2":null,"_featureId":"taoyuan:17","countyCodes":["68000"]}},{"type":"Feature","id":"taoyuan:18","geometry":{"type":"Point","coordinates":[121.39453,25.05024]},"properties":{"name":"A7公滯十六","county":"taoyuan","area_m2":null,"_featureId":"taoyuan:18","countyCodes":["68000"]}},{"type":"Feature","id":"taoyuan:19","geometry":{"type":"Point","coordinates":[121.39307,25.05022]},"properties":{"name":"A7公滯十九","county":"taoyuan","area_m2":null,"_featureId":"taoyuan:19","countyCodes":["68000"]}},{"type":"Feature","id":"taoyuan:20","geometry":{"type":"Point","coordinates":[121.13053,25.04205]},"properties":{"name":"草漯3滯B","county":"taoyuan","area_m2":null,"_featureId":"taoyuan:20","countyCodes":["68000"]}},{"type":"Feature","id":"taoyuan:21","geometry":{"type":"Point","coordinates":[121.31489,24.97549]},"properties":{"name":"大樹林滯洪池","county":"taoyuan","area_m2":null,"_featureId":"taoyuan:21","countyCodes":["68000"]}},{"type":"Feature","id":"taoyuan:22","geometry":{"type":"Point","coordinates":[121.31042,24.95711]},"properties":{"name":"大湳滯洪池","county":"taoyuan","area_m2":null,"_featureId":"taoyuan:22","countyCodes":["68000"]}},{"type":"Feature","id":"taoyuan:23","geometry":{"type":"Point","coordinates":[121.295043,24.95597]},"properties":{"name":"建國雨水調節池","county":"taoyuan","area_m2":null,"_featureId":"taoyuan:23","countyCodes":["68000"]}},{"type":"Feature","id":"taoyuan:24","geometry":{"type":"Point","coordinates":[121.294719,24.954162]},"properties":{"name":"同和雨水調節池","county":"taoyuan","area_m2":null,"_featureId":"taoyuan:24","countyCodes":["68000"]}},{"type":"Feature","id":"taoyuan:25","geometry":{"type":"Point","coordinates":[121.32453,24.96613]},"properties":{"name":"大仁滯洪池","county":"taoyuan","area_m2":null,"_featureId":"taoyuan:25","countyCodes":["68000"]}}]}