{"type":"FeatureCollection","features":[{"type":"Feature","id":"E0000000231","geometry":{"type":"Point","coordinates":[120.30760034606598,22.68733744268884]},"properties":{"code":"E0000000231","name":"台灣高鐵左營車站","alternate_name":"高鐵左營站","address":"高雄市左營區高鐵路105號","telephone":"","updated_yyyymm":"201208","railway_system":"高鐵","_featureId":"E0000000231","countyCodes":["64000"]}},{"type":"Feature","id":"Q0000001876","geometry":{"type":"Point","coordinates":[120.32309239876564,23.459246876503748]},"properties":{"code":"Q0000001876","name":"台灣高鐵嘉義站","alternate_name":"高鐵嘉義站","address":"嘉義縣太保市高鐵西路168號","telephone":"","updated_yyyymm":"201608","railway_system":"高鐵","_featureId":"Q0000001876","countyCodes":["10010"]}},{"type":"Feature","id":"D0000004608","geometry":{"type":"Point","coordinates":[120.28554364391584,22.924613949724428]},"properties":{"code":"D0000004608","name":"台灣高鐵臺南站","alternate_name":"高鐵臺南站","address":"臺南市歸仁區歸仁大道100號","telephone":"","updated_yyyymm":"201811","railway_system":"高鐵","_featureId":"D0000004608","countyCodes":["67000"]}},{"type":"Feature","id":"B0000001219","geometry":{"type":"Point","coordinates":[120.61560769248953,24.111536672791804]},"properties":{"code":"B0000001219","name":"台灣高鐵臺中車站","alternate_name":"高鐵臺中站","address":"臺中市烏日區站區二路8號","telephone":"","updated_yyyymm":"201310","railway_system":"高鐵","_featureId":"B0000001219","countyCodes":["66000"]}},{"type":"Feature","id":"K0000001241","geometry":{"type":"Point","coordinates":[120.82537179685116,24.605710217648145]},"properties":{"code":"K0000001241","name":"台灣高鐵苗栗站","alternate_name":"高鐵苗栗站","address":"苗栗縣後龍鎮高鐵三路268號","telephone":"","updated_yyyymm":"202109","railway_system":"高鐵","_featureId":"K0000001241","countyCodes":["10005"]}},{"type":"Feature","id":"A0000007600","geometry":{"type":"Point","coordinates":[121.60719775388347,25.053401448864708]},"properties":{"code":"A0000007600","name":"臺灣高鐵南港車站","alternate_name":"高鐵南港站","address":"臺北市南港區南港路一段313號","telephone":"4066-3000","updated_yyyymm":"202001","railway_system":"高鐵","_featureId":"A0000007600","countyCodes":["63000"]}},{"type":"Feature","id":"A0000013098","geometry":{"type":"Point","coordinates":[121.51719414653572,25.047338296179]},"properties":{"code":"A0000013098","name":"臺灣高鐵臺北車站","alternate_name":"高鐵臺北站","address":"臺北市北平西路3號","telephone":"4066-3000","updated_yyyymm":"202001","railway_system":"高鐵","_featureId":"A0000013098","countyCodes":["63000"]}},{"type":"Feature","id":"H0000003613","geometry":{"type":"Point","coordinates":[121.21486354269204,25.013114903231326]},"properties":{"code":"H0000003613","name":"臺灣高鐵桃園車站","alternate_name":"高鐵桃園站","address":"桃園市中壢區高鐵北路一段6號","telephone":"4066-3000","updated_yyyymm":"201908","railway_system":"高鐵","_featureId":"H0000003613","countyCodes":["68000"]}},{"type":"Feature","id":"J0000002120","geometry":{"type":"Point","coordinates":[121.04010993088144,24.808152518762753]},"properties":{"code":"J0000002120","name":"臺灣高鐵新竹車站","alternate_name":"高鐵新竹站","address":"新竹縣竹北市高鐵七路6號","telephone":"4066-3000","updated_yyyymm":"201907","railway_system":"高鐵","_featureId":"J0000002120","countyCodes":["10004"]}},{"type":"Feature","id":"F0000013911","geometry":{"type":"Point","coordinates":[121.46384191695292,25.014498705054084]},"properties":{"code":"F0000013911","name":"臺灣高鐵板橋車站","alternate_name":"高鐵板橋站","address":"新北市板橋區縣民大道二段7號","telephone":"4066-3000","updated_yyyymm":"201911","railway_system":"高鐵","_featureId":"F0000013911","countyCodes":["65000"]}},{"type":"Feature","id":"N0000004776","geometry":{"type":"Point","coordinates":[120.57465562643807,23.87419008957483]},"properties":{"code":"N0000004776","name":"台灣高鐵彰化車站","alternate_name":"高鐵彰化站","address":"彰化縣田中鎮站區路二段99號","telephone":"4066-3000","updated_yyyymm":"201806","railway_system":"高鐵","_featureId":"N0000004776","countyCodes":["10007"]}},{"type":"Feature","id":"P0000001965","geometry":{"type":"Point","coordinates":[120.41665070866415,23.736286368712644]},"properties":{"code":"P0000001965","name":"雲林高鐵站","alternate_name":"雲林高鐵站","address":"雲林縣虎尾鎮站前東路301號","telephone":"02-40663000","updated_yyyymm":"202012","railway_system":"高鐵","_featureId":"P0000001965","countyCodes":["10009"]}}]}