{"type":"FeatureCollection","features":[{"type":"Feature","id":"107","geometry":{"type":"Point","coordinates":[119.98057999999999,25.96261]},"properties":{"code":"107","name":"莒光鄉東莒衛生掩埋場","county":"連江縣","township":"莒光鄉","statistical_date":"2025/6/30","design_capacity_m3":30000,"remaining_capacity_m3":8910,"_featureId":"107","countyCodes":["09007"]}},{"type":"Feature","id":"106","geometry":{"type":"Point","coordinates":[119.94556,25.97986]},"properties":{"code":"106","name":"莒光鄉西莒衛生掩埋場","county":"連江縣","township":"莒光鄉","statistical_date":"2025/6/30","design_capacity_m3":28000,"remaining_capacity_m3":13716,"_featureId":"106","countyCodes":["09007"]}},{"type":"Feature","id":"105","geometry":{"type":"Point","coordinates":[119.96191000000002,26.16364]},"properties":{"code":"105","name":"南竿鄉垃圾衛生掩埋場","county":"連江縣","township":"南竿鄉","statistical_date":"2025/6/30","design_capacity_m3":12637,"remaining_capacity_m3":37,"_featureId":"105","countyCodes":["09007"]}},{"type":"Feature","id":"104","geometry":{"type":"Point","coordinates":[120.49336,26.36137]},"properties":{"code":"104","name":"東引鄉垃圾衛生掩埋場","county":"連江縣","township":"東引鄉","statistical_date":"2025/6/30","design_capacity_m3":30785,"remaining_capacity_m3":27293,"_featureId":"104","countyCodes":["09007"]}},{"type":"Feature","id":"103","geometry":{"type":"Point","coordinates":[120.00406,26.232390000000002]},"properties":{"code":"103","name":"北竿鄉垃圾衛生掩埋場(一期~二期)","county":"連江縣","township":"北竿鄉","statistical_date":"2025/6/30","design_capacity_m3":44800,"remaining_capacity_m3":34800,"_featureId":"103","countyCodes":["09007"]}},{"type":"Feature","id":"102","geometry":{"type":"Point","coordinates":[118.23828000000002,24.41711]},"properties":{"code":"102","name":"烈嶼鄉東崗衛生掩埋場","county":"金門縣","township":"烈嶼鄉","statistical_date":"2025/6/30","design_capacity_m3":125000,"remaining_capacity_m3":17080,"_featureId":"102","countyCodes":["09020"]}},{"type":"Feature","id":"101","geometry":{"type":"Point","coordinates":[118.44695000000002,24.41688]},"properties":{"code":"101","name":"金湖鎮新塘衛生掩埋場","county":"金門縣","township":"金湖鎮","statistical_date":"2025/6/30","design_capacity_m3":194000,"remaining_capacity_m3":17800,"_featureId":"101","countyCodes":["09020"]}},{"type":"Feature","id":"100","geometry":{"type":"Point","coordinates":[119.63358,23.59463]},"properties":{"code":"100","name":"湖西鄉紅羅垃圾衛生掩埋場","county":"澎湖縣","township":"湖西鄉","statistical_date":"2025/6/30","design_capacity_m3":99020,"remaining_capacity_m3":26776,"_featureId":"100","countyCodes":["10016"]}},{"type":"Feature","id":"99","geometry":{"type":"Point","coordinates":[119.53087999999998,23.37087]},"properties":{"code":"99","name":"望安鄉將軍衛生掩埋場","county":"澎湖縣","township":"望安鄉","statistical_date":"2025/6/30","design_capacity_m3":28800,"remaining_capacity_m3":1937,"_featureId":"99","countyCodes":["10016"]}},{"type":"Feature","id":"98","geometry":{"type":"Point","coordinates":[119.31825,23.402300000000004]},"properties":{"code":"98","name":"望安鄉花嶼簡易垃圾場","county":"澎湖縣","township":"望安鄉","statistical_date":"2025/6/30","design_capacity_m3":3600,"remaining_capacity_m3":2837,"_featureId":"98","countyCodes":["10016"]}},{"type":"Feature","id":"97","geometry":{"type":"Point","coordinates":[119.50387,23.38119]},"properties":{"code":"97","name":"望安鄉水垵衛生掩埋場","county":"澎湖縣","township":"望安鄉","statistical_date":"2025/6/30","design_capacity_m3":25500,"remaining_capacity_m3":1621,"_featureId":"97","countyCodes":["10016"]}},{"type":"Feature","id":"96","geometry":{"type":"Point","coordinates":[119.50549999999998,23.6338]},"properties":{"code":"96","name":"西嶼鄉竹篙灣衛生掩埋場","county":"澎湖縣","township":"西嶼鄉","statistical_date":"2025/6/30","design_capacity_m3":37300,"remaining_capacity_m3":5296,"_featureId":"96","countyCodes":["10016"]}},{"type":"Feature","id":"95","geometry":{"type":"Point","coordinates":[119.66492999999998,23.66136]},"properties":{"code":"95","name":"白沙鄉鳥嶼簡易垃圾場","county":"澎湖縣","township":"白沙鄉","statistical_date":"2025/6/30","design_capacity_m3":3109,"remaining_capacity_m3":860,"_featureId":"95","countyCodes":["10016"]}},{"type":"Feature","id":"94","geometry":{"type":"Point","coordinates":[119.60596,23.65798]},"properties":{"code":"94","name":"白沙鄉岐頭衛生掩埋場","county":"澎湖縣","township":"白沙鄉","statistical_date":"2025/6/30","design_capacity_m3":38000,"remaining_capacity_m3":2764,"_featureId":"94","countyCodes":["10016"]}},{"type":"Feature","id":"93","geometry":{"type":"Point","coordinates":[119.62131000000001,23.74406]},"properties":{"code":"93","name":"白沙鄉吉貝村垃圾衛生掩埋場","county":"澎湖縣","township":"白沙鄉","statistical_date":"2025/6/30","design_capacity_m3":36000,"remaining_capacity_m3":2457,"_featureId":"93","countyCodes":["10016"]}},{"type":"Feature","id":"92","geometry":{"type":"Point","coordinates":[119.56636,23.61963]},"properties":{"code":"92","name":"白沙鄉大倉簡易垃圾場","county":"澎湖縣","township":"白沙鄉","statistical_date":"2025/6/30","design_capacity_m3":6548,"remaining_capacity_m3":1366,"_featureId":"92","countyCodes":["10016"]}},{"type":"Feature","id":"91","geometry":{"type":"Point","coordinates":[119.42412999999999,23.21751]},"properties":{"code":"91","name":"七美鄉西湖垃圾衛生掩埋場","county":"澎湖縣","township":"七美鄉","statistical_date":"2025/6/30","design_capacity_m3":42242,"remaining_capacity_m3":9994,"_featureId":"91","countyCodes":["10016"]}},{"type":"Feature","id":"90","geometry":{"type":"Point","coordinates":[121.56891000000002,22.01079]},"properties":{"code":"90","name":"蘭嶼鄉垃圾衛生掩埋場","county":"臺東縣","township":"蘭嶼鄉","statistical_date":"2025/6/30","design_capacity_m3":39150,"remaining_capacity_m3":32,"_featureId":"90","countyCodes":["10014"]}},{"type":"Feature","id":"89","geometry":{"type":"Point","coordinates":[121.16431000000001,23.02225]},"properties":{"code":"89","name":"關山鎮區域性垃圾衛生掩埋場","county":"臺東縣","township":"關山鎮","statistical_date":"2025/6/30","design_capacity_m3":56071,"remaining_capacity_m3":0,"_featureId":"89","countyCodes":["10014"]}},{"type":"Feature","id":"88","geometry":{"type":"Point","coordinates":[121.08543,22.73178]},"properties":{"code":"88","name":"臺東市垃圾衛生掩埋場","county":"臺東縣","township":"臺東市","statistical_date":"2025/6/30","design_capacity_m3":335309,"remaining_capacity_m3":0,"_featureId":"88","countyCodes":["10014"]}},{"type":"Feature","id":"87","geometry":{"type":"Point","coordinates":[121.50398000000001,22.65581]},"properties":{"code":"87","name":"綠島鄉垃圾衛生掩埋場","county":"臺東縣","township":"綠島鄉","statistical_date":"2025/6/30","design_capacity_m3":54000,"remaining_capacity_m3":10760,"_featureId":"87","countyCodes":["10014"]}},{"type":"Feature","id":"86","geometry":{"type":"Point","coordinates":[121.14776000000002,22.93013]},"properties":{"code":"86","name":"鹿野鄉垃圾衛生掩埋場(二期)","county":"臺東縣","township":"鹿野鄉","statistical_date":"2025/6/30","design_capacity_m3":34200,"remaining_capacity_m3":0,"_featureId":"86","countyCodes":["10014"]}},{"type":"Feature","id":"85","geometry":{"type":"Point","coordinates":[121.46131,23.32056]},"properties":{"code":"85","name":"長濱鄉垃圾衛生掩埋場","county":"臺東縣","township":"長濱鄉","statistical_date":"2025/6/30","design_capacity_m3":54380,"remaining_capacity_m3":14152,"_featureId":"85","countyCodes":["10014"]}},{"type":"Feature","id":"84","geometry":{"type":"Point","coordinates":[120.96910000000001,22.60848]},"properties":{"code":"84","name":"金峰鄉區域性垃圾衛生掩埋場","county":"臺東縣","township":"金峰鄉","statistical_date":"2025/6/30","design_capacity_m3":70339,"remaining_capacity_m3":8769,"_featureId":"84","countyCodes":["10014"]}},{"type":"Feature","id":"83","geometry":{"type":"Point","coordinates":[121.27633,23.00511]},"properties":{"code":"83","name":"東河鄉垃圾衛生掩埋場-第2期","county":"臺東縣","township":"東河鄉","statistical_date":"2025/6/30","design_capacity_m3":97100,"remaining_capacity_m3":765,"_featureId":"83","countyCodes":["10014"]}},{"type":"Feature","id":"82","geometry":{"type":"Point","coordinates":[121.15631,22.91903]},"properties":{"code":"82","name":"延平鄉垃圾衛生掩埋場","county":"臺東縣","township":"延平鄉","statistical_date":"2025/6/30","design_capacity_m3":45143,"remaining_capacity_m3":2749,"_featureId":"82","countyCodes":["10014"]}},{"type":"Feature","id":"81","geometry":{"type":"Point","coordinates":[121.13235,22.8545]},"properties":{"code":"81","name":"卑南鄉垃圾衛生掩埋場","county":"臺東縣","township":"卑南鄉","statistical_date":"2025/6/30","design_capacity_m3":105000,"remaining_capacity_m3":0,"_featureId":"81","countyCodes":["10014"]}},{"type":"Feature","id":"80","geometry":{"type":"Point","coordinates":[121.20051,23.089]},"properties":{"code":"80","name":"池上鄉垃圾衛生掩埋場","county":"臺東縣","township":"池上鄉","statistical_date":"2025/6/30","design_capacity_m3":78500,"remaining_capacity_m3":0,"_featureId":"80","countyCodes":["10014"]}},{"type":"Feature","id":"79","geometry":{"type":"Point","coordinates":[121.33148000000001,23.02086]},"properties":{"code":"79","name":"成功鎮垃圾衛生掩埋場","county":"臺東縣","township":"成功鎮","statistical_date":"2025/6/30","design_capacity_m3":352000,"remaining_capacity_m3":0,"_featureId":"79","countyCodes":["10014"]}},{"type":"Feature","id":"78","geometry":{"type":"Point","coordinates":[120.89536000000001,22.35066]},"properties":{"code":"78","name":"大武鄉垃圾衛生掩埋場","county":"臺東縣","township":"大武鄉","statistical_date":"2025/6/30","design_capacity_m3":35057,"remaining_capacity_m3":4081,"_featureId":"78","countyCodes":["10014"]}},{"type":"Feature","id":"77","geometry":{"type":"Point","coordinates":[121.27700000000002,23.206]},"properties":{"code":"77","name":"富里鄉一般廢棄物掩埋場","county":"花蓮縣","township":"富里鄉","statistical_date":"2025/6/30","design_capacity_m3":9390,"remaining_capacity_m3":51,"_featureId":"77","countyCodes":["10015"]}},{"type":"Feature","id":"76","geometry":{"type":"Point","coordinates":[121.51076,23.81971]},"properties":{"code":"76","name":"花蓮縣壽豐鄉豐坪段垃圾掩埋場","county":"花蓮縣","township":"壽豐鄉","statistical_date":"2025/6/30","design_capacity_m3":62490,"remaining_capacity_m3":23293,"_featureId":"76","countyCodes":["10015"]}},{"type":"Feature","id":"75","geometry":{"type":"Point","coordinates":[121.37801,23.55176]},"properties":{"code":"75","name":"花蓮縣瑞穗鄉瑞北垃圾衛生掩埋場","county":"花蓮縣","township":"瑞穗鄉","statistical_date":"2025/6/30","design_capacity_m3":75000,"remaining_capacity_m3":934,"_featureId":"75","countyCodes":["10015"]}},{"type":"Feature","id":"74","geometry":{"type":"Point","coordinates":[121.61716000000001,24.04833]},"properties":{"code":"74","name":"花蓮縣新城鄉一般廢棄物掩埋場","county":"花蓮縣","township":"新城鄉","statistical_date":"2025/6/30","design_capacity_m3":62428.9,"remaining_capacity_m3":15936,"_featureId":"74","countyCodes":["10015"]}},{"type":"Feature","id":"73","geometry":{"type":"Point","coordinates":[121.64610000000002,24.13246]},"properties":{"code":"73","name":"花蓮縣秀林鄉陶樸閣衛生掩埋場","county":"花蓮縣","township":"秀林鄉","statistical_date":"2025/6/30","design_capacity_m3":108537,"remaining_capacity_m3":15623,"_featureId":"73","countyCodes":["10015"]}},{"type":"Feature","id":"72","geometry":{"type":"Point","coordinates":[121.48903000000001,23.77165]},"properties":{"code":"72","name":"花蓮縣中區區域性垃圾衛生掩埋場","county":"花蓮縣","township":"鳳林鎮","statistical_date":"2025/6/30","design_capacity_m3":530000,"remaining_capacity_m3":191396,"_featureId":"72","countyCodes":["10015"]}},{"type":"Feature","id":"71","geometry":{"type":"Point","coordinates":[121.6445,24.01039]},"properties":{"code":"71","name":"花蓮市垃圾衛生掩埋場","county":"花蓮縣","township":"花蓮市","statistical_date":"2025/6/30","design_capacity_m3":344976,"remaining_capacity_m3":0,"_featureId":"71","countyCodes":["10015"]}},{"type":"Feature","id":"70","geometry":{"type":"Point","coordinates":[121.5683,23.92286]},"properties":{"code":"70","name":"吉安鄉光華垃圾衛生掩埋場","county":"花蓮縣","township":"吉安鄉","statistical_date":"2025/6/30","design_capacity_m3":112208,"remaining_capacity_m3":0,"_featureId":"70","countyCodes":["10015"]}},{"type":"Feature","id":"69","geometry":{"type":"Point","coordinates":[121.43718,23.67798]},"properties":{"code":"69","name":"光復一般垃圾廢棄物掩埋場","county":"花蓮縣","township":"光復鄉","statistical_date":"2025/6/30","design_capacity_m3":106000,"remaining_capacity_m3":9672,"_featureId":"69","countyCodes":["10015"]}},{"type":"Feature","id":"68","geometry":{"type":"Point","coordinates":[121.32640999999998,23.2993]},"properties":{"code":"68","name":"玉里鎮長良垃圾衛生掩埋場","county":"花蓮縣","township":"玉里鎮","statistical_date":"2025/6/30","design_capacity_m3":185000,"remaining_capacity_m3":23043,"_featureId":"68","countyCodes":["10015"]}},{"type":"Feature","id":"67","geometry":{"type":"Point","coordinates":[121.84321,24.64073]},"properties":{"code":"67","name":"蘇澳區域性垃圾衛生掩埋場","county":"宜蘭縣","township":"蘇澳鎮","statistical_date":"2025/6/30","design_capacity_m3":253000,"remaining_capacity_m3":69456,"_featureId":"67","countyCodes":["10002"]}},{"type":"Feature","id":"62","geometry":{"type":"Point","coordinates":[120.31171000000002,23.53226]},"properties":{"code":"62","name":"新港鄉區域性衛生掩埋場","county":"嘉義縣","township":"新港鄉","statistical_date":"2025/6/30","design_capacity_m3":166000,"remaining_capacity_m3":33130,"_featureId":"62","countyCodes":["10010"]}},{"type":"Feature","id":"61","geometry":{"type":"Point","coordinates":[120.50683,23.5507]},"properties":{"code":"61","name":"民雄鄉垃圾衛生掩埋場","county":"嘉義縣","township":"民雄鄉","statistical_date":"2025/6/30","design_capacity_m3":361084,"remaining_capacity_m3":0,"_featureId":"61","countyCodes":["10010"]}},{"type":"Feature","id":"60","geometry":{"type":"Point","coordinates":[120.38037999999999,23.45206]},"properties":{"code":"60","name":"水上鹿草區域性衛生掩埋場","county":"嘉義縣","township":"水上鄉","statistical_date":"2025/6/30","design_capacity_m3":240000,"remaining_capacity_m3":119044,"_featureId":"60","countyCodes":["10010"]}},{"type":"Feature","id":"59","geometry":{"type":"Point","coordinates":[120.51431000000001,23.61353]},"properties":{"code":"59","name":"大林鎮垃圾衛生掩埋場","county":"嘉義縣","township":"大林鎮","statistical_date":"2025/6/30","design_capacity_m3":75000,"remaining_capacity_m3":0,"_featureId":"59","countyCodes":["10010"]}},{"type":"Feature","id":"58","geometry":{"type":"Point","coordinates":[120.31288,23.7429]},"properties":{"code":"58","name":"褒忠鄉衛生掩埋場","county":"雲林縣","township":"褒忠鄉","statistical_date":"2025/6/30","design_capacity_m3":121700,"remaining_capacity_m3":0,"_featureId":"58","countyCodes":["10009"]}},{"type":"Feature","id":"57","geometry":{"type":"Point","coordinates":[120.53556,23.78618]},"properties":{"code":"57","name":"莿桐鄉衛生掩埋場","county":"雲林縣","township":"莿桐鄉","statistical_date":"2025/6/30","design_capacity_m3":229445,"remaining_capacity_m3":11788,"_featureId":"57","countyCodes":["10009"]}},{"type":"Feature","id":"56","geometry":{"type":"Point","coordinates":[120.31908,23.81169]},"properties":{"code":"56","name":"崙背鄉衛生掩埋場","county":"雲林縣","township":"崙背鄉","statistical_date":"2025/6/30","design_capacity_m3":88000,"remaining_capacity_m3":0,"_featureId":"56","countyCodes":["10009"]}},{"type":"Feature","id":"55","geometry":{"type":"Point","coordinates":[120.59803,23.77975]},"properties":{"code":"55","name":"林內鄉衛生掩埋場","county":"雲林縣","township":"林內鄉","statistical_date":"2025/6/30","design_capacity_m3":42360,"remaining_capacity_m3":0,"_featureId":"55","countyCodes":["10009"]}},{"type":"Feature","id":"54","geometry":{"type":"Point","coordinates":[120.28338000000001,23.737780000000004]},"properties":{"code":"54","name":"東勢鄉衛生掩埋場","county":"雲林縣","township":"東勢鄉","statistical_date":"2025/6/30","design_capacity_m3":95500,"remaining_capacity_m3":0,"_featureId":"54","countyCodes":["10009"]}},{"type":"Feature","id":"53","geometry":{"type":"Point","coordinates":[120.43656,23.81283]},"properties":{"code":"53","name":"西螺鎮區域性衛生掩埋場(二期)","county":"雲林縣","township":"西螺鎮","statistical_date":"2025/6/30","design_capacity_m3":130500,"remaining_capacity_m3":0,"_featureId":"53","countyCodes":["10009"]}},{"type":"Feature","id":"52","geometry":{"type":"Point","coordinates":[120.16411,23.68075]},"properties":{"code":"52","name":"四湖鄉衛生掩埋場","county":"雲林縣","township":"四湖鄉","statistical_date":"2025/6/30","design_capacity_m3":126195,"remaining_capacity_m3":0,"_featureId":"52","countyCodes":["10009"]}},{"type":"Feature","id":"51","geometry":{"type":"Point","coordinates":[120.55559,23.60499]},"properties":{"code":"51","name":"古坑鄉衛生掩埋場","county":"雲林縣","township":"古坑鄉","statistical_date":"2025/6/30","design_capacity_m3":115100,"remaining_capacity_m3":0,"_featureId":"51","countyCodes":["10009"]}},{"type":"Feature","id":"50","geometry":{"type":"Point","coordinates":[120.49093,23.67896]},"properties":{"code":"50","name":"斗南鎮衛生掩埋場（二期）","county":"雲林縣","township":"斗南鎮","statistical_date":"2025/6/30","design_capacity_m3":204567,"remaining_capacity_m3":0,"_featureId":"50","countyCodes":["10009"]}},{"type":"Feature","id":"49","geometry":{"type":"Point","coordinates":[120.33797000000001,23.5984]},"properties":{"code":"49","name":"元長鄉衛生掩埋場","county":"雲林縣","township":"元長鄉","statistical_date":"2025/6/30","design_capacity_m3":85000,"remaining_capacity_m3":0,"_featureId":"49","countyCodes":["10009"]}},{"type":"Feature","id":"48","geometry":{"type":"Point","coordinates":[120.35971000000002,23.72471]},"properties":{"code":"48","name":"土庫鎮衛生掩埋場","county":"雲林縣","township":"土庫鎮","statistical_date":"2025/6/30","design_capacity_m3":247252,"remaining_capacity_m3":0,"_featureId":"48","countyCodes":["10009"]}},{"type":"Feature","id":"47","geometry":{"type":"Point","coordinates":[120.3745,23.81721]},"properties":{"code":"47","name":"二崙鄉衛生掩埋場","county":"雲林縣","township":"二崙鄉","statistical_date":"2025/6/30","design_capacity_m3":150000,"remaining_capacity_m3":0,"_featureId":"47","countyCodes":["10009"]}},{"type":"Feature","id":"46","geometry":{"type":"Point","coordinates":[120.37283,24.03763]},"properties":{"code":"46","name":"芳苑鄉福興地區區域性垃圾聯合衛生掩埋場","county":"彰化縣","township":"芳苑鄉","statistical_date":"2025/6/30","design_capacity_m3":210000,"remaining_capacity_m3":85938,"_featureId":"46","countyCodes":["10007"]}},{"type":"Feature","id":"45","geometry":{"type":"Point","coordinates":[120.52575,24.128630000000005]},"properties":{"code":"45","name":"和美鎮區域性衛生掩埋場","county":"彰化縣","township":"和美鎮","statistical_date":"2025/6/30","design_capacity_m3":68425,"remaining_capacity_m3":27010,"_featureId":"45","countyCodes":["10007"]}},{"type":"Feature","id":"44","geometry":{"type":"Point","coordinates":[120.94479,23.91117]},"properties":{"code":"44","name":"魚池鄉垃圾衛生掩埋場","county":"南投縣","township":"魚池鄉","statistical_date":"2025/6/30","design_capacity_m3":24000,"remaining_capacity_m3":0,"_featureId":"44","countyCodes":["10008"]}},{"type":"Feature","id":"43","geometry":{"type":"Point","coordinates":[120.7196,24.00839]},"properties":{"code":"43","name":"草屯鎮衛生掩埋場","county":"南投縣","township":"草屯鎮","statistical_date":"2025/6/30","design_capacity_m3":85500,"remaining_capacity_m3":0,"_featureId":"43","countyCodes":["10008"]}},{"type":"Feature","id":"42","geometry":{"type":"Point","coordinates":[120.66958,23.90611]},"properties":{"code":"42","name":"南投市衛生掩埋場","county":"南投縣","township":"南投市","statistical_date":"2025/6/30","design_capacity_m3":38148,"remaining_capacity_m3":0,"_featureId":"42","countyCodes":["10008"]}},{"type":"Feature","id":"41","geometry":{"type":"Point","coordinates":[120.65665000000001,23.77836]},"properties":{"code":"41","name":"竹山區域性衛生掩埋場","county":"南投縣","township":"竹山鎮","statistical_date":"2025/6/30","design_capacity_m3":135000,"remaining_capacity_m3":104856,"_featureId":"41","countyCodes":["10008"]}},{"type":"Feature","id":"40","geometry":{"type":"Point","coordinates":[120.68112,23.86408]},"properties":{"code":"40","name":"名間鄉衛生掩埋場","county":"南投縣","township":"名間鄉","statistical_date":"2025/6/30","design_capacity_m3":68308,"remaining_capacity_m3":0,"_featureId":"40","countyCodes":["10008"]}},{"type":"Feature","id":"39","geometry":{"type":"Point","coordinates":[120.74335,23.91187]},"properties":{"code":"39","name":"中寮鄉區域性衛生掩埋場","county":"南投縣","township":"中寮鄉","statistical_date":"2025/6/30","design_capacity_m3":934000,"remaining_capacity_m3":0,"_featureId":"39","countyCodes":["10008"]}},{"type":"Feature","id":"38","geometry":{"type":"Point","coordinates":[120.89295,24.56856]},"properties":{"code":"38","name":"頭屋鄉垃圾衛生掩埋場","county":"苗栗縣","township":"頭屋鄉","statistical_date":"2025/6/30","design_capacity_m3":105000,"remaining_capacity_m3":44883.67,"_featureId":"38","countyCodes":["10005"]}},{"type":"Feature","id":"37","geometry":{"type":"Point","coordinates":[120.88921000000002,24.66351]},"properties":{"code":"37","name":"頭份市區域性一般廢棄物處理場","county":"苗栗縣","township":"頭份市","statistical_date":"2025/6/30","design_capacity_m3":728500,"remaining_capacity_m3":19698.51,"_featureId":"37","countyCodes":["10005"]}},{"type":"Feature","id":"36","geometry":{"type":"Point","coordinates":[120.94680999999999,24.589600000000004]},"properties":{"code":"36","name":"獅潭鄉衛生掩埋場","county":"苗栗縣","township":"獅潭鄉","statistical_date":"2025/6/30","design_capacity_m3":16871,"remaining_capacity_m3":423,"_featureId":"36","countyCodes":["10005"]}},{"type":"Feature","id":"35","geometry":{"type":"Point","coordinates":[120.87756,24.61441]},"properties":{"code":"35","name":"造橋鄉垃圾衛生掩埋場","county":"苗栗縣","township":"造橋鄉","statistical_date":"2025/6/30","design_capacity_m3":80000,"remaining_capacity_m3":34768,"_featureId":"35","countyCodes":["10005"]}},{"type":"Feature","id":"34","geometry":{"type":"Point","coordinates":[120.75386000000002,24.50223]},"properties":{"code":"34","name":"通霄鎮垃圾衛生掩埋場(三期)","county":"苗栗縣","township":"通霄鎮","statistical_date":"2025/6/30","design_capacity_m3":143000,"remaining_capacity_m3":10533.01,"_featureId":"34","countyCodes":["10005"]}},{"type":"Feature","id":"33","geometry":{"type":"Point","coordinates":[120.83198999999999,24.66716]},"properties":{"code":"33","name":"後龍鎮衛生掩埋場","county":"苗栗縣","township":"後龍鎮","statistical_date":"2025/6/30","design_capacity_m3":23320,"remaining_capacity_m3":1855,"_featureId":"33","countyCodes":["10005"]}},{"type":"Feature","id":"32","geometry":{"type":"Point","coordinates":[120.83828000000001,24.67296]},"properties":{"code":"32","name":"竹南鎮垃圾衛生掩埋場(二期擴建)","county":"苗栗縣","township":"竹南鎮","statistical_date":"2025/6/30","design_capacity_m3":175800,"remaining_capacity_m3":0,"_featureId":"32","countyCodes":["10005"]}},{"type":"Feature","id":"31","geometry":{"type":"Point","coordinates":[120.87953000000002,24.43481]},"properties":{"code":"31","name":"大湖鄉垃圾衛生掩埋場(二期)","county":"苗栗縣","township":"大湖鄉","statistical_date":"2025/6/30","design_capacity_m3":87000,"remaining_capacity_m3":32784,"_featureId":"31","countyCodes":["10005"]}},{"type":"Feature","id":"30","geometry":{"type":"Point","coordinates":[120.94818,24.62635]},"properties":{"code":"30","name":"三灣鄉垃圾衛生掩埋場","county":"苗栗縣","township":"三灣鄉","statistical_date":"2025/6/30","design_capacity_m3":43500,"remaining_capacity_m3":7065,"_featureId":"30","countyCodes":["10005"]}},{"type":"Feature","id":"29","geometry":{"type":"Point","coordinates":[120.95508,24.88136]},"properties":{"code":"29","name":"新豐區域性衛生掩埋場","county":"新竹縣","township":"新豐鄉","statistical_date":"2025/6/30","design_capacity_m3":252000,"remaining_capacity_m3":0,"_featureId":"29","countyCodes":["10004"]}},{"type":"Feature","id":"28","geometry":{"type":"Point","coordinates":[121.03586,24.66968]},"properties":{"code":"28","name":"峨眉鄉垃圾衛生掩埋場","county":"新竹縣","township":"峨眉鄉","statistical_date":"2025/6/30","design_capacity_m3":149100,"remaining_capacity_m3":39500,"_featureId":"28","countyCodes":["10004"]}},{"type":"Feature","id":"27","geometry":{"type":"Point","coordinates":[121.07399999999998,24.73221]},"properties":{"code":"27","name":"竹東鎮垃圾衛生掩埋場（一～二期）","county":"新竹縣","township":"竹東鎮","statistical_date":"2025/6/30","design_capacity_m3":63200,"remaining_capacity_m3":0,"_featureId":"27","countyCodes":["10004"]}},{"type":"Feature","id":"26","geometry":{"type":"Point","coordinates":[120.91812999999999,24.80546]},"properties":{"code":"26","name":"浸水衛生掩埋場(二、三期)","county":"新竹市","township":"香山區","statistical_date":"2025/6/30","design_capacity_m3":2400000,"remaining_capacity_m3":259040.62,"_featureId":"26","countyCodes":["10018"]}},{"type":"Feature","id":"25","geometry":{"type":"Point","coordinates":[120.283,22.89155]},"properties":{"code":"25","name":"路竹簡易垃圾掩埋場","county":"高雄市","township":"路竹區","statistical_date":"2025/6/30","design_capacity_m3":240000,"remaining_capacity_m3":41658,"_featureId":"25","countyCodes":["64000"]}},{"type":"Feature","id":"24","geometry":{"type":"Point","coordinates":[120.28408,22.89176]},"properties":{"code":"24","name":"路竹區域性一般廢棄物衛生掩埋場","county":"高雄市","township":"路竹區","statistical_date":"2025/6/30","design_capacity_m3":168233,"remaining_capacity_m3":0,"_featureId":"24","countyCodes":["64000"]}},{"type":"Feature","id":"23","geometry":{"type":"Point","coordinates":[120.38308,22.6076]},"properties":{"code":"23","name":"大寮區區域性垃圾衛生掩埋場","county":"高雄市","township":"大寮區","statistical_date":"2025/6/30","design_capacity_m3":1044042,"remaining_capacity_m3":396335.4,"_featureId":"23","countyCodes":["64000"]}},{"type":"Feature","id":"22","geometry":{"type":"Point","coordinates":[120.24328,23.30171]},"properties":{"code":"22","name":"鹽水區垃圾衛生掩埋場(二期)","county":"臺南市","township":"鹽水區","statistical_date":"2025/6/30","design_capacity_m3":148200,"remaining_capacity_m3":10623,"_featureId":"22","countyCodes":["67000"]}},{"type":"Feature","id":"21","geometry":{"type":"Point","coordinates":[120.50330000000001,23.15756]},"properties":{"code":"21","name":"楠西區垃圾衛生掩埋場","county":"臺南市","township":"楠西區","statistical_date":"2025/6/30","design_capacity_m3":346200,"remaining_capacity_m3":156797,"_featureId":"21","countyCodes":["67000"]}},{"type":"Feature","id":"20","geometry":{"type":"Point","coordinates":[120.07708,23.04238]},"properties":{"code":"20","name":"城西垃圾衛生掩埋場","county":"臺南市","township":"安南區","statistical_date":"2025/6/30","design_capacity_m3":900000,"remaining_capacity_m3":288803.6,"_featureId":"20","countyCodes":["67000"]}},{"type":"Feature","id":"19","geometry":{"type":"Point","coordinates":[120.47268,23.07586]},"properties":{"code":"19","name":"南化區垃圾衛生掩埋場","county":"臺南市","township":"玉井區","statistical_date":"2025/6/30","design_capacity_m3":16800,"remaining_capacity_m3":10000,"_featureId":"19","countyCodes":["67000"]}},{"type":"Feature","id":"18","geometry":{"type":"Point","coordinates":[120.23381,23.07315]},"properties":{"code":"18","name":"安定區域性衛生掩埋場","county":"臺南市","township":"安定區","statistical_date":"2025/6/30","design_capacity_m3":261732,"remaining_capacity_m3":8621,"_featureId":"18","countyCodes":["67000"]}},{"type":"Feature","id":"17","geometry":{"type":"Point","coordinates":[120.13586,23.26783]},"properties":{"code":"17","name":"北門區垃圾衛生掩埋場","county":"臺南市","township":"北門區","statistical_date":"2025/6/30","design_capacity_m3":44206,"remaining_capacity_m3":0,"_featureId":"17","countyCodes":["67000"]}},{"type":"Feature","id":"16","geometry":{"type":"Point","coordinates":[120.2595,22.92876]},"properties":{"code":"16","name":"仁德龍崎區域性垃圾衛生掩埋場","county":"臺南市","township":"仁德區","statistical_date":"2025/6/30","design_capacity_m3":134150,"remaining_capacity_m3":0,"_featureId":"16","countyCodes":["67000"]}},{"type":"Feature","id":"15","geometry":{"type":"Point","coordinates":[120.37453,23.13818]},"properties":{"code":"15","name":"大內區垃圾衛生掩埋場","county":"臺南市","township":"大內區","statistical_date":"2025/6/30","design_capacity_m3":66800,"remaining_capacity_m3":0,"_featureId":"15","countyCodes":["67000"]}},{"type":"Feature","id":"14","geometry":{"type":"Point","coordinates":[120.62565000000001,24.29919]},"properties":{"code":"14","name":"清水區灰渣掩埋場","county":"臺中市","township":"清水區","statistical_date":"2025/6/30","design_capacity_m3":49384,"remaining_capacity_m3":49113,"_featureId":"14","countyCodes":["66000"]}},{"type":"Feature","id":"13","geometry":{"type":"Point","coordinates":[120.725978,24.013724]},"properties":{"code":"13","name":"霧峰區垃圾衛生掩埋場(四期)","county":"臺中市","township":"霧峰區","statistical_date":"2025/6/30","design_capacity_m3":45000,"remaining_capacity_m3":0,"_featureId":"13","countyCodes":["66000"]}},{"type":"Feature","id":"12","geometry":{"type":"Point","coordinates":[120.59478,24.1559]},"properties":{"code":"12","name":"南屯區文山垃圾衛生掩埋場","county":"臺中市","township":"南屯區","statistical_date":"2025/6/30","design_capacity_m3":3746000,"remaining_capacity_m3":0,"_featureId":"12","countyCodes":["66000"]}},{"type":"Feature","id":"11","geometry":{"type":"Point","coordinates":[120.73417999999998,24.28796]},"properties":{"code":"11","name":"后里區域性衛生掩埋場","county":"臺中市","township":"后里區","statistical_date":"2025/6/30","design_capacity_m3":201230,"remaining_capacity_m3":13795,"_featureId":"11","countyCodes":["66000"]}},{"type":"Feature","id":"10","geometry":{"type":"Point","coordinates":[120.72055999999999,24.08096]},"properties":{"code":"10","name":"大里區衛生掩埋場","county":"臺中市","township":"大里區","statistical_date":"2025/6/30","design_capacity_m3":1000000,"remaining_capacity_m3":0,"_featureId":"10","countyCodes":["66000"]}},{"type":"Feature","id":"9","geometry":{"type":"Point","coordinates":[121.137678,25.074665]},"properties":{"code":"9","name":"觀音區保障垃圾衛生掩埋場","county":"桃園市","township":"觀音區","statistical_date":"2025/6/30","design_capacity_m3":100000,"remaining_capacity_m3":49781,"_featureId":"9","countyCodes":["68000"]}},{"type":"Feature","id":"8","geometry":{"type":"Point","coordinates":[121.172992,24.865588]},"properties":{"code":"8","name":"龍潭區店子湖垃圾掩埋場","county":"桃園市","township":"龍潭區","statistical_date":"2025/6/30","design_capacity_m3":200000,"remaining_capacity_m3":1800,"_featureId":"8","countyCodes":["68000"]}},{"type":"Feature","id":"7","geometry":{"type":"Point","coordinates":[121.107475,24.945321]},"properties":{"code":"7","name":"楊梅區員本區域衛生掩埋場","county":"桃園市","township":"楊梅區","statistical_date":"2025/6/30","design_capacity_m3":105000,"remaining_capacity_m3":0,"_featureId":"7","countyCodes":["68000"]}},{"type":"Feature","id":"6","geometry":{"type":"Point","coordinates":[121.32494,25.020348]},"properties":{"code":"6","name":"桃園區會稽垃圾衛生掩埋場","county":"桃園市","township":"桃園區","statistical_date":"2025/6/30","design_capacity_m3":745468,"remaining_capacity_m3":37555,"_featureId":"6","countyCodes":["68000"]}},{"type":"Feature","id":"5","geometry":{"type":"Point","coordinates":[121.234823,24.986423]},"properties":{"code":"5","name":"中壢區忠福垃圾衛生掩埋場(第三期)","county":"桃園市","township":"中壢區","statistical_date":"2025/6/30","design_capacity_m3":120192,"remaining_capacity_m3":42587,"_featureId":"5","countyCodes":["68000"]}},{"type":"Feature","id":"4","geometry":{"type":"Point","coordinates":[121.03721699999998,25.018138]},"properties":{"code":"4","name":"大潭區域灰渣掩埋場","county":"桃園市","township":"觀音區","statistical_date":"2025/6/30","design_capacity_m3":369000,"remaining_capacity_m3":324602.26,"_featureId":"4","countyCodes":["68000"]}},{"type":"Feature","id":"3","geometry":{"type":"Point","coordinates":[121.322976,24.943603000000003]},"properties":{"code":"3","name":"八德區大安垃圾掩埋場","county":"桃園市","township":"八德區","statistical_date":"2025/6/30","design_capacity_m3":197200,"remaining_capacity_m3":0,"_featureId":"3","countyCodes":["68000"]}},{"type":"Feature","id":"2","geometry":{"type":"Point","coordinates":[121.36884,25.13578]},"properties":{"code":"2","name":"八里垃圾掩埋場","county":"新北市","township":"八里區","statistical_date":"2025/6/30","design_capacity_m3":5890000,"remaining_capacity_m3":230455,"_featureId":"2","countyCodes":["65000"]}},{"type":"Feature","id":"1","geometry":{"type":"Point","coordinates":[121.62366000000002,25.02641]},"properties":{"code":"1","name":"山豬窟垃圾衛生掩埋場","county":"臺北市","township":"南港區","statistical_date":"2025/6/30","design_capacity_m3":6170000,"remaining_capacity_m3":253639,"_featureId":"1","countyCodes":["63000"]}},{"type":"Feature","id":"66","geometry":{"type":"Point","coordinates":[121.84131,24.64656]},"properties":{"code":"66","name":"五結鄉垃圾衛生掩埋場","county":"宜蘭縣","township":"五結鄉","statistical_date":"2025/6/30","design_capacity_m3":260600,"remaining_capacity_m3":0,"_featureId":"66","countyCodes":["10002"]}},{"type":"Feature","id":"65","geometry":{"type":"Point","coordinates":[121.64720000000001,24.68895]},"properties":{"code":"65","name":"三星鄉衛生掩埋場","county":"宜蘭縣","township":"三星鄉","statistical_date":"2025/6/30","design_capacity_m3":105000,"remaining_capacity_m3":580,"_featureId":"65","countyCodes":["10002"]}},{"type":"Feature","id":"64","geometry":{"type":"Point","coordinates":[120.76345999999998,22.00356]},"properties":{"code":"64","name":"恆春區域性垃圾衛生掩埋場","county":"屏東縣","township":"恆春鎮","statistical_date":"2025/6/30","design_capacity_m3":669039,"remaining_capacity_m3":121609.6,"_featureId":"64","countyCodes":["10013"]}},{"type":"Feature","id":"63","geometry":{"type":"Point","coordinates":[120.59771,22.453130000000005]},"properties":{"code":"63","name":"枋寮區域性衛生掩埋場(一期~三期)","county":"屏東縣","township":"枋寮鄉","statistical_date":"2025/6/30","design_capacity_m3":1031598,"remaining_capacity_m3":142819.38,"_featureId":"63","countyCodes":["10013"]}}]}