{"type":"FeatureCollection","features":[{"type":"Feature","id":"台灣電力股份有限公司:台電離岸風力第一期計畫","geometry":{"type":"Polygon","coordinates":[[[120.24678977730059,24.01063609775687],[120.22934462024863,23.982342681856377],[120.22915218600887,23.97835087478779],[120.22527879734247,23.972065204432525],[120.23381464070025,23.967593524287057],[120.22994132808304,23.961307965323762],[120.23420888583367,23.95907204295436],[120.26133086669925,24.003068275483965],[120.24678977730059,24.01063609775687]]]},"properties":{"name":"台電離岸風力第一期計畫","company":"台灣電力股份有限公司","status":"已取得有效設置同意證明或籌設許可","corner_count":8,"_featureId":"台灣電力股份有限公司:台電離岸風力第一期計畫"}},{"type":"Feature","id":"海洋風力發電股份有限公司:海洋示範風場計畫","geometry":{"type":"Polygon","coordinates":[[[120.82341070425348,24.732498209612384],[120.83289608661896,24.725247128502474],[120.82749327638311,24.719351144368165],[120.8359443654819,24.712844340575774],[120.83063134407278,24.70698133372638],[120.83172974289725,24.70614145467952],[120.8299423966436,24.704190682398227],[120.83114960327428,24.703267685702908],[120.82673559214008,24.69844980655931],[120.82431416520328,24.7003012196494],[120.81716896757864,24.692501081397257],[120.81231619768403,24.69621104320669],[120.8068062939661,24.69019489806278],[120.80134341332474,24.69437077433577],[120.79806788138781,24.690793740365855],[120.78811031061878,24.69840395064901],[120.79956289577154,24.710910441089016],[120.8072682075616,24.705021363384834],[120.81180898730825,24.709978738772975],[120.80782550499849,24.713023493545503],[120.81319484292915,24.718885022386267],[120.81186761289008,24.71989945242974],[120.82341070425348,24.732498209612384]]]},"properties":{"name":"海洋示範風場計畫","company":"海洋風力發電股份有限公司","status":"已取得有效設置同意證明或籌設許可","corner_count":22,"_featureId":"海洋風力發電股份有限公司:海洋示範風場計畫"}},{"type":"Feature","id":"大彰化西南離岸風力發電股份有限公司:大彰化西南離岸風力發電計畫","geometry":{"type":"Polygon","coordinates":[[[119.75985176673335,24.19884944175947],[119.9060581287352,24.19270554492578],[119.85619061849226,24.11910609878368],[119.70802121418,24.123719883571525],[119.75985176673335,24.19884944175947]]]},"properties":{"name":"大彰化西南離岸風力發電計畫","company":"大彰化西南離岸風力發電股份有限公司","status":"已取得有效設置同意證明或籌設許可","corner_count":4,"_featureId":"大彰化西南離岸風力發電股份有限公司:大彰化西南離岸風力發電計畫"}},{"type":"Feature","id":"大彰化東南離岸風力發電股份有限公司:大彰化東南離岸風力發電計畫","geometry":{"type":"Polygon","coordinates":[[[119.9060581287352,24.19270554492578],[120.03806370927173,24.187037168880362],[119.98235247358878,24.115063945545856],[119.85619061849226,24.11910609878368],[119.9060581287352,24.19270554492578]]]},"properties":{"name":"大彰化東南離岸風力發電計畫","company":"大彰化東南離岸風力發電股份有限公司","status":"已取得有效設置同意證明或籌設許可","corner_count":4,"_featureId":"大彰化東南離岸風力發電股份有限公司:大彰化東南離岸風力發電計畫"}},{"type":"Feature","id":"大彰化西北離岸風力發電股份有限公司:大彰化西北離岸風力發電計畫","geometry":{"type":"Polygon","coordinates":[[[119.80916772911513,24.26865373170764],[119.95309735183054,24.26204106225338],[119.9060581287352,24.19270554492578],[119.76091389963109,24.198805359951788],[119.80916772911513,24.26865373170764]]]},"properties":{"name":"大彰化西北離岸風力發電計畫","company":"大彰化西北離岸風力發電股份有限公司","status":"已取得有效設置同意證明或籌設許可","corner_count":4,"_featureId":"大彰化西北離岸風力發電股份有限公司:大彰化西北離岸風力發電計畫"}},{"type":"Feature","id":"海龍二號風電股份有限公司:海龍二號離岸風力發電計畫(遴選)","geometry":{"type":"Polygon","coordinates":[[[119.8137811023293,23.968955902819832],[119.85725097063887,24.043959687069403],[119.92778216925834,24.044469875998576],[119.8551920354742,23.95041764578059],[119.8137811023293,23.968955902819832]]]},"properties":{"name":"海龍二號離岸風力發電計畫(遴選)","company":"海龍二號風電股份有限公司","status":"已取得有效設置同意證明或籌設許可","corner_count":4,"_featureId":"海龍二號風電股份有限公司:海龍二號離岸風力發電計畫(遴選)"}},{"type":"Feature","id":"海龍二號風電股份有限公司:海龍二號離岸風力發電計畫(競價)","geometry":{"type":"Polygon","coordinates":[[[119.8137811023293,23.968955902819832],[119.85725097063887,24.043959687069403],[119.92778216925834,24.044469875998576],[119.8551920354742,23.95041764578059],[119.8137811023293,23.968955902819832]]]},"properties":{"name":"海龍二號離岸風力發電計畫(競價)","company":"海龍二號風電股份有限公司","status":"已取得有效設置同意證明或籌設許可","corner_count":4,"_featureId":"海龍二號風電股份有限公司:海龍二號離岸風力發電計畫(競價)"}},{"type":"Feature","id":"海龍三號風電股份有限公司:海龍三號離岸風力發電計畫","geometry":{"type":"Polygon","coordinates":[[[119.68147445715414,24.04254681263869],[119.67632519438938,24.03037003787505],[119.8137811023293,23.968955902819832],[119.85725097063887,24.043959687069403],[119.68147445715414,24.04254681263869]]]},"properties":{"name":"海龍三號離岸風力發電計畫","company":"海龍三號風電股份有限公司","status":"已取得有效設置同意證明或籌設許可","corner_count":4,"_featureId":"海龍三號風電股份有限公司:海龍三號離岸風力發電計畫"}},{"type":"Feature","id":"允能風力發電股份有限公司:允能雲林離岸風力發電廠興建計畫","geometry":{"type":"Polygon","coordinates":[[[120.06853417761756,23.65331453936794],[120.05516438061822,23.560452725308558],[120.03263162886661,23.532233280343778],[119.99115652540218,23.51874970618154],[119.99085977487871,23.557648924142207],[120.00233982801593,23.625025329423764],[120.03216764139545,23.652885476749976],[120.06853417761756,23.65331453936794]]]},"properties":{"name":"允能雲林離岸風力發電廠興建計畫","company":"允能風力發電股份有限公司","status":"已取得有效設置同意證明或籌設許可","corner_count":7,"_featureId":"允能風力發電股份有限公司:允能雲林離岸風力發電廠興建計畫"}},{"type":"Feature","id":"海能風力發電股份有限公司:海能離岸風力發電計畫","geometry":{"type":"Polygon","coordinates":[[[120.68266984205647,24.628277612421186],[120.69161216101438,24.623474048791852],[120.73376451858172,24.65428545771237],[120.72751102242546,24.661508157616716],[120.74229539642906,24.67219725566634],[120.74277863656681,24.67495680849736],[120.74466000799757,24.677512075187995],[120.76027682586275,24.68763634061806],[120.78264184262176,24.70056527710454],[120.81249838625986,24.7247542447574],[120.80262076248893,24.73108665344448],[120.81081330084363,24.741746709401426],[120.81918929182851,24.743086156263896],[120.83050618486212,24.75559233679197],[120.81327608190333,24.768468364172485],[120.82196110523962,24.778974448537568],[120.80666405288287,24.790402491617627],[120.7589992183532,24.74137080447894],[120.75546225043946,24.72027170220401],[120.73592581064904,24.704444190091827],[120.73007103113225,24.690369974829203],[120.71034168121209,24.67274025824742],[120.69415067560683,24.65177140647683],[120.6899999808369,24.63967931073855],[120.68266984205647,24.628277612421186]]]},"properties":{"name":"海能離岸風力發電計畫","company":"海能風力發電股份有限公司","status":"已取得有效設置同意證明或籌設許可","corner_count":24,"_featureId":"海能風力發電股份有限公司:海能離岸風力發電計畫"}},{"type":"Feature","id":"中能發電股份有限公司:中能離岸風力發電開發計畫","geometry":{"type":"Polygon","coordinates":[[[120.18693765035341,23.928065131191545],[120.13825989515607,23.86033876243702],[120.09237612992456,23.8675857522813],[120.14708391717683,23.934509231949882],[120.18693765035341,23.928065131191545]]]},"properties":{"name":"中能離岸風力發電開發計畫","company":"中能發電股份有限公司","status":"已取得有效設置同意證明或籌設許可","corner_count":4,"_featureId":"中能發電股份有限公司:中能離岸風力發電開發計畫"}},{"type":"Feature","id":"彰芳風力發電股份有限公司:彰化彰芳離岸風力發電開發計畫第一期","geometry":{"type":"Polygon","coordinates":[[[120.21360285763987,24.046205191639295],[120.14926300558214,23.958086697832353],[120.06642224780838,23.963911025789848],[120.1296556448888,24.045581253707823],[120.21360285763987,24.046205191639295]]]},"properties":{"name":"彰化彰芳離岸風力發電開發計畫第一期","company":"彰芳風力發電股份有限公司","status":"已取得有效設置同意證明或籌設許可","corner_count":4,"_featureId":"彰芳風力發電股份有限公司:彰化彰芳離岸風力發電開發計畫第一期"}},{"type":"Feature","id":"彰芳風力發電股份有限公司:彰化彰芳離岸風力發電開發計畫第二期","geometry":{"type":"Polygon","coordinates":[[[120.21360285763987,24.046205191639295],[120.14926300558214,23.958086697832353],[120.06642224780838,23.963911025789848],[120.1296556448888,24.045581253707823],[120.21360285763987,24.046205191639295]]]},"properties":{"name":"彰化彰芳離岸風力發電開發計畫第二期","company":"彰芳風力發電股份有限公司","status":"已取得有效設置同意證明或籌設許可","corner_count":4,"_featureId":"彰芳風力發電股份有限公司:彰化彰芳離岸風力發電開發計畫第二期"}},{"type":"Feature","id":"西島風力發電股份有限公司:彰化西島離岸風力發電開發計畫","geometry":{"type":"Polygon","coordinates":[[[120.1850745683726,23.98459003158158],[120.2056889672292,23.98131021169459],[120.20385860127307,23.978631305062837],[120.19530850877501,23.967214265598873],[120.18285933409597,23.953125850008547],[120.18114334954893,23.951335149093598],[120.16294925078306,23.954277055730977],[120.1850745683726,23.98459003158158]]]},"properties":{"name":"彰化西島離岸風力發電開發計畫","company":"西島風力發電股份有限公司","status":"已取得有效設置同意證明或籌設許可","corner_count":7,"_featureId":"西島風力發電股份有限公司:彰化西島離岸風力發電開發計畫"}},{"type":"Feature","id":"台灣電力股份有限公司:台電離岸風力第二期計畫","geometry":{"type":"Polygon","coordinates":[[[120.18807529712029,24.120922188215005],[120.24909445464613,24.111212242919958],[120.20613561142676,24.052451698444717],[120.13467837973447,24.052064432919536],[120.18807529712029,24.120922188215005]]]},"properties":{"name":"台電離岸風力第二期計畫","company":"台灣電力股份有限公司","status":"已取得有效設置同意證明或籌設許可","corner_count":4,"_featureId":"台灣電力股份有限公司:台電離岸風力第二期計畫"}},{"type":"Feature","id":"海峽風電股份有限公司:海峽離岸風力發電計畫","geometry":{"type":"Polygon","coordinates":[[[120.13890575365625,23.94542571983786],[120.07655418742038,23.869141589123256],[120.06063725333364,23.871662684669015],[120.06575443287646,23.910676796850357],[120.0752011945129,23.913344971395546],[120.07900067754377,23.941556109003848],[120.10332585405664,23.940320509252974],[120.11552637675555,23.947260985498023],[120.13890575365625,23.94542571983786]]]},"properties":{"name":"海峽離岸風力發電計畫","company":"海峽風電股份有限公司","status":"已取得有效設置同意證明或籌設許可","corner_count":8,"_featureId":"海峽風電股份有限公司:海峽離岸風力發電計畫"}},{"type":"Feature","id":"海盛發電股份有限公司:海盛苗栗離岸風力發電計畫三","geometry":{"type":"Polygon","coordinates":[[[120.44619972586128,24.665495795380963],[120.52144336451929,24.71502903396116],[120.54599870680951,24.696700652036267],[120.49882224086886,24.63355343938405],[120.49065828387809,24.632396542178398],[120.47622190324235,24.629661765338746],[120.46400619307718,24.62687985580266],[120.45231990119608,24.623918236252848],[120.44087480818104,24.620629272395405],[120.42935114950014,24.616609125251745],[120.44619972586128,24.665495795380963]]]},"properties":{"name":"海盛苗栗離岸風力發電計畫三","company":"海盛發電股份有限公司","status":"已取得有效設置同意證明或籌設許可","corner_count":10,"_featureId":"海盛發電股份有限公司:海盛苗栗離岸風力發電計畫三"}},{"type":"Feature","id":"海鼎二風力發電股份有限公司:海鼎二風力發電計畫","geometry":{"type":"Polygon","coordinates":[[[119.7120986870709,24.112751198886276],[119.83766502970812,24.10884645317139],[119.8008047911003,24.054361804230314],[119.72120251414815,24.053717404814492],[119.69364980171963,24.085984319856863],[119.7120986870709,24.112751198886276]]]},"properties":{"name":"海鼎二風力發電計畫","company":"海鼎二風力發電股份有限公司","status":"已取得有效設置同意證明或籌設許可","corner_count":5,"_featureId":"海鼎二風力發電股份有限公司:海鼎二風力發電計畫"}},{"type":"Feature","id":"台灣環洋風力能源股份有限公司籌備處:環洋離岸風力發電計畫","geometry":{"type":"Polygon","coordinates":[[[120.23401364435406,24.05710224748886],[120.2236985414107,24.05703712954383],[120.26183138209154,24.109182345541615],[120.31036012093884,24.101431177890717],[120.2912494449578,24.07291210095463],[120.25300577185213,24.01985393062749],[120.24234065485236,24.025403207942844],[120.23340029281279,24.01090555026422],[120.23270167316485,24.011938351213008],[120.2318497254898,24.012883719717966],[120.23086607074006,24.013714214203063],[120.2297688834504,24.014414501959088],[120.22857843889034,24.014971626722843],[120.2273167327514,24.0153752958923],[120.22600708170592,24.01561805926471],[120.22467368684593,24.015695433368542],[120.22334118853627,24.015605971523126],[120.2220215936087,24.015348037352922],[120.22094306300167,24.016046206301844],[120.21975718156749,24.016611509930666],[120.21849878802541,24.01702384437529],[120.2171911387177,24.017275615994812],[120.2158583971137,24.017362152891724],[120.21452519204088,24.01728186525574],[120.21321616119397,24.017036234021354],[120.21195549366524,24.016629799458293],[120.21076648775028,24.01607006852051],[120.20967111199393,24.015367386043742],[120.20868960603582,24.01453474290362],[120.20784010653429,24.01358752107266],[120.20756616275139,24.013216729281897],[120.20173319446994,24.004883095671854],[120.20130683463925,24.00421208924227],[120.20076539610221,24.0030901432115],[120.20039458828927,24.001911119234734],[120.20020125638455,24.000696777881057],[120.2001889668283,23.999469575337155],[120.20035794291711,23.998252184484045],[120.20070505604897,23.997067079524246],[120.20122389032329,23.99593617522264],[120.20190485596734,23.994880349077054],[120.20273536855896,23.99391911736808],[120.2030206145131,23.993643400812452],[120.2030971388915,23.99316688684051],[120.20319937230121,23.99270225309217],[120.19027375016157,23.994758492741386],[120.2347922046742,24.05577350207406],[120.23401364435406,24.05710224748886]]]},"properties":{"name":"環洋離岸風力發電計畫","company":"台灣環洋風力能源股份有限公司籌備處","status":"已取得有效設置同意證明或籌設許可","corner_count":47,"_featureId":"台灣環洋風力能源股份有限公司籌備處:環洋離岸風力發電計畫"}},{"type":"Feature","id":"海廣發電股份有限公司籌備處:海廣離岸風力發電計畫","geometry":{"type":"Polygon","coordinates":[[[119.96785561638944,24.26327652856678],[120.09097881413743,24.25618764234724],[120.04565805437211,24.197554098351883],[119.9267265888008,24.202671883834018],[119.96785561638944,24.26327652856678]]]},"properties":{"name":"海廣離岸風力發電計畫","company":"海廣發電股份有限公司籌備處","status":"已取得有效設置同意證明或籌設許可","corner_count":4,"_featureId":"海廣發電股份有限公司籌備處:海廣離岸風力發電計畫"}},{"type":"Feature","id":"渢妙二號離岸風力發電股份有限公司籌備處:台中渢妙二號離岸風力發電計畫","geometry":{"type":"Polygon","coordinates":[[[120.11638007718392,24.54391544557258],[120.18798192947696,24.511558277601843],[120.17985066650002,24.483549809050174],[120.01115215442674,24.45568334231371],[120.06619999971261,24.501800000146],[120.11638007718392,24.54391544557258]]]},"properties":{"name":"台中渢妙二號離岸風力發電計畫","company":"渢妙二號離岸風力發電股份有限公司籌備處","status":"已取得有效設置同意證明或籌設許可","corner_count":5,"_featureId":"渢妙二號離岸風力發電股份有限公司籌備處:台中渢妙二號離岸風力發電計畫"}},{"type":"Feature","id":"又德風力發電股份有限公司:彰化又德離岸風力發電廠","geometry":{"type":"Polygon","coordinates":[[[119.97398171857611,24.1044947452727],[119.93616788199103,24.055443254847837],[119.81476709320192,24.05447282169531],[119.85126986171704,24.108417218026833],[119.97398171857611,24.1044947452727]]]},"properties":{"name":"彰化又德離岸風力發電廠","company":"又德風力發電股份有限公司","status":"已取得有效設置同意證明或籌設許可","corner_count":4,"_featureId":"又德風力發電股份有限公司:彰化又德離岸風力發電廠"}}]}