{"type":"FeatureCollection","features":[{"type":"Feature","id":"1","geometry":{"type":"Polygon","coordinates":[[[121.50715411072335,25.319009721810403],[121.49084028846409,25.308708722937716],[121.48838677809772,25.296143576323946],[121.44998756308779,25.260429524516564],[121.42147298416236,25.257444096622397],[121.42721400206345,25.27558468575479],[121.44683430572415,25.29219833663167],[121.45743616757657,25.31084659059901],[121.469964121604,25.32615408769491],[121.50715411072335,25.319009721810403]]]},"properties":{"name":"離岸風電潛力場址 1","code":"1","county":"新北市","area_km2":26.2,"status":"潛力場址","corner_count":9,"_featureId":"1"}},{"type":"Feature","id":"2","geometry":{"type":"Polygon","coordinates":[[[121.11155927965012,25.096790224381447],[121.11032191837167,25.092352858600993],[121.11596113938931,25.078963611122145],[121.06854894382923,25.04783126633598],[121.04751674480863,25.06381616546424],[121.01529323797688,25.039139282974073],[120.99670477915227,25.051795401190002],[121.00712947123189,25.063240458790542],[121.01669625499537,25.071010169325778],[121.03055190367373,25.080370030284765],[121.03945636641718,25.090913770571277],[121.07432148586177,25.116048418083174],[121.07999997112682,25.118593230592616],[121.08503286027289,25.120476607344948],[121.11155927965012,25.096790224381447]]]},"properties":{"name":"離岸風電潛力場址 2","code":"2","county":"桃園市","area_km2":50.2,"status":"潛力場址","corner_count":14,"_featureId":"2"}},{"type":"Feature","id":"4","geometry":{"type":"Polygon","coordinates":[[[120.87521929381258,24.86843040564354],[120.85978816649467,24.840212092960822],[120.8776503377654,24.830091317485433],[120.86603332038476,24.800291164671236],[120.87236663824942,24.797627752769653],[120.83617685676687,24.74196798218931],[120.82706175113411,24.75142574009927],[120.86158733417635,24.793174107375],[120.8612903044029,24.802263656568364],[120.84643311194642,24.808441048488085],[120.82432501114845,24.77786094166525],[120.80707684278664,24.790865649813508],[120.85427885587691,24.841884960899854],[120.85148107332557,24.849338073651552],[120.86384254641631,24.876565817189892],[120.87521929381258,24.86843040564354]]]},"properties":{"name":"離岸風電潛力場址 4","code":"4","county":"新竹市","area_km2":31.6,"status":"潛力場址","corner_count":15,"_featureId":"4"}},{"type":"Feature","id":"5","geometry":{"type":"Polygon","coordinates":[[[120.82411606135784,24.777364212350815],[120.81486306993962,24.76866842234448],[120.8198047169582,24.763793477900826],[120.75208517876126,24.69337070925721],[120.74814663008308,24.695782398705145],[120.71930125945009,24.667980990675154],[120.71088025985894,24.673221622818957],[120.73007103113225,24.690369974829203],[120.73592581064904,24.704444190091827],[120.75546225043946,24.72027170220401],[120.7589992183532,24.74137080447894],[120.80666405288287,24.790402491617627],[120.82411606135784,24.777364212350815]]]},"properties":{"name":"離岸風電潛力場址 5","code":"5","county":"苗栗縣","area_km2":34.7,"status":"潛力場址","corner_count":12,"_featureId":"5"}},{"type":"Feature","id":"6","geometry":{"type":"Polygon","coordinates":[[[120.73179465617832,24.65970434082299],[120.7287381582042,24.655953647090307],[120.74262932275735,24.648469053655585],[120.73122852006165,24.635671163400325],[120.70939532183645,24.64474172845818],[120.69526328814038,24.638734017572357],[120.69138856506024,24.627811723290087],[120.71210654453928,24.61488515168445],[120.70809956824743,24.60969031113028],[120.70170845688035,24.613135888673657],[120.67752960761784,24.60309271226414],[120.66928976018325,24.583100927628625],[120.66054051284462,24.58546578240371],[120.67139565686402,24.61073637590143],[120.6899999808369,24.63967931073855],[120.69415067560683,24.65177140647683],[120.71034168121209,24.67274025824742],[120.73179465617832,24.65970434082299]]]},"properties":{"name":"離岸風電潛力場址 6","code":"6","county":"苗栗縣","area_km2":20.8,"status":"潛力場址","corner_count":17,"_featureId":"6"}},{"type":"Feature","id":"8","geometry":{"type":"Polygon","coordinates":[[[120.3656028838222,24.397061030527276],[120.35957602025603,24.3815334054201],[120.29109524078262,24.295145905836193],[120.20271363422738,24.311864841353668],[120.26105708256897,24.399015656829263],[120.3656028838222,24.397061030527276]]]},"properties":{"name":"離岸風電潛力場址 8","code":"8","county":"臺中市","area_km2":112.5,"status":"潛力場址","corner_count":5,"_featureId":"8"}},{"type":"Feature","id":"9","geometry":{"type":"Polygon","coordinates":[[[120.0070167743043,24.341410675901802],[119.95309735183054,24.26204106225338],[119.78996299074483,24.269525685471713],[119.8802335265896,24.345632481312308],[119.94935765833215,24.323774982314053],[119.98732059239076,24.343049380649955],[120.0070167743043,24.341410675901802]]]},"properties":{"name":"離岸風電潛力場址 9","code":"9","county":"彰化縣","area_km2":120.7,"status":"潛力場址","corner_count":6,"_featureId":"9"}},{"type":"Feature","id":"10","geometry":{"type":"Polygon","coordinates":[[[120.13890978921131,24.33036997281045],[120.091187902913,24.25556768456728],[119.95309735183054,24.26204106225338],[120.0070167743043,24.341410675901802],[120.13890978921131,24.33036997281045]]]},"properties":{"name":"離岸風電潛力場址 10","code":"10","county":"彰化縣","area_km2":122,"status":"潛力場址","corner_count":4,"_featureId":"10"}},{"type":"Feature","id":"11","geometry":{"type":"Polygon","coordinates":[[[119.80810517665621,24.26870201098709],[119.66473398891435,24.06089622121838],[119.61178282263961,24.118888240693025],[119.78996299074483,24.269525685471713],[119.80810517665621,24.26870201098709]]]},"properties":{"name":"離岸風電潛力場址 11","code":"11","county":"彰化縣","area_km2":128.6,"status":"潛力場址","corner_count":4,"_featureId":"11"}},{"type":"Feature","id":"12","geometry":{"type":"Polygon","coordinates":[[[119.95309735183054,24.26204106225338],[119.9060581287352,24.19270554492578],[119.75985176673335,24.19884944175947],[119.80810517665621,24.26870201098709],[119.95309735183054,24.26204106225338]]]},"properties":{"name":"離岸風電潛力場址 12","code":"12","county":"彰化縣","area_km2":117.4,"status":"潛力場址","corner_count":4,"_featureId":"12"}},{"type":"Feature","id":"13","geometry":{"type":"Polygon","coordinates":[[[120.091187902913,24.25556768456728],[120.0472687222533,24.18663759554092],[119.9060581287352,24.19270554492578],[119.95309735183054,24.26204106225338],[120.091187902913,24.25556768456728]]]},"properties":{"name":"離岸風電潛力場址 13","code":"13","county":"彰化縣","area_km2":111.8,"status":"潛力場址","corner_count":4,"_featureId":"13"}},{"type":"Feature","id":"14","geometry":{"type":"Polygon","coordinates":[[[119.9060581287352,24.19270554492578],[119.85619061849226,24.11910609878368],[119.70802121418,24.123719883571525],[119.75985176673335,24.19884944175947],[119.9060581287352,24.19270554492578]]]},"properties":{"name":"離岸風電潛力場址 14","code":"14","county":"彰化縣","area_km2":126.3,"status":"潛力場址","corner_count":4,"_featureId":"14"}},{"type":"Feature","id":"15","geometry":{"type":"Polygon","coordinates":[[[120.0472687222533,24.18663759554092],[120.0013296376542,24.114446854688435],[119.85619061849226,24.11910609878368],[119.9060581287352,24.19270554492578],[120.0472687222533,24.18663759554092]]]},"properties":{"name":"離岸風電潛力場址 15","code":"15","county":"彰化縣","area_km2":120.4,"status":"潛力場址","corner_count":4,"_featureId":"15"}},{"type":"Feature","id":"16","geometry":{"type":"Polygon","coordinates":[[[119.85619061849226,24.11910609878368],[119.80507352392533,24.043561350994043],[119.68147445715414,24.04254681263869],[119.66473398891435,24.06089622121838],[119.70802121418,24.123719883571525],[119.85619061849226,24.11910609878368]]]},"properties":{"name":"離岸風電潛力場址 16","code":"16","county":"彰化縣","area_km2":131.1,"status":"潛力場址","corner_count":5,"_featureId":"16"}},{"type":"Feature","id":"17","geometry":{"type":"Polygon","coordinates":[[[120.0013296376542,24.114446854688435],[119.95698345656537,24.04467159322171],[119.80507352392533,24.043561350994043],[119.85619061849226,24.11910609878368],[120.0013296376542,24.114446854688435]]]},"properties":{"name":"離岸風電潛力場址 17","code":"17","county":"彰化縣","area_km2":122.5,"status":"潛力場址","corner_count":4,"_featureId":"17"}},{"type":"Feature","id":"18","geometry":{"type":"Polygon","coordinates":[[[119.85725097063887,24.043959687069403],[119.8137811023293,23.968955902819832],[119.67632519438938,24.03037003787505],[119.68147445715414,24.04254681263869],[119.85725097063887,24.043959687069403]]]},"properties":{"name":"離岸風電潛力場址 18","code":"18","county":"彰化縣","area_km2":85.2,"status":"潛力場址","corner_count":4,"_featureId":"18"}},{"type":"Feature","id":"19","geometry":{"type":"Polygon","coordinates":[[[119.95698345656537,24.04467159322171],[119.88784563582286,23.93578768641043],[119.8137811023293,23.968955902819832],[119.85725097063887,24.043959687069403],[119.95698345656537,24.04467159322171]]]},"properties":{"name":"離岸風電潛力場址 19","code":"19","county":"彰化縣","area_km2":100.5,"status":"潛力場址","corner_count":4,"_featureId":"19"}},{"type":"Feature","id":"20","geometry":{"type":"Polygon","coordinates":[[[120.29109524078262,24.295145905836193],[120.24183534076174,24.23291485556091],[120.11269453548748,24.254325569623962],[120.15843523052808,24.326161331625062],[120.20271363422738,24.311864841353668],[120.29109524078262,24.295145905836193]]]},"properties":{"name":"離岸風電潛力場址 20","code":"20","county":"彰化縣","area_km2":109.7,"status":"潛力場址","corner_count":5,"_featureId":"20"}},{"type":"Feature","id":"21","geometry":{"type":"Polygon","coordinates":[[[120.24183534076174,24.23291485556091],[120.1873445541346,24.163987943120038],[120.06478930150523,24.178991557270336],[120.11269453548748,24.254325569623962],[120.24183534076174,24.23291485556091]]]},"properties":{"name":"離岸風電潛力場址 21","code":"21","county":"彰化縣","area_km2":112.6,"status":"潛力場址","corner_count":4,"_featureId":"21"}},{"type":"Feature","id":"22","geometry":{"type":"Polygon","coordinates":[[[120.1873445541346,24.163987943120038],[120.14169743726276,24.106176737858732],[120.02546099703211,24.11706965955212],[120.06478930150523,24.178991557270336],[120.1873445541346,24.163987943120038]]]},"properties":{"name":"離岸風電潛力場址 22","code":"22","county":"彰化縣","area_km2":86.7,"status":"潛力場址","corner_count":4,"_featureId":"22"}},{"type":"Feature","id":"23","geometry":{"type":"Polygon","coordinates":[[[120.14169743726276,24.106176737858732],[120.09387606387546,24.04554296914627],[119.97994205606551,24.045315985526017],[120.02546099703211,24.11706965955212],[120.14169743726276,24.106176737858732]]]},"properties":{"name":"離岸風電潛力場址 23","code":"23","county":"彰化縣","area_km2":88.6,"status":"潛力場址","corner_count":4,"_featureId":"23"}},{"type":"Feature","id":"24","geometry":{"type":"Polygon","coordinates":[[[120.09387606387546,24.04554296914627],[120.02745172759498,23.960372931714076],[119.94485694684285,23.989947675762412],[119.97994205606551,24.045315985526017],[120.09387606387546,24.04554296914627]]]},"properties":{"name":"離岸風電潛力場址 24","code":"24","county":"彰化縣","area_km2":86.2,"status":"潛力場址","corner_count":4,"_featureId":"24"}},{"type":"Feature","id":"25","geometry":{"type":"Polygon","coordinates":[[[120.02745172759498,23.960372931714076],[119.95382663630117,23.86580935375153],[119.89737641785395,23.914932574499325],[119.94485694684285,23.989947675762412],[120.02745172759498,23.960372931714076]]]},"properties":{"name":"離岸風電潛力場址 25","code":"25","county":"彰化縣","area_km2":93.3,"status":"潛力場址","corner_count":4,"_featureId":"25"}},{"type":"Feature","id":"26","geometry":{"type":"Polygon","coordinates":[[[120.32578013672055,24.09896479325974],[120.27950006907753,24.047400151738568],[120.25300013272908,24.04860014083559],[120.24561071251615,24.04636579781459],[120.21360305701732,24.046204741215778],[120.11774893782258,24.04548863760446],[120.17827907902002,24.12248912010064],[120.32578013672055,24.09896479325974]]]},"properties":{"name":"離岸風電潛力場址 26","code":"26","county":"彰化縣","area_km2":118.6,"status":"潛力場址","corner_count":7,"_featureId":"26"}},{"type":"Feature","id":"27","geometry":{"type":"Polygon","coordinates":[[[120.21360305701732,24.046204741215778],[120.14926300735934,23.958086426973523],[120.05478180666242,23.96472560067219],[120.11774893782258,24.04548863760446],[120.21360305701732,24.046204741215778]]]},"properties":{"name":"離岸風電潛力場址 27","code":"27","county":"彰化縣","area_km2":92.7,"status":"潛力場址","corner_count":4,"_featureId":"27"}},{"type":"Feature","id":"28","geometry":{"type":"Polygon","coordinates":[[[120.14926300735934,23.958086426973523],[120.07377426529271,23.865737865275936],[119.98820890457176,23.879202997183675],[120.05478180666242,23.96472560067219],[120.14926300735934,23.958086426973523]]]},"properties":{"name":"離岸風電潛力場址 28","code":"28","county":"彰化縣","area_km2":98.3,"status":"潛力場址","corner_count":4,"_featureId":"28"}},{"type":"Feature","id":"29","geometry":{"type":"Polygon","coordinates":[[[120.22305563519579,23.93178718241247],[120.1669895304961,23.85101130526459],[120.07377426529271,23.865737865275936],[120.13888772627763,23.945403588117735],[120.22305563519579,23.93178718241247]]]},"properties":{"name":"離岸風電潛力場址 29","code":"29","county":"彰化縣","area_km2":89.9,"status":"潛力場址","corner_count":4,"_featureId":"29"}},{"type":"Feature","id":"30","geometry":{"type":"Polygon","coordinates":[[[120.1669895304961,23.85101130526459],[120.11228528560736,23.797176062136458],[119.96491650558936,23.816401072191194],[119.98820890457176,23.879202997183675],[120.1669895304961,23.85101130526459]]]},"properties":{"name":"離岸風電潛力場址 30","code":"30","county":"雲林縣","area_km2":117.8,"status":"潛力場址","corner_count":4,"_featureId":"30"}},{"type":"Feature","id":"31","geometry":{"type":"Polygon","coordinates":[[[120.11228528560736,23.797176062136458],[120.09697443346916,23.78209707985427],[120.08197561990337,23.72782756328841],[119.96279123318917,23.73825108179874],[119.95512309620847,23.78997736976831],[119.96491650558936,23.816401072191194],[120.11228528560736,23.797176062136458]]]},"properties":{"name":"離岸風電潛力場址 31","code":"31","county":"雲林縣","area_km2":114.3,"status":"潛力場址","corner_count":6,"_featureId":"31"}},{"type":"Feature","id":"32","geometry":{"type":"Polygon","coordinates":[[[120.08197561990337,23.72782756328841],[120.06137851431532,23.653230791454344],[119.9755323197979,23.652200295881592],[119.96279123318917,23.73825108179874],[120.08197561990337,23.72782756328841]]]},"properties":{"name":"離岸風電潛力場址 32","code":"32","county":"雲林縣","area_km2":93.2,"status":"潛力場址","corner_count":4,"_featureId":"32"}},{"type":"Feature","id":"33","geometry":{"type":"Polygon","coordinates":[[[120.06984570189695,23.238124546016376],[120.05835223193321,23.180654597569667],[119.97718774218444,23.180143771819193],[119.9756975177102,23.23796475466172],[120.06984570189695,23.238124546016376]]]},"properties":{"name":"離岸風電潛力場址 33","code":"33","county":"臺南市","area_km2":57.3,"status":"潛力場址","corner_count":4,"_featureId":"33"}},{"type":"Feature","id":"34","geometry":{"type":"Polygon","coordinates":[[[120.16180996380092,22.90753815820125],[120.16855470261703,22.899064008095444],[120.17970959008434,22.896624582213743],[120.18650655291027,22.878471468122857],[120.16516351124342,22.86398874312366],[120.14668197794826,22.891282917090823],[120.13090146901393,22.884697173477957],[120.13876346885715,22.86664955914227],[120.12913578789613,22.861805478542458],[120.15013713390806,22.821232659087556],[120.13345835922946,22.816302905984873],[120.11064301140935,22.8548698237123],[120.09382587335675,22.88328070874353],[120.11766090468053,22.893157343714456],[120.11988475809656,22.90663165946261],[120.16180996380092,22.90753815820125]]]},"properties":{"name":"離岸風電潛力場址 34","code":"34","county":"高雄市","area_km2":38.8,"status":"潛力場址","corner_count":15,"_featureId":"34"}},{"type":"Feature","id":"35","geometry":{"type":"Polygon","coordinates":[[[120.20926517954791,22.77525085212176],[120.22105628485852,22.735626979212434],[120.14901386425105,22.72177396124804],[120.14126590579367,22.749104160829546],[120.1519543832615,22.75287317684355],[120.15073827683491,22.76397724875062],[120.20926517954791,22.77525085212176]]]},"properties":{"name":"離岸風電潛力場址 35","code":"35","county":"高雄市","area_km2":32.5,"status":"潛力場址","corner_count":6,"_featureId":"35"}}]}